{"type": "FeatureCollection", "features": [{"type": "Feature", "geometry": {"type": "Point", "coordinates": [35.688343, -6.278822]}, "properties": {"rank": 1, "score": 0.9806, "aoi": "Dodoma craton (Gold, gemstones, Li-pegmatites)"}}, {"type": "Feature", "geometry": {"type": "Point", "coordinates": [35.688524, -6.279002]}, "properties": {"rank": 2, "score": 0.9766, "aoi": "Dodoma craton (Gold, gemstones, Li-pegmatites)"}}, {"type": "Feature", "geometry": {"type": "Point", "coordinates": [35.688344, -6.279003]}, "properties": {"rank": 3, "score": 0.9732, "aoi": "Dodoma craton (Gold, gemstones, Li-pegmatites)"}}, {"type": "Feature", "geometry": {"type": "Point", "coordinates": [35.688524, -6.278821]}, "properties": {"rank": 4, "score": 0.9701, "aoi": "Dodoma craton (Gold, gemstones, Li-pegmatites)"}}, {"type": "Feature", "geometry": {"type": "Point", "coordinates": [35.688522, -6.27846]}, "properties": {"rank": 5, "score": 0.9664, "aoi": "Dodoma craton (Gold, gemstones, Li-pegmatites)"}}, {"type": "Feature", "geometry": {"type": "Point", "coordinates": [35.688704, -6.27882]}, "properties": {"rank": 6, "score": 0.9605, "aoi": "Dodoma craton (Gold, gemstones, Li-pegmatites)"}}, {"type": "Feature", "geometry": {"type": "Point", "coordinates": [35.688523, -6.278641]}, "properties": {"rank": 7, "score": 0.9588, "aoi": "Dodoma craton (Gold, gemstones, Li-pegmatites)"}}, {"type": "Feature", "geometry": {"type": "Point", "coordinates": [35.650665, -6.292931]}, "properties": {"rank": 8, "score": 0.9572, "aoi": "Dodoma craton (Gold, gemstones, Li-pegmatites)"}}, {"type": "Feature", "geometry": {"type": "Point", "coordinates": [35.641792, -6.288638]}, "properties": {"rank": 9, "score": 0.9564, "aoi": "Dodoma craton (Gold, gemstones, Li-pegmatites)"}}, {"type": "Feature", "geometry": {"type": "Point", "coordinates": [35.708788, -6.285765]}, "properties": {"rank": 10, "score": 0.9532, "aoi": "Dodoma craton (Gold, gemstones, Li-pegmatites)"}}, {"type": "Feature", "geometry": {"type": "Point", "coordinates": [35.641971, -6.288276]}, "properties": {"rank": 11, "score": 0.9528, "aoi": "Dodoma craton (Gold, gemstones, Li-pegmatites)"}}, {"type": "Feature", "geometry": {"type": "Point", "coordinates": [35.641613, -6.28882]}, "properties": {"rank": 12, "score": 0.9506, "aoi": "Dodoma craton (Gold, gemstones, Li-pegmatites)"}}, {"type": "Feature", "geometry": {"type": "Point", "coordinates": [35.643432, -6.146752]}, "properties": {"rank": 13, "score": 0.9506, "aoi": "Dodoma craton (Gold, gemstones, Li-pegmatites)"}}, {"type": "Feature", "geometry": {"type": "Point", "coordinates": [35.650483, -6.292751]}, "properties": {"rank": 14, "score": 0.9483, "aoi": "Dodoma craton (Gold, gemstones, Li-pegmatites)"}}, {"type": "Feature", "geometry": {"type": "Point", "coordinates": [35.688345, -6.279184]}, "properties": {"rank": 15, "score": 0.9475, "aoi": "Dodoma craton (Gold, gemstones, Li-pegmatites)"}}, {"type": "Feature", "geometry": {"type": "Point", "coordinates": [35.708787, -6.285584]}, "properties": {"rank": 16, "score": 0.9464, "aoi": "Dodoma craton (Gold, gemstones, Li-pegmatites)"}}, {"type": "Feature", "geometry": {"type": "Point", "coordinates": [35.650305, -6.293114]}, "properties": {"rank": 17, "score": 0.9447, "aoi": "Dodoma craton (Gold, gemstones, Li-pegmatites)"}}, {"type": "Feature", "geometry": {"type": "Point", "coordinates": [35.688703, -6.27864]}, "properties": {"rank": 18, "score": 0.9444, "aoi": "Dodoma craton (Gold, gemstones, Li-pegmatites)"}}, {"type": "Feature", "geometry": {"type": "Point", "coordinates": [35.642337, -6.289178]}, "properties": {"rank": 19, "score": 0.9433, "aoi": "Dodoma craton (Gold, gemstones, Li-pegmatites)"}}, {"type": "Feature", "geometry": {"type": "Point", "coordinates": [35.650484, -6.292932]}, "properties": {"rank": 20, "score": 0.9429, "aoi": "Dodoma craton (Gold, gemstones, Li-pegmatites)"}}, {"type": "Feature", "geometry": {"type": "Point", "coordinates": [35.643252, -6.146934]}, "properties": {"rank": 21, "score": 0.9427, "aoi": "Dodoma craton (Gold, gemstones, Li-pegmatites)"}}, {"type": "Feature", "geometry": {"type": "Point", "coordinates": [35.791147, -6.285874]}, "properties": {"rank": 22, "score": 0.9413, "aoi": "Dodoma craton (Gold, gemstones, Li-pegmatites)"}}, {"type": "Feature", "geometry": {"type": "Point", "coordinates": [35.642338, -6.289358]}, "properties": {"rank": 23, "score": 0.9412, "aoi": "Dodoma craton (Gold, gemstones, Li-pegmatites)"}}, {"type": "Feature", "geometry": {"type": "Point", "coordinates": [35.651208, -6.293109]}, "properties": {"rank": 24, "score": 0.9407, "aoi": "Dodoma craton (Gold, gemstones, Li-pegmatites)"}}, {"type": "Feature", "geometry": {"type": "Point", "coordinates": [35.688342, -6.278641]}, "properties": {"rank": 25, "score": 0.9403, "aoi": "Dodoma craton (Gold, gemstones, Li-pegmatites)"}}, {"type": "Feature", "geometry": {"type": "Point", "coordinates": [35.650486, -6.293293]}, "properties": {"rank": 26, "score": 0.9397, "aoi": "Dodoma craton (Gold, gemstones, Li-pegmatites)"}}, {"type": "Feature", "geometry": {"type": "Point", "coordinates": [35.684162, -6.238179]}, "properties": {"rank": 27, "score": 0.9395, "aoi": "Dodoma craton (Gold, gemstones, Li-pegmatites)"}}, {"type": "Feature", "geometry": {"type": "Point", "coordinates": [35.72168, -6.229131]}, "properties": {"rank": 28, "score": 0.9394, "aoi": "Dodoma craton (Gold, gemstones, Li-pegmatites)"}}, {"type": "Feature", "geometry": {"type": "Point", "coordinates": [35.684161, -6.237999]}, "properties": {"rank": 29, "score": 0.938, "aoi": "Dodoma craton (Gold, gemstones, Li-pegmatites)"}}, {"type": "Feature", "geometry": {"type": "Point", "coordinates": [35.791328, -6.285873]}, "properties": {"rank": 30, "score": 0.9375, "aoi": "Dodoma craton (Gold, gemstones, Li-pegmatites)"}}, {"type": "Feature", "geometry": {"type": "Point", "coordinates": [35.721108, -6.293111]}, "properties": {"rank": 31, "score": 0.9375, "aoi": "Dodoma craton (Gold, gemstones, Li-pegmatites)"}}, {"type": "Feature", "geometry": {"type": "Point", "coordinates": [35.823126, -6.25462]}, "properties": {"rank": 32, "score": 0.9365, "aoi": "Dodoma craton (Gold, gemstones, Li-pegmatites)"}}, {"type": "Feature", "geometry": {"type": "Point", "coordinates": [35.892053, -6.244487]}, "properties": {"rank": 33, "score": 0.9362, "aoi": "Dodoma craton (Gold, gemstones, Li-pegmatites)"}}, {"type": "Feature", "geometry": {"type": "Point", "coordinates": [35.641967, -6.287372]}, "properties": {"rank": 34, "score": 0.936, "aoi": "Dodoma craton (Gold, gemstones, Li-pegmatites)"}}, {"type": "Feature", "geometry": {"type": "Point", "coordinates": [35.766359, -6.242995]}, "properties": {"rank": 35, "score": 0.9359, "aoi": "Dodoma craton (Gold, gemstones, Li-pegmatites)"}}, {"type": "Feature", "geometry": {"type": "Point", "coordinates": [35.641433, -6.289002]}, "properties": {"rank": 36, "score": 0.9354, "aoi": "Dodoma craton (Gold, gemstones, Li-pegmatites)"}}, {"type": "Feature", "geometry": {"type": "Point", "coordinates": [35.76528, -6.243904]}, "properties": {"rank": 37, "score": 0.9348, "aoi": "Dodoma craton (Gold, gemstones, Li-pegmatites)"}}, {"type": "Feature", "geometry": {"type": "Point", "coordinates": [35.628514, -6.233942]}, "properties": {"rank": 38, "score": 0.9346, "aoi": "Dodoma craton (Gold, gemstones, Li-pegmatites)"}}, {"type": "Feature", "geometry": {"type": "Point", "coordinates": [35.641794, -6.289]}, "properties": {"rank": 39, "score": 0.9344, "aoi": "Dodoma craton (Gold, gemstones, Li-pegmatites)"}}, {"type": "Feature", "geometry": {"type": "Point", "coordinates": [35.77708, -6.289563]}, "properties": {"rank": 40, "score": 0.9342, "aoi": "Dodoma craton (Gold, gemstones, Li-pegmatites)"}}, {"type": "Feature", "geometry": {"type": "Point", "coordinates": [35.641783, -6.286831]}, "properties": {"rank": 41, "score": 0.9339, "aoi": "Dodoma craton (Gold, gemstones, Li-pegmatites)"}}, {"type": "Feature", "geometry": {"type": "Point", "coordinates": [35.850169, -6.246342]}, "properties": {"rank": 42, "score": 0.9338, "aoi": "Dodoma craton (Gold, gemstones, Li-pegmatites)"}}, {"type": "Feature", "geometry": {"type": "Point", "coordinates": [35.763484, -6.245721]}, "properties": {"rank": 43, "score": 0.9335, "aoi": "Dodoma craton (Gold, gemstones, Li-pegmatites)"}}, {"type": "Feature", "geometry": {"type": "Point", "coordinates": [35.642157, -6.289359]}, "properties": {"rank": 44, "score": 0.9335, "aoi": "Dodoma craton (Gold, gemstones, Li-pegmatites)"}}, {"type": "Feature", "geometry": {"type": "Point", "coordinates": [35.815001, -6.254844]}, "properties": {"rank": 45, "score": 0.9322, "aoi": "Dodoma craton (Gold, gemstones, Li-pegmatites)"}}, {"type": "Feature", "geometry": {"type": "Point", "coordinates": [35.641963, -6.286649]}, "properties": {"rank": 46, "score": 0.9319, "aoi": "Dodoma craton (Gold, gemstones, Li-pegmatites)"}}, {"type": "Feature", "geometry": {"type": "Point", "coordinates": [35.834788, -6.273893]}, "properties": {"rank": 47, "score": 0.9319, "aoi": "Dodoma craton (Gold, gemstones, Li-pegmatites)"}}, {"type": "Feature", "geometry": {"type": "Point", "coordinates": [35.646683, -6.291325]}, "properties": {"rank": 48, "score": 0.9313, "aoi": "Dodoma craton (Gold, gemstones, Li-pegmatites)"}}, {"type": "Feature", "geometry": {"type": "Point", "coordinates": [35.650305, -6.293294]}, "properties": {"rank": 49, "score": 0.9304, "aoi": "Dodoma craton (Gold, gemstones, Li-pegmatites)"}}, {"type": "Feature", "geometry": {"type": "Point", "coordinates": [35.816263, -6.288088]}, "properties": {"rank": 50, "score": 0.9304, "aoi": "Dodoma craton (Gold, gemstones, Li-pegmatites)"}}, {"type": "Feature", "geometry": {"type": "Point", "coordinates": [35.641966, -6.287192]}, "properties": {"rank": 51, "score": 0.9297, "aoi": "Dodoma craton (Gold, gemstones, Li-pegmatites)"}}, {"type": "Feature", "geometry": {"type": "Point", "coordinates": [35.65031, -6.294198]}, "properties": {"rank": 52, "score": 0.9295, "aoi": "Dodoma craton (Gold, gemstones, Li-pegmatites)"}}, {"type": "Feature", "geometry": {"type": "Point", "coordinates": [35.64234, -6.28972]}, "properties": {"rank": 53, "score": 0.9294, "aoi": "Dodoma craton (Gold, gemstones, Li-pegmatites)"}}, {"type": "Feature", "geometry": {"type": "Point", "coordinates": [35.770089, -6.231229]}, "properties": {"rank": 54, "score": 0.9292, "aoi": "Dodoma craton (Gold, gemstones, Li-pegmatites)"}}, {"type": "Feature", "geometry": {"type": "Point", "coordinates": [35.641426, -6.287556]}, "properties": {"rank": 55, "score": 0.9288, "aoi": "Dodoma craton (Gold, gemstones, Li-pegmatites)"}}, {"type": "Feature", "geometry": {"type": "Point", "coordinates": [35.649042, -6.293481]}, "properties": {"rank": 56, "score": 0.9287, "aoi": "Dodoma craton (Gold, gemstones, Li-pegmatites)"}}, {"type": "Feature", "geometry": {"type": "Point", "coordinates": [35.91078, -6.267513]}, "properties": {"rank": 57, "score": 0.9285, "aoi": "Dodoma craton (Gold, gemstones, Li-pegmatites)"}}, {"type": "Feature", "geometry": {"type": "Point", "coordinates": [35.765635, -6.242637]}, "properties": {"rank": 58, "score": 0.9285, "aoi": "Dodoma craton (Gold, gemstones, Li-pegmatites)"}}, {"type": "Feature", "geometry": {"type": "Point", "coordinates": [35.641406, -6.28358]}, "properties": {"rank": 59, "score": 0.9284, "aoi": "Dodoma craton (Gold, gemstones, Li-pegmatites)"}}, {"type": "Feature", "geometry": {"type": "Point", "coordinates": [35.85107, -6.245976]}, "properties": {"rank": 60, "score": 0.9281, "aoi": "Dodoma craton (Gold, gemstones, Li-pegmatites)"}}, {"type": "Feature", "geometry": {"type": "Point", "coordinates": [35.791508, -6.285872]}, "properties": {"rank": 61, "score": 0.9277, "aoi": "Dodoma craton (Gold, gemstones, Li-pegmatites)"}}, {"type": "Feature", "geometry": {"type": "Point", "coordinates": [35.844402, -6.281792]}, "properties": {"rank": 62, "score": 0.9276, "aoi": "Dodoma craton (Gold, gemstones, Li-pegmatites)"}}, {"type": "Feature", "geometry": {"type": "Point", "coordinates": [35.643431, -6.146572]}, "properties": {"rank": 63, "score": 0.9275, "aoi": "Dodoma craton (Gold, gemstones, Li-pegmatites)"}}, {"type": "Feature", "geometry": {"type": "Point", "coordinates": [35.688341, -6.278461]}, "properties": {"rank": 64, "score": 0.9274, "aoi": "Dodoma craton (Gold, gemstones, Li-pegmatites)"}}, {"type": "Feature", "geometry": {"type": "Point", "coordinates": [35.791688, -6.28569]}, "properties": {"rank": 65, "score": 0.9273, "aoi": "Dodoma craton (Gold, gemstones, Li-pegmatites)"}}, {"type": "Feature", "geometry": {"type": "Point", "coordinates": [35.649948, -6.294019]}, "properties": {"rank": 66, "score": 0.9272, "aoi": "Dodoma craton (Gold, gemstones, Li-pegmatites)"}}, {"type": "Feature", "geometry": {"type": "Point", "coordinates": [35.619297, -6.269232]}, "properties": {"rank": 67, "score": 0.9269, "aoi": "Dodoma craton (Gold, gemstones, Li-pegmatites)"}}, {"type": "Feature", "geometry": {"type": "Point", "coordinates": [35.83403, -6.300642]}, "properties": {"rank": 68, "score": 0.9265, "aoi": "Dodoma craton (Gold, gemstones, Li-pegmatites)"}}, {"type": "Feature", "geometry": {"type": "Point", "coordinates": [35.72093, -6.293473]}, "properties": {"rank": 69, "score": 0.9264, "aoi": "Dodoma craton (Gold, gemstones, Li-pegmatites)"}}, {"type": "Feature", "geometry": {"type": "Point", "coordinates": [35.84612, -6.298769]}, "properties": {"rank": 70, "score": 0.9259, "aoi": "Dodoma craton (Gold, gemstones, Li-pegmatites)"}}, {"type": "Feature", "geometry": {"type": "Point", "coordinates": [35.763303, -6.245722]}, "properties": {"rank": 71, "score": 0.9257, "aoi": "Dodoma craton (Gold, gemstones, Li-pegmatites)"}}, {"type": "Feature", "geometry": {"type": "Point", "coordinates": [35.651027, -6.29311]}, "properties": {"rank": 72, "score": 0.9255, "aoi": "Dodoma craton (Gold, gemstones, Li-pegmatites)"}}, {"type": "Feature", "geometry": {"type": "Point", "coordinates": [35.834789, -6.274074]}, "properties": {"rank": 73, "score": 0.9246, "aoi": "Dodoma craton (Gold, gemstones, Li-pegmatites)"}}, {"type": "Feature", "geometry": {"type": "Point", "coordinates": [35.689904, -6.266344]}, "properties": {"rank": 74, "score": 0.9245, "aoi": "Dodoma craton (Gold, gemstones, Li-pegmatites)"}}, {"type": "Feature", "geometry": {"type": "Point", "coordinates": [35.642156, -6.289179]}, "properties": {"rank": 75, "score": 0.9243, "aoi": "Dodoma craton (Gold, gemstones, Li-pegmatites)"}}, {"type": "Feature", "geometry": {"type": "Point", "coordinates": [35.791327, -6.285692]}, "properties": {"rank": 76, "score": 0.9243, "aoi": "Dodoma craton (Gold, gemstones, Li-pegmatites)"}}, {"type": "Feature", "geometry": {"type": "Point", "coordinates": [35.642891, -6.146936]}, "properties": {"rank": 77, "score": 0.9242, "aoi": "Dodoma craton (Gold, gemstones, Li-pegmatites)"}}, {"type": "Feature", "geometry": {"type": "Point", "coordinates": [35.763308, -6.246625]}, "properties": {"rank": 78, "score": 0.9242, "aoi": "Dodoma craton (Gold, gemstones, Li-pegmatites)"}}, {"type": "Feature", "geometry": {"type": "Point", "coordinates": [35.766706, -6.240282]}, "properties": {"rank": 79, "score": 0.9241, "aoi": "Dodoma craton (Gold, gemstones, Li-pegmatites)"}}, {"type": "Feature", "geometry": {"type": "Point", "coordinates": [35.809611, -6.293726]}, "properties": {"rank": 80, "score": 0.9238, "aoi": "Dodoma craton (Gold, gemstones, Li-pegmatites)"}}, {"type": "Feature", "geometry": {"type": "Point", "coordinates": [35.628333, -6.233943]}, "properties": {"rank": 81, "score": 0.9236, "aoi": "Dodoma craton (Gold, gemstones, Li-pegmatites)"}}, {"type": "Feature", "geometry": {"type": "Point", "coordinates": [35.708608, -6.285766]}, "properties": {"rank": 82, "score": 0.9234, "aoi": "Dodoma craton (Gold, gemstones, Li-pegmatites)"}}, {"type": "Feature", "geometry": {"type": "Point", "coordinates": [35.846119, -6.298588]}, "properties": {"rank": 83, "score": 0.9233, "aoi": "Dodoma craton (Gold, gemstones, Li-pegmatites)"}}, {"type": "Feature", "geometry": {"type": "Point", "coordinates": [35.652665, -6.295451]}, "properties": {"rank": 84, "score": 0.9232, "aoi": "Dodoma craton (Gold, gemstones, Li-pegmatites)"}}, {"type": "Feature", "geometry": {"type": "Point", "coordinates": [35.641792, -6.288458]}, "properties": {"rank": 85, "score": 0.9229, "aoi": "Dodoma craton (Gold, gemstones, Li-pegmatites)"}}, {"type": "Feature", "geometry": {"type": "Point", "coordinates": [35.650482, -6.29257]}, "properties": {"rank": 86, "score": 0.9229, "aoi": "Dodoma craton (Gold, gemstones, Li-pegmatites)"}}, {"type": "Feature", "geometry": {"type": "Point", "coordinates": [35.641606, -6.287555]}, "properties": {"rank": 87, "score": 0.9229, "aoi": "Dodoma craton (Gold, gemstones, Li-pegmatites)"}}, {"type": "Feature", "geometry": {"type": "Point", "coordinates": [35.641964, -6.28683]}, "properties": {"rank": 88, "score": 0.9227, "aoi": "Dodoma craton (Gold, gemstones, Li-pegmatites)"}}, {"type": "Feature", "geometry": {"type": "Point", "coordinates": [35.651215, -6.294555]}, "properties": {"rank": 89, "score": 0.9225, "aoi": "Dodoma craton (Gold, gemstones, Li-pegmatites)"}}, {"type": "Feature", "geometry": {"type": "Point", "coordinates": [35.763846, -6.2459]}, "properties": {"rank": 90, "score": 0.9225, "aoi": "Dodoma craton (Gold, gemstones, Li-pegmatites)"}}, {"type": "Feature", "geometry": {"type": "Point", "coordinates": [35.742627, -6.26336]}, "properties": {"rank": 91, "score": 0.9223, "aoi": "Dodoma craton (Gold, gemstones, Li-pegmatites)"}}, {"type": "Feature", "geometry": {"type": "Point", "coordinates": [35.666654, -6.204472]}, "properties": {"rank": 92, "score": 0.9223, "aoi": "Dodoma craton (Gold, gemstones, Li-pegmatites)"}}, {"type": "Feature", "geometry": {"type": "Point", "coordinates": [35.923381, -6.228052]}, "properties": {"rank": 93, "score": 0.9221, "aoi": "Dodoma craton (Gold, gemstones, Li-pegmatites)"}}, {"type": "Feature", "geometry": {"type": "Point", "coordinates": [35.618644, -6.173805]}, "properties": {"rank": 94, "score": 0.922, "aoi": "Dodoma craton (Gold, gemstones, Li-pegmatites)"}}, {"type": "Feature", "geometry": {"type": "Point", "coordinates": [35.766178, -6.242996]}, "properties": {"rank": 95, "score": 0.9216, "aoi": "Dodoma craton (Gold, gemstones, Li-pegmatites)"}}, {"type": "Feature", "geometry": {"type": "Point", "coordinates": [35.641786, -6.287373]}, "properties": {"rank": 96, "score": 0.9215, "aoi": "Dodoma craton (Gold, gemstones, Li-pegmatites)"}}, {"type": "Feature", "geometry": {"type": "Point", "coordinates": [35.643611, -6.146571]}, "properties": {"rank": 97, "score": 0.9211, "aoi": "Dodoma craton (Gold, gemstones, Li-pegmatites)"}}, {"type": "Feature", "geometry": {"type": "Point", "coordinates": [35.643251, -6.146753]}, "properties": {"rank": 98, "score": 0.921, "aoi": "Dodoma craton (Gold, gemstones, Li-pegmatites)"}}, {"type": "Feature", "geometry": {"type": "Point", "coordinates": [35.742487, -6.271312]}, "properties": {"rank": 99, "score": 0.921, "aoi": "Dodoma craton (Gold, gemstones, Li-pegmatites)"}}, {"type": "Feature", "geometry": {"type": "Point", "coordinates": [35.791148, -6.286054]}, "properties": {"rank": 100, "score": 0.9205, "aoi": "Dodoma craton (Gold, gemstones, Li-pegmatites)"}}, {"type": "Feature", "geometry": {"type": "Point", "coordinates": [35.64668, -6.290782]}, "properties": {"rank": 101, "score": 0.9203, "aoi": "Dodoma craton (Gold, gemstones, Li-pegmatites)"}}, {"type": "Feature", "geometry": {"type": "Point", "coordinates": [35.818469, -6.194107]}, "properties": {"rank": 102, "score": 0.9203, "aoi": "Dodoma craton (Gold, gemstones, Li-pegmatites)"}}, {"type": "Feature", "geometry": {"type": "Point", "coordinates": [35.651034, -6.294556]}, "properties": {"rank": 103, "score": 0.9201, "aoi": "Dodoma craton (Gold, gemstones, Li-pegmatites)"}}, {"type": "Feature", "geometry": {"type": "Point", "coordinates": [35.845481, -6.247633]}, "properties": {"rank": 104, "score": 0.9197, "aoi": "Dodoma craton (Gold, gemstones, Li-pegmatites)"}}, {"type": "Feature", "geometry": {"type": "Point", "coordinates": [35.791689, -6.285871]}, "properties": {"rank": 105, "score": 0.9196, "aoi": "Dodoma craton (Gold, gemstones, Li-pegmatites)"}}, {"type": "Feature", "geometry": {"type": "Point", "coordinates": [35.764207, -6.245898]}, "properties": {"rank": 106, "score": 0.9196, "aoi": "Dodoma craton (Gold, gemstones, Li-pegmatites)"}}, {"type": "Feature", "geometry": {"type": "Point", "coordinates": [35.649576, -6.291852]}, "properties": {"rank": 107, "score": 0.9196, "aoi": "Dodoma craton (Gold, gemstones, Li-pegmatites)"}}, {"type": "Feature", "geometry": {"type": "Point", "coordinates": [35.643071, -6.146935]}, "properties": {"rank": 108, "score": 0.9195, "aoi": "Dodoma craton (Gold, gemstones, Li-pegmatites)"}}, {"type": "Feature", "geometry": {"type": "Point", "coordinates": [35.690084, -6.266162]}, "properties": {"rank": 109, "score": 0.9194, "aoi": "Dodoma craton (Gold, gemstones, Li-pegmatites)"}}, {"type": "Feature", "geometry": {"type": "Point", "coordinates": [35.85035, -6.246341]}, "properties": {"rank": 110, "score": 0.9191, "aoi": "Dodoma craton (Gold, gemstones, Li-pegmatites)"}}, {"type": "Feature", "geometry": {"type": "Point", "coordinates": [35.721679, -6.228951]}, "properties": {"rank": 111, "score": 0.919, "aoi": "Dodoma craton (Gold, gemstones, Li-pegmatites)"}}, {"type": "Feature", "geometry": {"type": "Point", "coordinates": [35.721109, -6.293291]}, "properties": {"rank": 112, "score": 0.9187, "aoi": "Dodoma craton (Gold, gemstones, Li-pegmatites)"}}, {"type": "Feature", "geometry": {"type": "Point", "coordinates": [35.64105, -6.284666]}, "properties": {"rank": 113, "score": 0.9186, "aoi": "Dodoma craton (Gold, gemstones, Li-pegmatites)"}}, {"type": "Feature", "geometry": {"type": "Point", "coordinates": [35.643432, -6.146933]}, "properties": {"rank": 114, "score": 0.9186, "aoi": "Dodoma craton (Gold, gemstones, Li-pegmatites)"}}, {"type": "Feature", "geometry": {"type": "Point", "coordinates": [35.823486, -6.254437]}, "properties": {"rank": 115, "score": 0.9181, "aoi": "Dodoma craton (Gold, gemstones, Li-pegmatites)"}}, {"type": "Feature", "geometry": {"type": "Point", "coordinates": [35.770099, -6.233036]}, "properties": {"rank": 116, "score": 0.9177, "aoi": "Dodoma craton (Gold, gemstones, Li-pegmatites)"}}, {"type": "Feature", "geometry": {"type": "Point", "coordinates": [35.666834, -6.204471]}, "properties": {"rank": 117, "score": 0.9177, "aoi": "Dodoma craton (Gold, gemstones, Li-pegmatites)"}}, {"type": "Feature", "geometry": {"type": "Point", "coordinates": [35.832934, -6.298479]}, "properties": {"rank": 118, "score": 0.9174, "aoi": "Dodoma craton (Gold, gemstones, Li-pegmatites)"}}, {"type": "Feature", "geometry": {"type": "Point", "coordinates": [35.923157, -6.020978]}, "properties": {"rank": 119, "score": 0.9173, "aoi": "Dodoma craton (Gold, gemstones, Li-pegmatites)"}}, {"type": "Feature", "geometry": {"type": "Point", "coordinates": [35.763665, -6.245901]}, "properties": {"rank": 120, "score": 0.9172, "aoi": "Dodoma craton (Gold, gemstones, Li-pegmatites)"}}, {"type": "Feature", "geometry": {"type": "Point", "coordinates": [35.834031, -6.300822]}, "properties": {"rank": 121, "score": 0.9171, "aoi": "Dodoma craton (Gold, gemstones, Li-pegmatites)"}}, {"type": "Feature", "geometry": {"type": "Point", "coordinates": [35.721499, -6.229132]}, "properties": {"rank": 122, "score": 0.9171, "aoi": "Dodoma craton (Gold, gemstones, Li-pegmatites)"}}, {"type": "Feature", "geometry": {"type": "Point", "coordinates": [35.641614, -6.289001]}, "properties": {"rank": 123, "score": 0.9166, "aoi": "Dodoma craton (Gold, gemstones, Li-pegmatites)"}}, {"type": "Feature", "geometry": {"type": "Point", "coordinates": [35.764025, -6.245718]}, "properties": {"rank": 124, "score": 0.9166, "aoi": "Dodoma craton (Gold, gemstones, Li-pegmatites)"}}, {"type": "Feature", "geometry": {"type": "Point", "coordinates": [35.63908, -6.28811]}, "properties": {"rank": 125, "score": 0.9165, "aoi": "Dodoma craton (Gold, gemstones, Li-pegmatites)"}}, {"type": "Feature", "geometry": {"type": "Point", "coordinates": [35.845121, -6.247815]}, "properties": {"rank": 126, "score": 0.9161, "aoi": "Dodoma craton (Gold, gemstones, Li-pegmatites)"}}, {"type": "Feature", "geometry": {"type": "Point", "coordinates": [35.643253, -6.147115]}, "properties": {"rank": 127, "score": 0.916, "aoi": "Dodoma craton (Gold, gemstones, Li-pegmatites)"}}, {"type": "Feature", "geometry": {"type": "Point", "coordinates": [35.849647, -6.283209]}, "properties": {"rank": 128, "score": 0.9159, "aoi": "Dodoma craton (Gold, gemstones, Li-pegmatites)"}}, {"type": "Feature", "geometry": {"type": "Point", "coordinates": [35.844941, -6.247997]}, "properties": {"rank": 129, "score": 0.9156, "aoi": "Dodoma craton (Gold, gemstones, Li-pegmatites)"}}, {"type": "Feature", "geometry": {"type": "Point", "coordinates": [35.806548, -6.261395]}, "properties": {"rank": 130, "score": 0.9155, "aoi": "Dodoma craton (Gold, gemstones, Li-pegmatites)"}}, {"type": "Feature", "geometry": {"type": "Point", "coordinates": [35.646501, -6.291145]}, "properties": {"rank": 131, "score": 0.9154, "aoi": "Dodoma craton (Gold, gemstones, Li-pegmatites)"}}, {"type": "Feature", "geometry": {"type": "Point", "coordinates": [35.628514, -6.234123]}, "properties": {"rank": 132, "score": 0.9151, "aoi": "Dodoma craton (Gold, gemstones, Li-pegmatites)"}}, {"type": "Feature", "geometry": {"type": "Point", "coordinates": [35.63926, -6.287928]}, "properties": {"rank": 133, "score": 0.915, "aoi": "Dodoma craton (Gold, gemstones, Li-pegmatites)"}}, {"type": "Feature", "geometry": {"type": "Point", "coordinates": [35.650129, -6.294018]}, "properties": {"rank": 134, "score": 0.9149, "aoi": "Dodoma craton (Gold, gemstones, Li-pegmatites)"}}, {"type": "Feature", "geometry": {"type": "Point", "coordinates": [35.764026, -6.245899]}, "properties": {"rank": 135, "score": 0.9147, "aoi": "Dodoma craton (Gold, gemstones, Li-pegmatites)"}}, {"type": "Feature", "geometry": {"type": "Point", "coordinates": [35.814637, -6.288097]}, "properties": {"rank": 136, "score": 0.9147, "aoi": "Dodoma craton (Gold, gemstones, Li-pegmatites)"}}, {"type": "Feature", "geometry": {"type": "Point", "coordinates": [35.731479, -6.272996]}, "properties": {"rank": 137, "score": 0.9146, "aoi": "Dodoma craton (Gold, gemstones, Li-pegmatites)"}}, {"type": "Feature", "geometry": {"type": "Point", "coordinates": [35.791146, -6.285693]}, "properties": {"rank": 138, "score": 0.9146, "aoi": "Dodoma craton (Gold, gemstones, Li-pegmatites)"}}, {"type": "Feature", "geometry": {"type": "Point", "coordinates": [35.651568, -6.292926]}, "properties": {"rank": 139, "score": 0.9145, "aoi": "Dodoma craton (Gold, gemstones, Li-pegmatites)"}}, {"type": "Feature", "geometry": {"type": "Point", "coordinates": [35.649575, -6.291671]}, "properties": {"rank": 140, "score": 0.9142, "aoi": "Dodoma craton (Gold, gemstones, Li-pegmatites)"}}, {"type": "Feature", "geometry": {"type": "Point", "coordinates": [35.850889, -6.245977]}, "properties": {"rank": 141, "score": 0.9138, "aoi": "Dodoma craton (Gold, gemstones, Li-pegmatites)"}}, {"type": "Feature", "geometry": {"type": "Point", "coordinates": [35.641972, -6.288457]}, "properties": {"rank": 142, "score": 0.9137, "aoi": "Dodoma craton (Gold, gemstones, Li-pegmatites)"}}, {"type": "Feature", "geometry": {"type": "Point", "coordinates": [35.777265, -6.290466]}, "properties": {"rank": 143, "score": 0.9136, "aoi": "Dodoma craton (Gold, gemstones, Li-pegmatites)"}}, {"type": "Feature", "geometry": {"type": "Point", "coordinates": [35.83497, -6.274253]}, "properties": {"rank": 144, "score": 0.9134, "aoi": "Dodoma craton (Gold, gemstones, Li-pegmatites)"}}, {"type": "Feature", "geometry": {"type": "Point", "coordinates": [35.641586, -6.283579]}, "properties": {"rank": 145, "score": 0.9134, "aoi": "Dodoma craton (Gold, gemstones, Li-pegmatites)"}}, {"type": "Feature", "geometry": {"type": "Point", "coordinates": [35.806002, -6.260675]}, "properties": {"rank": 146, "score": 0.9134, "aoi": "Dodoma craton (Gold, gemstones, Li-pegmatites)"}}, {"type": "Feature", "geometry": {"type": "Point", "coordinates": [35.814636, -6.287916]}, "properties": {"rank": 147, "score": 0.9133, "aoi": "Dodoma craton (Gold, gemstones, Li-pegmatites)"}}, {"type": "Feature", "geometry": {"type": "Point", "coordinates": [35.684342, -6.238179]}, "properties": {"rank": 148, "score": 0.9132, "aoi": "Dodoma craton (Gold, gemstones, Li-pegmatites)"}}, {"type": "Feature", "geometry": {"type": "Point", "coordinates": [35.846299, -6.298587]}, "properties": {"rank": 149, "score": 0.9131, "aoi": "Dodoma craton (Gold, gemstones, Li-pegmatites)"}}, {"type": "Feature", "geometry": {"type": "Point", "coordinates": [35.721498, -6.228771]}, "properties": {"rank": 150, "score": 0.9131, "aoi": "Dodoma craton (Gold, gemstones, Li-pegmatites)"}}, {"type": "Feature", "geometry": {"type": "Point", "coordinates": [35.846662, -6.298766]}, "properties": {"rank": 151, "score": 0.913, "aoi": "Dodoma craton (Gold, gemstones, Li-pegmatites)"}}, {"type": "Feature", "geometry": {"type": "Point", "coordinates": [35.809249, -6.293547]}, "properties": {"rank": 152, "score": 0.9129, "aoi": "Dodoma craton (Gold, gemstones, Li-pegmatites)"}}, {"type": "Feature", "geometry": {"type": "Point", "coordinates": [35.641428, -6.288098]}, "properties": {"rank": 153, "score": 0.9127, "aoi": "Dodoma craton (Gold, gemstones, Li-pegmatites)"}}, {"type": "Feature", "geometry": {"type": "Point", "coordinates": [35.720929, -6.293292]}, "properties": {"rank": 154, "score": 0.9127, "aoi": "Dodoma craton (Gold, gemstones, Li-pegmatites)"}}, {"type": "Feature", "geometry": {"type": "Point", "coordinates": [35.650125, -6.293295]}, "properties": {"rank": 155, "score": 0.9125, "aoi": "Dodoma craton (Gold, gemstones, Li-pegmatites)"}}, {"type": "Feature", "geometry": {"type": "Point", "coordinates": [35.687053, -6.238526]}, "properties": {"rank": 156, "score": 0.9123, "aoi": "Dodoma craton (Gold, gemstones, Li-pegmatites)"}}, {"type": "Feature", "geometry": {"type": "Point", "coordinates": [35.848005, -6.246896]}, "properties": {"rank": 157, "score": 0.9121, "aoi": "Dodoma craton (Gold, gemstones, Li-pegmatites)"}}, {"type": "Feature", "geometry": {"type": "Point", "coordinates": [35.765455, -6.242819]}, "properties": {"rank": 158, "score": 0.9121, "aoi": "Dodoma craton (Gold, gemstones, Li-pegmatites)"}}, {"type": "Feature", "geometry": {"type": "Point", "coordinates": [35.837581, -6.256169]}, "properties": {"rank": 159, "score": 0.9119, "aoi": "Dodoma craton (Gold, gemstones, Li-pegmatites)"}}, {"type": "Feature", "geometry": {"type": "Point", "coordinates": [35.791507, -6.285691]}, "properties": {"rank": 160, "score": 0.9118, "aoi": "Dodoma craton (Gold, gemstones, Li-pegmatites)"}}, {"type": "Feature", "geometry": {"type": "Point", "coordinates": [35.813752, -6.291355]}, "properties": {"rank": 161, "score": 0.9118, "aoi": "Dodoma craton (Gold, gemstones, Li-pegmatites)"}}, {"type": "Feature", "geometry": {"type": "Point", "coordinates": [35.685425, -6.273415]}, "properties": {"rank": 162, "score": 0.9117, "aoi": "Dodoma craton (Gold, gemstones, Li-pegmatites)"}}, {"type": "Feature", "geometry": {"type": "Point", "coordinates": [35.826712, -6.283333]}, "properties": {"rank": 163, "score": 0.9117, "aoi": "Dodoma craton (Gold, gemstones, Li-pegmatites)"}}, {"type": "Feature", "geometry": {"type": "Point", "coordinates": [35.851791, -6.245791]}, "properties": {"rank": 164, "score": 0.9117, "aoi": "Dodoma craton (Gold, gemstones, Li-pegmatites)"}}, {"type": "Feature", "geometry": {"type": "Point", "coordinates": [35.910781, -6.267694]}, "properties": {"rank": 165, "score": 0.9116, "aoi": "Dodoma craton (Gold, gemstones, Li-pegmatites)"}}, {"type": "Feature", "geometry": {"type": "Point", "coordinates": [35.639079, -6.287929]}, "properties": {"rank": 166, "score": 0.9116, "aoi": "Dodoma craton (Gold, gemstones, Li-pegmatites)"}}, {"type": "Feature", "geometry": {"type": "Point", "coordinates": [35.806, -6.260314]}, "properties": {"rank": 167, "score": 0.9116, "aoi": "Dodoma craton (Gold, gemstones, Li-pegmatites)"}}, {"type": "Feature", "geometry": {"type": "Point", "coordinates": [35.79803, -6.255658]}, "properties": {"rank": 168, "score": 0.9112, "aoi": "Dodoma craton (Gold, gemstones, Li-pegmatites)"}}, {"type": "Feature", "geometry": {"type": "Point", "coordinates": [35.8123, -6.290097]}, "properties": {"rank": 169, "score": 0.9112, "aoi": "Dodoma craton (Gold, gemstones, Li-pegmatites)"}}, {"type": "Feature", "geometry": {"type": "Point", "coordinates": [35.849097, -6.248517]}, "properties": {"rank": 170, "score": 0.911, "aoi": "Dodoma craton (Gold, gemstones, Li-pegmatites)"}}, {"type": "Feature", "geometry": {"type": "Point", "coordinates": [35.742271, -6.264446]}, "properties": {"rank": 171, "score": 0.9109, "aoi": "Dodoma craton (Gold, gemstones, Li-pegmatites)"}}, {"type": "Feature", "geometry": {"type": "Point", "coordinates": [35.642892, -6.147117]}, "properties": {"rank": 172, "score": 0.9108, "aoi": "Dodoma craton (Gold, gemstones, Li-pegmatites)"}}, {"type": "Feature", "geometry": {"type": "Point", "coordinates": [35.83385, -6.300823]}, "properties": {"rank": 173, "score": 0.9107, "aoi": "Dodoma craton (Gold, gemstones, Li-pegmatites)"}}, {"type": "Feature", "geometry": {"type": "Point", "coordinates": [35.651397, -6.294735]}, "properties": {"rank": 174, "score": 0.9107, "aoi": "Dodoma craton (Gold, gemstones, Li-pegmatites)"}}, {"type": "Feature", "geometry": {"type": "Point", "coordinates": [35.649586, -6.29384]}, "properties": {"rank": 175, "score": 0.9107, "aoi": "Dodoma craton (Gold, gemstones, Li-pegmatites)"}}, {"type": "Feature", "geometry": {"type": "Point", "coordinates": [35.643074, -6.147477]}, "properties": {"rank": 176, "score": 0.9104, "aoi": "Dodoma craton (Gold, gemstones, Li-pegmatites)"}}, {"type": "Feature", "geometry": {"type": "Point", "coordinates": [35.649759, -6.292393]}, "properties": {"rank": 177, "score": 0.9104, "aoi": "Dodoma craton (Gold, gemstones, Li-pegmatites)"}}, {"type": "Feature", "geometry": {"type": "Point", "coordinates": [35.77028, -6.233035]}, "properties": {"rank": 178, "score": 0.9103, "aoi": "Dodoma craton (Gold, gemstones, Li-pegmatites)"}}, {"type": "Feature", "geometry": {"type": "Point", "coordinates": [35.639262, -6.28829]}, "properties": {"rank": 179, "score": 0.9103, "aoi": "Dodoma craton (Gold, gemstones, Li-pegmatites)"}}, {"type": "Feature", "geometry": {"type": "Point", "coordinates": [35.851611, -6.245792]}, "properties": {"rank": 180, "score": 0.9103, "aoi": "Dodoma craton (Gold, gemstones, Li-pegmatites)"}}, {"type": "Feature", "geometry": {"type": "Point", "coordinates": [35.721316, -6.228591]}, "properties": {"rank": 181, "score": 0.9103, "aoi": "Dodoma craton (Gold, gemstones, Li-pegmatites)"}}, {"type": "Feature", "geometry": {"type": "Point", "coordinates": [35.813753, -6.291535]}, "properties": {"rank": 182, "score": 0.9102, "aoi": "Dodoma craton (Gold, gemstones, Li-pegmatites)"}}, {"type": "Feature", "geometry": {"type": "Point", "coordinates": [35.83421, -6.300641]}, "properties": {"rank": 183, "score": 0.9101, "aoi": "Dodoma craton (Gold, gemstones, Li-pegmatites)"}}, {"type": "Feature", "geometry": {"type": "Point", "coordinates": [35.841154, -6.282352]}, "properties": {"rank": 184, "score": 0.9098, "aoi": "Dodoma craton (Gold, gemstones, Li-pegmatites)"}}, {"type": "Feature", "geometry": {"type": "Point", "coordinates": [35.650854, -6.294557]}, "properties": {"rank": 185, "score": 0.9097, "aoi": "Dodoma craton (Gold, gemstones, Li-pegmatites)"}}, {"type": "Feature", "geometry": {"type": "Point", "coordinates": [35.721499, -6.228952]}, "properties": {"rank": 186, "score": 0.9097, "aoi": "Dodoma craton (Gold, gemstones, Li-pegmatites)"}}, {"type": "Feature", "geometry": {"type": "Point", "coordinates": [35.77009, -6.231409]}, "properties": {"rank": 187, "score": 0.9097, "aoi": "Dodoma craton (Gold, gemstones, Li-pegmatites)"}}, {"type": "Feature", "geometry": {"type": "Point", "coordinates": [35.730939, -6.273361]}, "properties": {"rank": 188, "score": 0.9094, "aoi": "Dodoma craton (Gold, gemstones, Li-pegmatites)"}}, {"type": "Feature", "geometry": {"type": "Point", "coordinates": [35.79803, -6.255839]}, "properties": {"rank": 189, "score": 0.9093, "aoi": "Dodoma craton (Gold, gemstones, Li-pegmatites)"}}, {"type": "Feature", "geometry": {"type": "Point", "coordinates": [35.642315, -6.28484]}, "properties": {"rank": 190, "score": 0.9091, "aoi": "Dodoma craton (Gold, gemstones, Li-pegmatites)"}}, {"type": "Feature", "geometry": {"type": "Point", "coordinates": [35.646145, -6.29205]}, "properties": {"rank": 191, "score": 0.9091, "aoi": "Dodoma craton (Gold, gemstones, Li-pegmatites)"}}, {"type": "Feature", "geometry": {"type": "Point", "coordinates": [35.618757, -6.269415]}, "properties": {"rank": 192, "score": 0.909, "aoi": "Dodoma craton (Gold, gemstones, Li-pegmatites)"}}, {"type": "Feature", "geometry": {"type": "Point", "coordinates": [35.791509, -6.286053]}, "properties": {"rank": 193, "score": 0.909, "aoi": "Dodoma craton (Gold, gemstones, Li-pegmatites)"}}, {"type": "Feature", "geometry": {"type": "Point", "coordinates": [35.646325, -6.292049]}, "properties": {"rank": 194, "score": 0.9088, "aoi": "Dodoma craton (Gold, gemstones, Li-pegmatites)"}}, {"type": "Feature", "geometry": {"type": "Point", "coordinates": [35.70261, -6.243507]}, "properties": {"rank": 195, "score": 0.9088, "aoi": "Dodoma craton (Gold, gemstones, Li-pegmatites)"}}, {"type": "Feature", "geometry": {"type": "Point", "coordinates": [35.769738, -6.233038]}, "properties": {"rank": 196, "score": 0.9086, "aoi": "Dodoma craton (Gold, gemstones, Li-pegmatites)"}}, {"type": "Feature", "geometry": {"type": "Point", "coordinates": [35.849643, -6.282486]}, "properties": {"rank": 197, "score": 0.9086, "aoi": "Dodoma craton (Gold, gemstones, Li-pegmatites)"}}, {"type": "Feature", "geometry": {"type": "Point", "coordinates": [35.687608, -6.276476]}, "properties": {"rank": 198, "score": 0.9086, "aoi": "Dodoma craton (Gold, gemstones, Li-pegmatites)"}}, {"type": "Feature", "geometry": {"type": "Point", "coordinates": [35.684341, -6.237998]}, "properties": {"rank": 199, "score": 0.9085, "aoi": "Dodoma craton (Gold, gemstones, Li-pegmatites)"}}, {"type": "Feature", "geometry": {"type": "Point", "coordinates": [35.910599, -6.267514]}, "properties": {"rank": 200, "score": 0.9084, "aoi": "Dodoma craton (Gold, gemstones, Li-pegmatites)"}}, {"type": "Feature", "geometry": {"type": "Point", "coordinates": [35.834611, -6.274617]}, "properties": {"rank": 201, "score": 0.9082, "aoi": "Dodoma craton (Gold, gemstones, Li-pegmatites)"}}, {"type": "Feature", "geometry": {"type": "Point", "coordinates": [35.642893, -6.147478]}, "properties": {"rank": 202, "score": 0.9081, "aoi": "Dodoma craton (Gold, gemstones, Li-pegmatites)"}}, {"type": "Feature", "geometry": {"type": "Point", "coordinates": [35.618645, -6.173985]}, "properties": {"rank": 203, "score": 0.9081, "aoi": "Dodoma craton (Gold, gemstones, Li-pegmatites)"}}, {"type": "Feature", "geometry": {"type": "Point", "coordinates": [35.81212, -6.290098]}, "properties": {"rank": 204, "score": 0.908, "aoi": "Dodoma craton (Gold, gemstones, Li-pegmatites)"}}, {"type": "Feature", "geometry": {"type": "Point", "coordinates": [35.777623, -6.289922]}, "properties": {"rank": 205, "score": 0.9079, "aoi": "Dodoma craton (Gold, gemstones, Li-pegmatites)"}}, {"type": "Feature", "geometry": {"type": "Point", "coordinates": [35.769912, -6.231772]}, "properties": {"rank": 206, "score": 0.9078, "aoi": "Dodoma craton (Gold, gemstones, Li-pegmatites)"}}, {"type": "Feature", "geometry": {"type": "Point", "coordinates": [35.727554, -6.282234]}, "properties": {"rank": 207, "score": 0.9078, "aoi": "Dodoma craton (Gold, gemstones, Li-pegmatites)"}}, {"type": "Feature", "geometry": {"type": "Point", "coordinates": [35.777083, -6.290286]}, "properties": {"rank": 208, "score": 0.9076, "aoi": "Dodoma craton (Gold, gemstones, Li-pegmatites)"}}, {"type": "Feature", "geometry": {"type": "Point", "coordinates": [35.642519, -6.289358]}, "properties": {"rank": 209, "score": 0.9076, "aoi": "Dodoma craton (Gold, gemstones, Li-pegmatites)"}}, {"type": "Feature", "geometry": {"type": "Point", "coordinates": [35.77817, -6.290822]}, "properties": {"rank": 210, "score": 0.9075, "aoi": "Dodoma craton (Gold, gemstones, Li-pegmatites)"}}, {"type": "Feature", "geometry": {"type": "Point", "coordinates": [35.80582, -6.260315]}, "properties": {"rank": 211, "score": 0.9075, "aoi": "Dodoma craton (Gold, gemstones, Li-pegmatites)"}}, {"type": "Feature", "geometry": {"type": "Point", "coordinates": [35.652845, -6.29545]}, "properties": {"rank": 212, "score": 0.9075, "aoi": "Dodoma craton (Gold, gemstones, Li-pegmatites)"}}, {"type": "Feature", "geometry": {"type": "Point", "coordinates": [35.64361, -6.14639]}, "properties": {"rank": 213, "score": 0.9074, "aoi": "Dodoma craton (Gold, gemstones, Li-pegmatites)"}}, {"type": "Feature", "geometry": {"type": "Point", "coordinates": [35.798029, -6.255477]}, "properties": {"rank": 214, "score": 0.9074, "aoi": "Dodoma craton (Gold, gemstones, Li-pegmatites)"}}, {"type": "Feature", "geometry": {"type": "Point", "coordinates": [35.849462, -6.249237]}, "properties": {"rank": 215, "score": 0.9074, "aoi": "Dodoma craton (Gold, gemstones, Li-pegmatites)"}}, {"type": "Feature", "geometry": {"type": "Point", "coordinates": [35.817926, -6.19393]}, "properties": {"rank": 216, "score": 0.9073, "aoi": "Dodoma craton (Gold, gemstones, Li-pegmatites)"}}, {"type": "Feature", "geometry": {"type": "Point", "coordinates": [35.827692, -6.297604]}, "properties": {"rank": 217, "score": 0.9073, "aoi": "Dodoma craton (Gold, gemstones, Li-pegmatites)"}}, {"type": "Feature", "geometry": {"type": "Point", "coordinates": [35.832933, -6.298298]}, "properties": {"rank": 218, "score": 0.9072, "aoi": "Dodoma craton (Gold, gemstones, Li-pegmatites)"}}, {"type": "Feature", "geometry": {"type": "Point", "coordinates": [35.849644, -6.282667]}, "properties": {"rank": 219, "score": 0.9071, "aoi": "Dodoma craton (Gold, gemstones, Li-pegmatites)"}}, {"type": "Feature", "geometry": {"type": "Point", "coordinates": [35.667016, -6.20465]}, "properties": {"rank": 220, "score": 0.907, "aoi": "Dodoma craton (Gold, gemstones, Li-pegmatites)"}}, {"type": "Feature", "geometry": {"type": "Point", "coordinates": [35.705739, -6.289757]}, "properties": {"rank": 221, "score": 0.907, "aoi": "Dodoma craton (Gold, gemstones, Li-pegmatites)"}}, {"type": "Feature", "geometry": {"type": "Point", "coordinates": [35.770091, -6.23159]}, "properties": {"rank": 222, "score": 0.9068, "aoi": "Dodoma craton (Gold, gemstones, Li-pegmatites)"}}, {"type": "Feature", "geometry": {"type": "Point", "coordinates": [35.952066, -6.223555]}, "properties": {"rank": 223, "score": 0.9068, "aoi": "Dodoma craton (Gold, gemstones, Li-pegmatites)"}}, {"type": "Feature", "geometry": {"type": "Point", "coordinates": [35.643073, -6.147296]}, "properties": {"rank": 224, "score": 0.9068, "aoi": "Dodoma craton (Gold, gemstones, Li-pegmatites)"}}, {"type": "Feature", "geometry": {"type": "Point", "coordinates": [35.763488, -6.246624]}, "properties": {"rank": 225, "score": 0.9067, "aoi": "Dodoma craton (Gold, gemstones, Li-pegmatites)"}}, {"type": "Feature", "geometry": {"type": "Point", "coordinates": [35.816262, -6.287908]}, "properties": {"rank": 226, "score": 0.9066, "aoi": "Dodoma craton (Gold, gemstones, Li-pegmatites)"}}, {"type": "Feature", "geometry": {"type": "Point", "coordinates": [35.770272, -6.231589]}, "properties": {"rank": 227, "score": 0.9066, "aoi": "Dodoma craton (Gold, gemstones, Li-pegmatites)"}}, {"type": "Feature", "geometry": {"type": "Point", "coordinates": [35.891873, -6.244488]}, "properties": {"rank": 228, "score": 0.9066, "aoi": "Dodoma craton (Gold, gemstones, Li-pegmatites)"}}, {"type": "Feature", "geometry": {"type": "Point", "coordinates": [35.7701, -6.233216]}, "properties": {"rank": 229, "score": 0.9065, "aoi": "Dodoma craton (Gold, gemstones, Li-pegmatites)"}}, {"type": "Feature", "geometry": {"type": "Point", "coordinates": [35.814817, -6.287915]}, "properties": {"rank": 230, "score": 0.9065, "aoi": "Dodoma craton (Gold, gemstones, Li-pegmatites)"}}, {"type": "Feature", "geometry": {"type": "Point", "coordinates": [35.642143, -6.286468]}, "properties": {"rank": 231, "score": 0.9063, "aoi": "Dodoma craton (Gold, gemstones, Li-pegmatites)"}}, {"type": "Feature", "geometry": {"type": "Point", "coordinates": [35.619299, -6.269593]}, "properties": {"rank": 232, "score": 0.9062, "aoi": "Dodoma craton (Gold, gemstones, Li-pegmatites)"}}, {"type": "Feature", "geometry": {"type": "Point", "coordinates": [35.770098, -6.232855]}, "properties": {"rank": 233, "score": 0.906, "aoi": "Dodoma craton (Gold, gemstones, Li-pegmatites)"}}, {"type": "Feature", "geometry": {"type": "Point", "coordinates": [35.77028, -6.233216]}, "properties": {"rank": 234, "score": 0.9058, "aoi": "Dodoma craton (Gold, gemstones, Li-pegmatites)"}}, {"type": "Feature", "geometry": {"type": "Point", "coordinates": [35.641612, -6.288639]}, "properties": {"rank": 235, "score": 0.9057, "aoi": "Dodoma craton (Gold, gemstones, Li-pegmatites)"}}, {"type": "Feature", "geometry": {"type": "Point", "coordinates": [35.6389, -6.288111]}, "properties": {"rank": 236, "score": 0.9057, "aoi": "Dodoma craton (Gold, gemstones, Li-pegmatites)"}}, {"type": "Feature", "geometry": {"type": "Point", "coordinates": [35.791329, -6.286054]}, "properties": {"rank": 237, "score": 0.9055, "aoi": "Dodoma craton (Gold, gemstones, Li-pegmatites)"}}, {"type": "Feature", "geometry": {"type": "Point", "coordinates": [35.812299, -6.289917]}, "properties": {"rank": 238, "score": 0.9053, "aoi": "Dodoma craton (Gold, gemstones, Li-pegmatites)"}}, {"type": "Feature", "geometry": {"type": "Point", "coordinates": [35.643433, -6.147114]}, "properties": {"rank": 239, "score": 0.9052, "aoi": "Dodoma craton (Gold, gemstones, Li-pegmatites)"}}, {"type": "Feature", "geometry": {"type": "Point", "coordinates": [35.653027, -6.29563]}, "properties": {"rank": 240, "score": 0.9051, "aoi": "Dodoma craton (Gold, gemstones, Li-pegmatites)"}}, {"type": "Feature", "geometry": {"type": "Point", "coordinates": [35.721319, -6.229133]}, "properties": {"rank": 241, "score": 0.9049, "aoi": "Dodoma craton (Gold, gemstones, Li-pegmatites)"}}, {"type": "Feature", "geometry": {"type": "Point", "coordinates": [35.816442, -6.287907]}, "properties": {"rank": 242, "score": 0.9049, "aoi": "Dodoma craton (Gold, gemstones, Li-pegmatites)"}}, {"type": "Feature", "geometry": {"type": "Point", "coordinates": [35.775273, -6.221081]}, "properties": {"rank": 243, "score": 0.9049, "aoi": "Dodoma craton (Gold, gemstones, Li-pegmatites)"}}, {"type": "Feature", "geometry": {"type": "Point", "coordinates": [35.650846, -6.293111]}, "properties": {"rank": 244, "score": 0.9048, "aoi": "Dodoma craton (Gold, gemstones, Li-pegmatites)"}}, {"type": "Feature", "geometry": {"type": "Point", "coordinates": [35.658279, -6.298314]}, "properties": {"rank": 245, "score": 0.9047, "aoi": "Dodoma craton (Gold, gemstones, Li-pegmatites)"}}, {"type": "Feature", "geometry": {"type": "Point", "coordinates": [35.76883, -6.232139]}, "properties": {"rank": 246, "score": 0.9047, "aoi": "Dodoma craton (Gold, gemstones, Li-pegmatites)"}}, {"type": "Feature", "geometry": {"type": "Point", "coordinates": [35.763844, -6.245538]}, "properties": {"rank": 247, "score": 0.9047, "aoi": "Dodoma craton (Gold, gemstones, Li-pegmatites)"}}, {"type": "Feature", "geometry": {"type": "Point", "coordinates": [35.952072, -6.224639]}, "properties": {"rank": 248, "score": 0.9045, "aoi": "Dodoma craton (Gold, gemstones, Li-pegmatites)"}}, {"type": "Feature", "geometry": {"type": "Point", "coordinates": [35.909875, -6.267157]}, "properties": {"rank": 249, "score": 0.9042, "aoi": "Dodoma craton (Gold, gemstones, Li-pegmatites)"}}, {"type": "Feature", "geometry": {"type": "Point", "coordinates": [35.798209, -6.255476]}, "properties": {"rank": 250, "score": 0.9041, "aoi": "Dodoma craton (Gold, gemstones, Li-pegmatites)"}}, {"type": "Feature", "geometry": {"type": "Point", "coordinates": [35.844403, -6.281973]}, "properties": {"rank": 251, "score": 0.904, "aoi": "Dodoma craton (Gold, gemstones, Li-pegmatites)"}}, {"type": "Feature", "geometry": {"type": "Point", "coordinates": [35.708968, -6.285583]}, "properties": {"rank": 252, "score": 0.904, "aoi": "Dodoma craton (Gold, gemstones, Li-pegmatites)"}}, {"type": "Feature", "geometry": {"type": "Point", "coordinates": [35.646507, -6.292229]}, "properties": {"rank": 253, "score": 0.9039, "aoi": "Dodoma craton (Gold, gemstones, Li-pegmatites)"}}, {"type": "Feature", "geometry": {"type": "Point", "coordinates": [35.814096, -6.2881]}, "properties": {"rank": 254, "score": 0.9038, "aoi": "Dodoma craton (Gold, gemstones, Li-pegmatites)"}}, {"type": "Feature", "geometry": {"type": "Point", "coordinates": [35.765454, -6.242638]}, "properties": {"rank": 255, "score": 0.9038, "aoi": "Dodoma craton (Gold, gemstones, Li-pegmatites)"}}, {"type": "Feature", "geometry": {"type": "Point", "coordinates": [35.831119, -6.296682]}, "properties": {"rank": 256, "score": 0.9038, "aoi": "Dodoma craton (Gold, gemstones, Li-pegmatites)"}}, {"type": "Feature", "geometry": {"type": "Point", "coordinates": [35.655918, -6.295796]}, "properties": {"rank": 257, "score": 0.9037, "aoi": "Dodoma craton (Gold, gemstones, Li-pegmatites)"}}, {"type": "Feature", "geometry": {"type": "Point", "coordinates": [35.725893, -6.275375]}, "properties": {"rank": 258, "score": 0.9037, "aoi": "Dodoma craton (Gold, gemstones, Li-pegmatites)"}}, {"type": "Feature", "geometry": {"type": "Point", "coordinates": [35.684343, -6.238359]}, "properties": {"rank": 259, "score": 0.9036, "aoi": "Dodoma craton (Gold, gemstones, Li-pegmatites)"}}, {"type": "Feature", "geometry": {"type": "Point", "coordinates": [35.769918, -6.233037]}, "properties": {"rank": 260, "score": 0.9036, "aoi": "Dodoma craton (Gold, gemstones, Li-pegmatites)"}}, {"type": "Feature", "geometry": {"type": "Point", "coordinates": [35.650485, -6.293113]}, "properties": {"rank": 261, "score": 0.9036, "aoi": "Dodoma craton (Gold, gemstones, Li-pegmatites)"}}, {"type": "Feature", "geometry": {"type": "Point", "coordinates": [35.845301, -6.247814]}, "properties": {"rank": 262, "score": 0.9035, "aoi": "Dodoma craton (Gold, gemstones, Li-pegmatites)"}}, {"type": "Feature", "geometry": {"type": "Point", "coordinates": [35.935352, -6.006276]}, "properties": {"rank": 263, "score": 0.9035, "aoi": "Dodoma craton (Gold, gemstones, Li-pegmatites)"}}, {"type": "Feature", "geometry": {"type": "Point", "coordinates": [35.769739, -6.233218]}, "properties": {"rank": 264, "score": 0.9034, "aoi": "Dodoma craton (Gold, gemstones, Li-pegmatites)"}}, {"type": "Feature", "geometry": {"type": "Point", "coordinates": [35.80564, -6.260497]}, "properties": {"rank": 265, "score": 0.9033, "aoi": "Dodoma craton (Gold, gemstones, Li-pegmatites)"}}, {"type": "Feature", "geometry": {"type": "Point", "coordinates": [35.644515, -6.291336]}, "properties": {"rank": 266, "score": 0.9033, "aoi": "Dodoma craton (Gold, gemstones, Li-pegmatites)"}}, {"type": "Feature", "geometry": {"type": "Point", "coordinates": [35.72827, -6.280965]}, "properties": {"rank": 267, "score": 0.9032, "aoi": "Dodoma craton (Gold, gemstones, Li-pegmatites)"}}, {"type": "Feature", "geometry": {"type": "Point", "coordinates": [35.832753, -6.298299]}, "properties": {"rank": 268, "score": 0.9031, "aoi": "Dodoma craton (Gold, gemstones, Li-pegmatites)"}}, {"type": "Feature", "geometry": {"type": "Point", "coordinates": [35.812123, -6.290641]}, "properties": {"rank": 269, "score": 0.9031, "aoi": "Dodoma craton (Gold, gemstones, Li-pegmatites)"}}, {"type": "Feature", "geometry": {"type": "Point", "coordinates": [35.639263, -6.28847]}, "properties": {"rank": 270, "score": 0.9031, "aoi": "Dodoma craton (Gold, gemstones, Li-pegmatites)"}}, {"type": "Feature", "geometry": {"type": "Point", "coordinates": [35.691524, -6.265251]}, "properties": {"rank": 271, "score": 0.903, "aoi": "Dodoma craton (Gold, gemstones, Li-pegmatites)"}}, {"type": "Feature", "geometry": {"type": "Point", "coordinates": [35.777446, -6.290465]}, "properties": {"rank": 272, "score": 0.9029, "aoi": "Dodoma craton (Gold, gemstones, Li-pegmatites)"}}, {"type": "Feature", "geometry": {"type": "Point", "coordinates": [35.763305, -6.246083]}, "properties": {"rank": 273, "score": 0.9029, "aoi": "Dodoma craton (Gold, gemstones, Li-pegmatites)"}}, {"type": "Feature", "geometry": {"type": "Point", "coordinates": [35.641073, -6.144595]}, "properties": {"rank": 274, "score": 0.9028, "aoi": "Dodoma craton (Gold, gemstones, Li-pegmatites)"}}, {"type": "Feature", "geometry": {"type": "Point", "coordinates": [35.64216, -6.289902]}, "properties": {"rank": 275, "score": 0.9028, "aoi": "Dodoma craton (Gold, gemstones, Li-pegmatites)"}}, {"type": "Feature", "geometry": {"type": "Point", "coordinates": [35.821851, -6.252639]}, "properties": {"rank": 276, "score": 0.9028, "aoi": "Dodoma craton (Gold, gemstones, Li-pegmatites)"}}, {"type": "Feature", "geometry": {"type": "Point", "coordinates": [35.645783, -6.291871]}, "properties": {"rank": 277, "score": 0.9027, "aoi": "Dodoma craton (Gold, gemstones, Li-pegmatites)"}}, {"type": "Feature", "geometry": {"type": "Point", "coordinates": [35.643612, -6.146752]}, "properties": {"rank": 278, "score": 0.9027, "aoi": "Dodoma craton (Gold, gemstones, Li-pegmatites)"}}, {"type": "Feature", "geometry": {"type": "Point", "coordinates": [35.65195, -6.042968]}, "properties": {"rank": 279, "score": 0.9026, "aoi": "Dodoma craton (Gold, gemstones, Li-pegmatites)"}}, {"type": "Feature", "geometry": {"type": "Point", "coordinates": [35.83461, -6.274436]}, "properties": {"rank": 280, "score": 0.9026, "aoi": "Dodoma craton (Gold, gemstones, Li-pegmatites)"}}, {"type": "Feature", "geometry": {"type": "Point", "coordinates": [35.814815, -6.287554]}, "properties": {"rank": 281, "score": 0.9026, "aoi": "Dodoma craton (Gold, gemstones, Li-pegmatites)"}}, {"type": "Feature", "geometry": {"type": "Point", "coordinates": [35.849463, -6.282668]}, "properties": {"rank": 282, "score": 0.9026, "aoi": "Dodoma craton (Gold, gemstones, Li-pegmatites)"}}, {"type": "Feature", "geometry": {"type": "Point", "coordinates": [35.777084, -6.290467]}, "properties": {"rank": 283, "score": 0.9026, "aoi": "Dodoma craton (Gold, gemstones, Li-pegmatites)"}}, {"type": "Feature", "geometry": {"type": "Point", "coordinates": [35.820801, -6.292401]}, "properties": {"rank": 284, "score": 0.9024, "aoi": "Dodoma craton (Gold, gemstones, Li-pegmatites)"}}, {"type": "Feature", "geometry": {"type": "Point", "coordinates": [35.639259, -6.287747]}, "properties": {"rank": 285, "score": 0.9024, "aoi": "Dodoma craton (Gold, gemstones, Li-pegmatites)"}}, {"type": "Feature", "geometry": {"type": "Point", "coordinates": [35.841335, -6.282351]}, "properties": {"rank": 286, "score": 0.9024, "aoi": "Dodoma craton (Gold, gemstones, Li-pegmatites)"}}, {"type": "Feature", "geometry": {"type": "Point", "coordinates": [35.833849, -6.300643]}, "properties": {"rank": 287, "score": 0.9023, "aoi": "Dodoma craton (Gold, gemstones, Li-pegmatites)"}}, {"type": "Feature", "geometry": {"type": "Point", "coordinates": [35.805821, -6.260496]}, "properties": {"rank": 288, "score": 0.9023, "aoi": "Dodoma craton (Gold, gemstones, Li-pegmatites)"}}, {"type": "Feature", "geometry": {"type": "Point", "coordinates": [35.730759, -6.273362]}, "properties": {"rank": 289, "score": 0.9023, "aoi": "Dodoma craton (Gold, gemstones, Li-pegmatites)"}}, {"type": "Feature", "geometry": {"type": "Point", "coordinates": [35.642523, -6.290261]}, "properties": {"rank": 290, "score": 0.9023, "aoi": "Dodoma craton (Gold, gemstones, Li-pegmatites)"}}, {"type": "Feature", "geometry": {"type": "Point", "coordinates": [35.647407, -6.291682]}, "properties": {"rank": 291, "score": 0.9022, "aoi": "Dodoma craton (Gold, gemstones, Li-pegmatites)"}}, {"type": "Feature", "geometry": {"type": "Point", "coordinates": [35.64379, -6.146209]}, "properties": {"rank": 292, "score": 0.9021, "aoi": "Dodoma craton (Gold, gemstones, Li-pegmatites)"}}, {"type": "Feature", "geometry": {"type": "Point", "coordinates": [35.74209, -6.264447]}, "properties": {"rank": 293, "score": 0.9021, "aoi": "Dodoma craton (Gold, gemstones, Li-pegmatites)"}}, {"type": "Feature", "geometry": {"type": "Point", "coordinates": [35.844577, -6.280707]}, "properties": {"rank": 294, "score": 0.9021, "aoi": "Dodoma craton (Gold, gemstones, Li-pegmatites)"}}, {"type": "Feature", "geometry": {"type": "Point", "coordinates": [35.720931, -6.293654]}, "properties": {"rank": 295, "score": 0.9021, "aoi": "Dodoma craton (Gold, gemstones, Li-pegmatites)"}}, {"type": "Feature", "geometry": {"type": "Point", "coordinates": [35.650304, -6.292933]}, "properties": {"rank": 296, "score": 0.902, "aoi": "Dodoma craton (Gold, gemstones, Li-pegmatites)"}}, {"type": "Feature", "geometry": {"type": "Point", "coordinates": [35.650672, -6.294377]}, "properties": {"rank": 297, "score": 0.9019, "aoi": "Dodoma craton (Gold, gemstones, Li-pegmatites)"}}, {"type": "Feature", "geometry": {"type": "Point", "coordinates": [35.770102, -6.233578]}, "properties": {"rank": 298, "score": 0.9018, "aoi": "Dodoma craton (Gold, gemstones, Li-pegmatites)"}}, {"type": "Feature", "geometry": {"type": "Point", "coordinates": [35.650666, -6.293112]}, "properties": {"rank": 299, "score": 0.9018, "aoi": "Dodoma craton (Gold, gemstones, Li-pegmatites)"}}, {"type": "Feature", "geometry": {"type": "Point", "coordinates": [35.721108, -6.29293]}, "properties": {"rank": 300, "score": 0.9018, "aoi": "Dodoma craton (Gold, gemstones, Li-pegmatites)"}}, {"type": "Feature", "geometry": {"type": "Point", "coordinates": [35.61948, -6.269592]}, "properties": {"rank": 301, "score": 0.9018, "aoi": "Dodoma craton (Gold, gemstones, Li-pegmatites)"}}, {"type": "Feature", "geometry": {"type": "Point", "coordinates": [35.618825, -6.173804]}, "properties": {"rank": 302, "score": 0.9018, "aoi": "Dodoma craton (Gold, gemstones, Li-pegmatites)"}}, {"type": "Feature", "geometry": {"type": "Point", "coordinates": [35.82149, -6.252641]}, "properties": {"rank": 303, "score": 0.9017, "aoi": "Dodoma craton (Gold, gemstones, Li-pegmatites)"}}, {"type": "Feature", "geometry": {"type": "Point", "coordinates": [35.770101, -6.233397]}, "properties": {"rank": 304, "score": 0.9017, "aoi": "Dodoma craton (Gold, gemstones, Li-pegmatites)"}}, {"type": "Feature", "geometry": {"type": "Point", "coordinates": [35.726644, -6.280973]}, "properties": {"rank": 305, "score": 0.9016, "aoi": "Dodoma craton (Gold, gemstones, Li-pegmatites)"}}, {"type": "Feature", "geometry": {"type": "Point", "coordinates": [35.702974, -6.243867]}, "properties": {"rank": 306, "score": 0.9016, "aoi": "Dodoma craton (Gold, gemstones, Li-pegmatites)"}}, {"type": "Feature", "geometry": {"type": "Point", "coordinates": [35.848918, -6.248698]}, "properties": {"rank": 307, "score": 0.9016, "aoi": "Dodoma craton (Gold, gemstones, Li-pegmatites)"}}, {"type": "Feature", "geometry": {"type": "Point", "coordinates": [35.690624, -6.265798]}, "properties": {"rank": 308, "score": 0.9015, "aoi": "Dodoma craton (Gold, gemstones, Li-pegmatites)"}}, {"type": "Feature", "geometry": {"type": "Point", "coordinates": [35.9203, -6.026775]}, "properties": {"rank": 309, "score": 0.9014, "aoi": "Dodoma craton (Gold, gemstones, Li-pegmatites)"}}, {"type": "Feature", "geometry": {"type": "Point", "coordinates": [35.688705, -6.279001]}, "properties": {"rank": 310, "score": 0.9014, "aoi": "Dodoma craton (Gold, gemstones, Li-pegmatites)"}}, {"type": "Feature", "geometry": {"type": "Point", "coordinates": [35.812301, -6.290278]}, "properties": {"rank": 311, "score": 0.9014, "aoi": "Dodoma craton (Gold, gemstones, Li-pegmatites)"}}, {"type": "Feature", "geometry": {"type": "Point", "coordinates": [35.643434, -6.147295]}, "properties": {"rank": 312, "score": 0.9014, "aoi": "Dodoma craton (Gold, gemstones, Li-pegmatites)"}}, {"type": "Feature", "geometry": {"type": "Point", "coordinates": [35.735735, -6.257793]}, "properties": {"rank": 313, "score": 0.9013, "aoi": "Dodoma craton (Gold, gemstones, Li-pegmatites)"}}, {"type": "Feature", "geometry": {"type": "Point", "coordinates": [35.823846, -6.254255]}, "properties": {"rank": 314, "score": 0.9012, "aoi": "Dodoma craton (Gold, gemstones, Li-pegmatites)"}}, {"type": "Feature", "geometry": {"type": "Point", "coordinates": [35.717066, -6.244878]}, "properties": {"rank": 315, "score": 0.9012, "aoi": "Dodoma craton (Gold, gemstones, Li-pegmatites)"}}, {"type": "Feature", "geometry": {"type": "Point", "coordinates": [35.849643, -6.249236]}, "properties": {"rank": 316, "score": 0.9012, "aoi": "Dodoma craton (Gold, gemstones, Li-pegmatites)"}}, {"type": "Feature", "geometry": {"type": "Point", "coordinates": [35.641254, -6.289364]}, "properties": {"rank": 317, "score": 0.9011, "aoi": "Dodoma craton (Gold, gemstones, Li-pegmatites)"}}, {"type": "Feature", "geometry": {"type": "Point", "coordinates": [35.764735, -6.243365]}, "properties": {"rank": 318, "score": 0.9011, "aoi": "Dodoma craton (Gold, gemstones, Li-pegmatites)"}}, {"type": "Feature", "geometry": {"type": "Point", "coordinates": [35.620205, -6.270131]}, "properties": {"rank": 319, "score": 0.901, "aoi": "Dodoma craton (Gold, gemstones, Li-pegmatites)"}}, {"type": "Feature", "geometry": {"type": "Point", "coordinates": [35.841336, -6.282531]}, "properties": {"rank": 320, "score": 0.901, "aoi": "Dodoma craton (Gold, gemstones, Li-pegmatites)"}}, {"type": "Feature", "geometry": {"type": "Point", "coordinates": [35.766342, -6.239742]}, "properties": {"rank": 321, "score": 0.901, "aoi": "Dodoma craton (Gold, gemstones, Li-pegmatites)"}}, {"type": "Feature", "geometry": {"type": "Point", "coordinates": [35.634342, -6.134507]}, "properties": {"rank": 322, "score": 0.9008, "aoi": "Dodoma craton (Gold, gemstones, Li-pegmatites)"}}, {"type": "Feature", "geometry": {"type": "Point", "coordinates": [35.844399, -6.28125]}, "properties": {"rank": 323, "score": 0.9008, "aoi": "Dodoma craton (Gold, gemstones, Li-pegmatites)"}}, {"type": "Feature", "geometry": {"type": "Point", "coordinates": [35.819194, -6.295843]}, "properties": {"rank": 324, "score": 0.9008, "aoi": "Dodoma craton (Gold, gemstones, Li-pegmatites)"}}, {"type": "Feature", "geometry": {"type": "Point", "coordinates": [35.82008, -6.292585]}, "properties": {"rank": 325, "score": 0.9007, "aoi": "Dodoma craton (Gold, gemstones, Li-pegmatites)"}}, {"type": "Feature", "geometry": {"type": "Point", "coordinates": [35.655394, -6.15573]}, "properties": {"rank": 326, "score": 0.9006, "aoi": "Dodoma craton (Gold, gemstones, Li-pegmatites)"}}, {"type": "Feature", "geometry": {"type": "Point", "coordinates": [35.618757, -6.269596]}, "properties": {"rank": 327, "score": 0.9006, "aoi": "Dodoma craton (Gold, gemstones, Li-pegmatites)"}}, {"type": "Feature", "geometry": {"type": "Point", "coordinates": [35.849464, -6.282848]}, "properties": {"rank": 328, "score": 0.9005, "aoi": "Dodoma craton (Gold, gemstones, Li-pegmatites)"}}, {"type": "Feature", "geometry": {"type": "Point", "coordinates": [35.666097, -6.237368]}, "properties": {"rank": 329, "score": 0.9005, "aoi": "Dodoma craton (Gold, gemstones, Li-pegmatites)"}}, {"type": "Feature", "geometry": {"type": "Point", "coordinates": [35.763485, -6.245901]}, "properties": {"rank": 330, "score": 0.9005, "aoi": "Dodoma craton (Gold, gemstones, Li-pegmatites)"}}, {"type": "Feature", "geometry": {"type": "Point", "coordinates": [35.641969, -6.287734]}, "properties": {"rank": 331, "score": 0.9004, "aoi": "Dodoma craton (Gold, gemstones, Li-pegmatites)"}}, {"type": "Feature", "geometry": {"type": "Point", "coordinates": [35.650299, -6.292029]}, "properties": {"rank": 332, "score": 0.9004, "aoi": "Dodoma craton (Gold, gemstones, Li-pegmatites)"}}, {"type": "Feature", "geometry": {"type": "Point", "coordinates": [35.699014, -6.246598]}, "properties": {"rank": 333, "score": 0.9004, "aoi": "Dodoma craton (Gold, gemstones, Li-pegmatites)"}}, {"type": "Feature", "geometry": {"type": "Point", "coordinates": [35.719598, -6.245588]}, "properties": {"rank": 334, "score": 0.9004, "aoi": "Dodoma craton (Gold, gemstones, Li-pegmatites)"}}, {"type": "Feature", "geometry": {"type": "Point", "coordinates": [35.726645, -6.281154]}, "properties": {"rank": 335, "score": 0.9004, "aoi": "Dodoma craton (Gold, gemstones, Li-pegmatites)"}}, {"type": "Feature", "geometry": {"type": "Point", "coordinates": [35.843667, -6.246197]}, "properties": {"rank": 336, "score": 0.9003, "aoi": "Dodoma craton (Gold, gemstones, Li-pegmatites)"}}, {"type": "Feature", "geometry": {"type": "Point", "coordinates": [35.935353, -6.006457]}, "properties": {"rank": 337, "score": 0.9003, "aoi": "Dodoma craton (Gold, gemstones, Li-pegmatites)"}}, {"type": "Feature", "geometry": {"type": "Point", "coordinates": [35.826711, -6.283153]}, "properties": {"rank": 338, "score": 0.9003, "aoi": "Dodoma craton (Gold, gemstones, Li-pegmatites)"}}, {"type": "Feature", "geometry": {"type": "Point", "coordinates": [35.935196, -6.010975]}, "properties": {"rank": 339, "score": 0.9002, "aoi": "Dodoma craton (Gold, gemstones, Li-pegmatites)"}}, {"type": "Feature", "geometry": {"type": "Point", "coordinates": [35.872222, -6.250378]}, "properties": {"rank": 340, "score": 0.9001, "aoi": "Dodoma craton (Gold, gemstones, Li-pegmatites)"}}, {"type": "Feature", "geometry": {"type": "Point", "coordinates": [35.649766, -6.293839]}, "properties": {"rank": 341, "score": 0.9001, "aoi": "Dodoma craton (Gold, gemstones, Li-pegmatites)"}}, {"type": "Feature", "geometry": {"type": "Point", "coordinates": [35.718608, -6.228786]}, "properties": {"rank": 342, "score": 0.9001, "aoi": "Dodoma craton (Gold, gemstones, Li-pegmatites)"}}, {"type": "Feature", "geometry": {"type": "Point", "coordinates": [35.691885, -6.265069]}, "properties": {"rank": 343, "score": 0.9001, "aoi": "Dodoma craton (Gold, gemstones, Li-pegmatites)"}}, {"type": "Feature", "geometry": {"type": "Point", "coordinates": [35.910961, -6.267693]}, "properties": {"rank": 344, "score": 0.9001, "aoi": "Dodoma craton (Gold, gemstones, Li-pegmatites)"}}, {"type": "Feature", "geometry": {"type": "Point", "coordinates": [35.822032, -6.252638]}, "properties": {"rank": 345, "score": 0.9, "aoi": "Dodoma craton (Gold, gemstones, Li-pegmatites)"}}, {"type": "Feature", "geometry": {"type": "Point", "coordinates": [35.950448, -6.224829]}, "properties": {"rank": 346, "score": 0.9, "aoi": "Dodoma craton (Gold, gemstones, Li-pegmatites)"}}, {"type": "Feature", "geometry": {"type": "Point", "coordinates": [35.934471, -6.010437]}, "properties": {"rank": 347, "score": 0.8997, "aoi": "Dodoma craton (Gold, gemstones, Li-pegmatites)"}}, {"type": "Feature", "geometry": {"type": "Point", "coordinates": [35.814097, -6.288281]}, "properties": {"rank": 348, "score": 0.8996, "aoi": "Dodoma craton (Gold, gemstones, Li-pegmatites)"}}, {"type": "Feature", "geometry": {"type": "Point", "coordinates": [35.643254, -6.147296]}, "properties": {"rank": 349, "score": 0.8995, "aoi": "Dodoma craton (Gold, gemstones, Li-pegmatites)"}}, {"type": "Feature", "geometry": {"type": "Point", "coordinates": [35.818291, -6.19465]}, "properties": {"rank": 350, "score": 0.8994, "aoi": "Dodoma craton (Gold, gemstones, Li-pegmatites)"}}, {"type": "Feature", "geometry": {"type": "Point", "coordinates": [35.650667, -6.293292]}, "properties": {"rank": 351, "score": 0.8994, "aoi": "Dodoma craton (Gold, gemstones, Li-pegmatites)"}}, {"type": "Feature", "geometry": {"type": "Point", "coordinates": [35.91005, -6.266252]}, "properties": {"rank": 352, "score": 0.8994, "aoi": "Dodoma craton (Gold, gemstones, Li-pegmatites)"}}, {"type": "Feature", "geometry": {"type": "Point", "coordinates": [35.837764, -6.256529]}, "properties": {"rank": 353, "score": 0.8994, "aoi": "Dodoma craton (Gold, gemstones, Li-pegmatites)"}}, {"type": "Feature", "geometry": {"type": "Point", "coordinates": [35.847645, -6.247079]}, "properties": {"rank": 354, "score": 0.8992, "aoi": "Dodoma craton (Gold, gemstones, Li-pegmatites)"}}, {"type": "Feature", "geometry": {"type": "Point", "coordinates": [35.780272, -6.210212]}, "properties": {"rank": 355, "score": 0.8992, "aoi": "Dodoma craton (Gold, gemstones, Li-pegmatites)"}}, {"type": "Feature", "geometry": {"type": "Point", "coordinates": [35.646681, -6.290963]}, "properties": {"rank": 356, "score": 0.8991, "aoi": "Dodoma craton (Gold, gemstones, Li-pegmatites)"}}, {"type": "Feature", "geometry": {"type": "Point", "coordinates": [35.641604, -6.287013]}, "properties": {"rank": 357, "score": 0.8991, "aoi": "Dodoma craton (Gold, gemstones, Li-pegmatites)"}}, {"type": "Feature", "geometry": {"type": "Point", "coordinates": [35.847284, -6.247081]}, "properties": {"rank": 358, "score": 0.899, "aoi": "Dodoma craton (Gold, gemstones, Li-pegmatites)"}}, {"type": "Feature", "geometry": {"type": "Point", "coordinates": [35.809429, -6.293546]}, "properties": {"rank": 359, "score": 0.899, "aoi": "Dodoma craton (Gold, gemstones, Li-pegmatites)"}}, {"type": "Feature", "geometry": {"type": "Point", "coordinates": [35.727002, -6.24555]}, "properties": {"rank": 360, "score": 0.899, "aoi": "Dodoma craton (Gold, gemstones, Li-pegmatites)"}}, {"type": "Feature", "geometry": {"type": "Point", "coordinates": [35.652131, -6.042967]}, "properties": {"rank": 361, "score": 0.8989, "aoi": "Dodoma craton (Gold, gemstones, Li-pegmatites)"}}, {"type": "Feature", "geometry": {"type": "Point", "coordinates": [35.770096, -6.232494]}, "properties": {"rank": 362, "score": 0.8989, "aoi": "Dodoma craton (Gold, gemstones, Li-pegmatites)"}}, {"type": "Feature", "geometry": {"type": "Point", "coordinates": [35.769553, -6.232316]}, "properties": {"rank": 363, "score": 0.8989, "aoi": "Dodoma craton (Gold, gemstones, Li-pegmatites)"}}, {"type": "Feature", "geometry": {"type": "Point", "coordinates": [35.640009, -6.148396]}, "properties": {"rank": 364, "score": 0.8989, "aoi": "Dodoma craton (Gold, gemstones, Li-pegmatites)"}}, {"type": "Feature", "geometry": {"type": "Point", "coordinates": [35.771527, -6.229775]}, "properties": {"rank": 365, "score": 0.8988, "aoi": "Dodoma craton (Gold, gemstones, Li-pegmatites)"}}, {"type": "Feature", "geometry": {"type": "Point", "coordinates": [35.810323, -6.291734]}, "properties": {"rank": 366, "score": 0.8988, "aoi": "Dodoma craton (Gold, gemstones, Li-pegmatites)"}}, {"type": "Feature", "geometry": {"type": "Point", "coordinates": [35.837218, -6.255809]}, "properties": {"rank": 367, "score": 0.8988, "aoi": "Dodoma craton (Gold, gemstones, Li-pegmatites)"}}, {"type": "Feature", "geometry": {"type": "Point", "coordinates": [35.619006, -6.173984]}, "properties": {"rank": 368, "score": 0.8987, "aoi": "Dodoma craton (Gold, gemstones, Li-pegmatites)"}}, {"type": "Feature", "geometry": {"type": "Point", "coordinates": [35.844761, -6.247998]}, "properties": {"rank": 369, "score": 0.8986, "aoi": "Dodoma craton (Gold, gemstones, Li-pegmatites)"}}, {"type": "Feature", "geometry": {"type": "Point", "coordinates": [35.72096, -6.229497]}, "properties": {"rank": 370, "score": 0.8986, "aoi": "Dodoma craton (Gold, gemstones, Li-pegmatites)"}}, {"type": "Feature", "geometry": {"type": "Point", "coordinates": [35.849465, -6.283029]}, "properties": {"rank": 371, "score": 0.8986, "aoi": "Dodoma craton (Gold, gemstones, Li-pegmatites)"}}, {"type": "Feature", "geometry": {"type": "Point", "coordinates": [35.81847, -6.194288]}, "properties": {"rank": 372, "score": 0.8984, "aoi": "Dodoma craton (Gold, gemstones, Li-pegmatites)"}}, {"type": "Feature", "geometry": {"type": "Point", "coordinates": [35.845662, -6.247632]}, "properties": {"rank": 373, "score": 0.8984, "aoi": "Dodoma craton (Gold, gemstones, Li-pegmatites)"}}, {"type": "Feature", "geometry": {"type": "Point", "coordinates": [35.806003, -6.260856]}, "properties": {"rank": 374, "score": 0.8982, "aoi": "Dodoma craton (Gold, gemstones, Li-pegmatites)"}}, {"type": "Feature", "geometry": {"type": "Point", "coordinates": [35.905574, -6.207731]}, "properties": {"rank": 375, "score": 0.8982, "aoi": "Dodoma craton (Gold, gemstones, Li-pegmatites)"}}, {"type": "Feature", "geometry": {"type": "Point", "coordinates": [35.639081, -6.288291]}, "properties": {"rank": 376, "score": 0.8982, "aoi": "Dodoma craton (Gold, gemstones, Li-pegmatites)"}}, {"type": "Feature", "geometry": {"type": "Point", "coordinates": [35.649579, -6.292575]}, "properties": {"rank": 377, "score": 0.8982, "aoi": "Dodoma craton (Gold, gemstones, Li-pegmatites)"}}, {"type": "Feature", "geometry": {"type": "Point", "coordinates": [35.8444, -6.28143]}, "properties": {"rank": 378, "score": 0.8982, "aoi": "Dodoma craton (Gold, gemstones, Li-pegmatites)"}}, {"type": "Feature", "geometry": {"type": "Point", "coordinates": [35.806001, -6.260495]}, "properties": {"rank": 379, "score": 0.8981, "aoi": "Dodoma craton (Gold, gemstones, Li-pegmatites)"}}, {"type": "Feature", "geometry": {"type": "Point", "coordinates": [35.641434, -6.289182]}, "properties": {"rank": 380, "score": 0.8981, "aoi": "Dodoma craton (Gold, gemstones, Li-pegmatites)"}}, {"type": "Feature", "geometry": {"type": "Point", "coordinates": [35.824027, -6.254254]}, "properties": {"rank": 381, "score": 0.898, "aoi": "Dodoma craton (Gold, gemstones, Li-pegmatites)"}}, {"type": "Feature", "geometry": {"type": "Point", "coordinates": [35.843307, -6.246379]}, "properties": {"rank": 382, "score": 0.898, "aoi": "Dodoma craton (Gold, gemstones, Li-pegmatites)"}}, {"type": "Feature", "geometry": {"type": "Point", "coordinates": [35.844396, -6.280708]}, "properties": {"rank": 383, "score": 0.898, "aoi": "Dodoma craton (Gold, gemstones, Li-pegmatites)"}}, {"type": "Feature", "geometry": {"type": "Point", "coordinates": [35.862444, -6.278621]}, "properties": {"rank": 384, "score": 0.8978, "aoi": "Dodoma craton (Gold, gemstones, Li-pegmatites)"}}, {"type": "Feature", "geometry": {"type": "Point", "coordinates": [35.92338, -6.227871]}, "properties": {"rank": 385, "score": 0.8978, "aoi": "Dodoma craton (Gold, gemstones, Li-pegmatites)"}}, {"type": "Feature", "geometry": {"type": "Point", "coordinates": [35.798028, -6.255297]}, "properties": {"rank": 386, "score": 0.8975, "aoi": "Dodoma craton (Gold, gemstones, Li-pegmatites)"}}, {"type": "Feature", "geometry": {"type": "Point", "coordinates": [35.849098, -6.248697]}, "properties": {"rank": 387, "score": 0.8975, "aoi": "Dodoma craton (Gold, gemstones, Li-pegmatites)"}}, {"type": "Feature", "geometry": {"type": "Point", "coordinates": [35.650303, -6.292752]}, "properties": {"rank": 388, "score": 0.8973, "aoi": "Dodoma craton (Gold, gemstones, Li-pegmatites)"}}, {"type": "Feature", "geometry": {"type": "Point", "coordinates": [35.717692, -6.22626]}, "properties": {"rank": 389, "score": 0.8972, "aoi": "Dodoma craton (Gold, gemstones, Li-pegmatites)"}}, {"type": "Feature", "geometry": {"type": "Point", "coordinates": [35.735553, -6.257614]}, "properties": {"rank": 390, "score": 0.8972, "aoi": "Dodoma craton (Gold, gemstones, Li-pegmatites)"}}, {"type": "Feature", "geometry": {"type": "Point", "coordinates": [35.641795, -6.28918]}, "properties": {"rank": 391, "score": 0.8972, "aoi": "Dodoma craton (Gold, gemstones, Li-pegmatites)"}}, {"type": "Feature", "geometry": {"type": "Point", "coordinates": [35.844578, -6.280887]}, "properties": {"rank": 392, "score": 0.8971, "aoi": "Dodoma craton (Gold, gemstones, Li-pegmatites)"}}, {"type": "Feature", "geometry": {"type": "Point", "coordinates": [35.76992, -6.233398]}, "properties": {"rank": 393, "score": 0.8971, "aoi": "Dodoma craton (Gold, gemstones, Li-pegmatites)"}}, {"type": "Feature", "geometry": {"type": "Point", "coordinates": [35.642161, -6.290082]}, "properties": {"rank": 394, "score": 0.897, "aoi": "Dodoma craton (Gold, gemstones, Li-pegmatites)"}}, {"type": "Feature", "geometry": {"type": "Point", "coordinates": [35.643072, -6.147116]}, "properties": {"rank": 395, "score": 0.897, "aoi": "Dodoma craton (Gold, gemstones, Li-pegmatites)"}}, {"type": "Feature", "geometry": {"type": "Point", "coordinates": [35.877912, -6.100366]}, "properties": {"rank": 396, "score": 0.897, "aoi": "Dodoma craton (Gold, gemstones, Li-pegmatites)"}}, {"type": "Feature", "geometry": {"type": "Point", "coordinates": [35.9106, -6.267695]}, "properties": {"rank": 397, "score": 0.897, "aoi": "Dodoma craton (Gold, gemstones, Li-pegmatites)"}}, {"type": "Feature", "geometry": {"type": "Point", "coordinates": [35.666835, -6.204651]}, "properties": {"rank": 398, "score": 0.8969, "aoi": "Dodoma craton (Gold, gemstones, Li-pegmatites)"}}, {"type": "Feature", "geometry": {"type": "Point", "coordinates": [35.638901, -6.288291]}, "properties": {"rank": 399, "score": 0.8969, "aoi": "Dodoma craton (Gold, gemstones, Li-pegmatites)"}}, {"type": "Feature", "geometry": {"type": "Point", "coordinates": [35.92465, -6.228948]}, "properties": {"rank": 400, "score": 0.8969, "aoi": "Dodoma craton (Gold, gemstones, Li-pegmatites)"}}, {"type": "Feature", "geometry": {"type": "Point", "coordinates": [35.822393, -6.252636]}, "properties": {"rank": 401, "score": 0.8969, "aoi": "Dodoma craton (Gold, gemstones, Li-pegmatites)"}}, {"type": "Feature", "geometry": {"type": "Point", "coordinates": [35.818649, -6.193926]}, "properties": {"rank": 402, "score": 0.8968, "aoi": "Dodoma craton (Gold, gemstones, Li-pegmatites)"}}, {"type": "Feature", "geometry": {"type": "Point", "coordinates": [35.719776, -6.245226]}, "properties": {"rank": 403, "score": 0.8967, "aoi": "Dodoma craton (Gold, gemstones, Li-pegmatites)"}}, {"type": "Feature", "geometry": {"type": "Point", "coordinates": [35.843127, -6.24638]}, "properties": {"rank": 404, "score": 0.8967, "aoi": "Dodoma craton (Gold, gemstones, Li-pegmatites)"}}, {"type": "Feature", "geometry": {"type": "Point", "coordinates": [35.79821, -6.255657]}, "properties": {"rank": 405, "score": 0.8966, "aoi": "Dodoma craton (Gold, gemstones, Li-pegmatites)"}}, {"type": "Feature", "geometry": {"type": "Point", "coordinates": [35.669012, -6.242413]}, "properties": {"rank": 406, "score": 0.8966, "aoi": "Dodoma craton (Gold, gemstones, Li-pegmatites)"}}, {"type": "Feature", "geometry": {"type": "Point", "coordinates": [35.769557, -6.233039]}, "properties": {"rank": 407, "score": 0.8965, "aoi": "Dodoma craton (Gold, gemstones, Li-pegmatites)"}}, {"type": "Feature", "geometry": {"type": "Point", "coordinates": [35.952252, -6.224638]}, "properties": {"rank": 408, "score": 0.8965, "aoi": "Dodoma craton (Gold, gemstones, Li-pegmatites)"}}, {"type": "Feature", "geometry": {"type": "Point", "coordinates": [35.618936, -6.269234]}, "properties": {"rank": 409, "score": 0.8965, "aoi": "Dodoma craton (Gold, gemstones, Li-pegmatites)"}}, {"type": "Feature", "geometry": {"type": "Point", "coordinates": [35.619844, -6.270133]}, "properties": {"rank": 410, "score": 0.8964, "aoi": "Dodoma craton (Gold, gemstones, Li-pegmatites)"}}, {"type": "Feature", "geometry": {"type": "Point", "coordinates": [35.721496, -6.228409]}, "properties": {"rank": 411, "score": 0.8963, "aoi": "Dodoma craton (Gold, gemstones, Li-pegmatites)"}}, {"type": "Feature", "geometry": {"type": "Point", "coordinates": [35.841153, -6.282171]}, "properties": {"rank": 412, "score": 0.8962, "aoi": "Dodoma craton (Gold, gemstones, Li-pegmatites)"}}, {"type": "Feature", "geometry": {"type": "Point", "coordinates": [35.64087, -6.284848]}, "properties": {"rank": 413, "score": 0.8962, "aoi": "Dodoma craton (Gold, gemstones, Li-pegmatites)"}}, {"type": "Feature", "geometry": {"type": "Point", "coordinates": [35.770634, -6.231768]}, "properties": {"rank": 414, "score": 0.8961, "aoi": "Dodoma craton (Gold, gemstones, Li-pegmatites)"}}, {"type": "Feature", "geometry": {"type": "Point", "coordinates": [35.721472, -6.293651]}, "properties": {"rank": 415, "score": 0.8961, "aoi": "Dodoma craton (Gold, gemstones, Li-pegmatites)"}}, {"type": "Feature", "geometry": {"type": "Point", "coordinates": [35.821327, -6.255895]}, "properties": {"rank": 416, "score": 0.8961, "aoi": "Dodoma craton (Gold, gemstones, Li-pegmatites)"}}, {"type": "Feature", "geometry": {"type": "Point", "coordinates": [35.814818, -6.288096]}, "properties": {"rank": 417, "score": 0.8961, "aoi": "Dodoma craton (Gold, gemstones, Li-pegmatites)"}}, {"type": "Feature", "geometry": {"type": "Point", "coordinates": [35.619298, -6.269413]}, "properties": {"rank": 418, "score": 0.896, "aoi": "Dodoma craton (Gold, gemstones, Li-pegmatites)"}}, {"type": "Feature", "geometry": {"type": "Point", "coordinates": [35.820967, -6.256077]}, "properties": {"rank": 419, "score": 0.8959, "aoi": "Dodoma craton (Gold, gemstones, Li-pegmatites)"}}, {"type": "Feature", "geometry": {"type": "Point", "coordinates": [35.721318, -6.228953]}, "properties": {"rank": 420, "score": 0.8958, "aoi": "Dodoma craton (Gold, gemstones, Li-pegmatites)"}}, {"type": "Feature", "geometry": {"type": "Point", "coordinates": [35.962985, -6.238853]}, "properties": {"rank": 421, "score": 0.8958, "aoi": "Dodoma craton (Gold, gemstones, Li-pegmatites)"}}, {"type": "Feature", "geometry": {"type": "Point", "coordinates": [35.651577, -6.294734]}, "properties": {"rank": 422, "score": 0.8957, "aoi": "Dodoma craton (Gold, gemstones, Li-pegmatites)"}}, {"type": "Feature", "geometry": {"type": "Point", "coordinates": [35.859911, -6.277732]}, "properties": {"rank": 423, "score": 0.8956, "aoi": "Dodoma craton (Gold, gemstones, Li-pegmatites)"}}, {"type": "Feature", "geometry": {"type": "Point", "coordinates": [35.935533, -6.006456]}, "properties": {"rank": 424, "score": 0.8956, "aoi": "Dodoma craton (Gold, gemstones, Li-pegmatites)"}}, {"type": "Feature", "geometry": {"type": "Point", "coordinates": [35.846298, -6.298406]}, "properties": {"rank": 425, "score": 0.8956, "aoi": "Dodoma craton (Gold, gemstones, Li-pegmatites)"}}, {"type": "Feature", "geometry": {"type": "Point", "coordinates": [35.63962, -6.287565]}, "properties": {"rank": 426, "score": 0.8955, "aoi": "Dodoma craton (Gold, gemstones, Li-pegmatites)"}}, {"type": "Feature", "geometry": {"type": "Point", "coordinates": [35.850188, -6.283025]}, "properties": {"rank": 427, "score": 0.8955, "aoi": "Dodoma craton (Gold, gemstones, Li-pegmatites)"}}, {"type": "Feature", "geometry": {"type": "Point", "coordinates": [35.810324, -6.291915]}, "properties": {"rank": 428, "score": 0.8955, "aoi": "Dodoma craton (Gold, gemstones, Li-pegmatites)"}}, {"type": "Feature", "geometry": {"type": "Point", "coordinates": [35.720957, -6.228954]}, "properties": {"rank": 429, "score": 0.8955, "aoi": "Dodoma craton (Gold, gemstones, Li-pegmatites)"}}, {"type": "Feature", "geometry": {"type": "Point", "coordinates": [35.727449, -6.261993]}, "properties": {"rank": 430, "score": 0.8955, "aoi": "Dodoma craton (Gold, gemstones, Li-pegmatites)"}}, {"type": "Feature", "geometry": {"type": "Point", "coordinates": [35.860836, -6.281883]}, "properties": {"rank": 431, "score": 0.8954, "aoi": "Dodoma craton (Gold, gemstones, Li-pegmatites)"}}, {"type": "Feature", "geometry": {"type": "Point", "coordinates": [35.63962, -6.287746]}, "properties": {"rank": 432, "score": 0.8954, "aoi": "Dodoma craton (Gold, gemstones, Li-pegmatites)"}}, {"type": "Feature", "geometry": {"type": "Point", "coordinates": [35.837399, -6.255808]}, "properties": {"rank": 433, "score": 0.8953, "aoi": "Dodoma craton (Gold, gemstones, Li-pegmatites)"}}, {"type": "Feature", "geometry": {"type": "Point", "coordinates": [35.821852, -6.25282]}, "properties": {"rank": 434, "score": 0.8953, "aoi": "Dodoma craton (Gold, gemstones, Li-pegmatites)"}}, {"type": "Feature", "geometry": {"type": "Point", "coordinates": [35.64125, -6.28846]}, "properties": {"rank": 435, "score": 0.8953, "aoi": "Dodoma craton (Gold, gemstones, Li-pegmatites)"}}, {"type": "Feature", "geometry": {"type": "Point", "coordinates": [35.850187, -6.282845]}, "properties": {"rank": 436, "score": 0.8953, "aoi": "Dodoma craton (Gold, gemstones, Li-pegmatites)"}}, {"type": "Feature", "geometry": {"type": "Point", "coordinates": [35.643613, -6.146932]}, "properties": {"rank": 437, "score": 0.8953, "aoi": "Dodoma craton (Gold, gemstones, Li-pegmatites)"}}, {"type": "Feature", "geometry": {"type": "Point", "coordinates": [35.826702, -6.281526]}, "properties": {"rank": 438, "score": 0.8951, "aoi": "Dodoma craton (Gold, gemstones, Li-pegmatites)"}}, {"type": "Feature", "geometry": {"type": "Point", "coordinates": [35.922081, -6.022248]}, "properties": {"rank": 439, "score": 0.8951, "aoi": "Dodoma craton (Gold, gemstones, Li-pegmatites)"}}, {"type": "Feature", "geometry": {"type": "Point", "coordinates": [35.687052, -6.238345]}, "properties": {"rank": 440, "score": 0.8951, "aoi": "Dodoma craton (Gold, gemstones, Li-pegmatites)"}}, {"type": "Feature", "geometry": {"type": "Point", "coordinates": [35.64976, -6.292574]}, "properties": {"rank": 441, "score": 0.895, "aoi": "Dodoma craton (Gold, gemstones, Li-pegmatites)"}}, {"type": "Feature", "geometry": {"type": "Point", "coordinates": [35.654828, -6.294717]}, "properties": {"rank": 442, "score": 0.895, "aoi": "Dodoma craton (Gold, gemstones, Li-pegmatites)"}}, {"type": "Feature", "geometry": {"type": "Point", "coordinates": [35.777991, -6.291185]}, "properties": {"rank": 443, "score": 0.895, "aoi": "Dodoma craton (Gold, gemstones, Li-pegmatites)"}}, {"type": "Feature", "geometry": {"type": "Point", "coordinates": [35.91096, -6.267512]}, "properties": {"rank": 444, "score": 0.8949, "aoi": "Dodoma craton (Gold, gemstones, Li-pegmatites)"}}, {"type": "Feature", "geometry": {"type": "Point", "coordinates": [35.650705, -6.04677]}, "properties": {"rank": 445, "score": 0.8949, "aoi": "Dodoma craton (Gold, gemstones, Li-pegmatites)"}}, {"type": "Feature", "geometry": {"type": "Point", "coordinates": [35.68525, -6.239078]}, "properties": {"rank": 446, "score": 0.8949, "aoi": "Dodoma craton (Gold, gemstones, Li-pegmatites)"}}, {"type": "Feature", "geometry": {"type": "Point", "coordinates": [35.769919, -6.233217]}, "properties": {"rank": 447, "score": 0.8949, "aoi": "Dodoma craton (Gold, gemstones, Li-pegmatites)"}}, {"type": "Feature", "geometry": {"type": "Point", "coordinates": [35.731121, -6.27354]}, "properties": {"rank": 448, "score": 0.8948, "aoi": "Dodoma craton (Gold, gemstones, Li-pegmatites)"}}, {"type": "Feature", "geometry": {"type": "Point", "coordinates": [35.618756, -6.269234]}, "properties": {"rank": 449, "score": 0.8947, "aoi": "Dodoma craton (Gold, gemstones, Li-pegmatites)"}}, {"type": "Feature", "geometry": {"type": "Point", "coordinates": [35.64037, -6.148394]}, "properties": {"rank": 450, "score": 0.8947, "aoi": "Dodoma craton (Gold, gemstones, Li-pegmatites)"}}, {"type": "Feature", "geometry": {"type": "Point", "coordinates": [35.684341, -6.237817]}, "properties": {"rank": 451, "score": 0.8947, "aoi": "Dodoma craton (Gold, gemstones, Li-pegmatites)"}}, {"type": "Feature", "geometry": {"type": "Point", "coordinates": [35.849646, -6.283028]}, "properties": {"rank": 452, "score": 0.8947, "aoi": "Dodoma craton (Gold, gemstones, Li-pegmatites)"}}, {"type": "Feature", "geometry": {"type": "Point", "coordinates": [35.790966, -6.285694]}, "properties": {"rank": 453, "score": 0.8946, "aoi": "Dodoma craton (Gold, gemstones, Li-pegmatites)"}}, {"type": "Feature", "geometry": {"type": "Point", "coordinates": [35.815181, -6.254843]}, "properties": {"rank": 454, "score": 0.8945, "aoi": "Dodoma craton (Gold, gemstones, Li-pegmatites)"}}, {"type": "Feature", "geometry": {"type": "Point", "coordinates": [35.84623, -6.285757]}, "properties": {"rank": 455, "score": 0.8945, "aoi": "Dodoma craton (Gold, gemstones, Li-pegmatites)"}}, {"type": "Feature", "geometry": {"type": "Point", "coordinates": [35.769372, -6.232136]}, "properties": {"rank": 456, "score": 0.8945, "aoi": "Dodoma craton (Gold, gemstones, Li-pegmatites)"}}, {"type": "Feature", "geometry": {"type": "Point", "coordinates": [35.63944, -6.287747]}, "properties": {"rank": 457, "score": 0.8945, "aoi": "Dodoma craton (Gold, gemstones, Li-pegmatites)"}}, {"type": "Feature", "geometry": {"type": "Point", "coordinates": [35.650302, -6.292571]}, "properties": {"rank": 458, "score": 0.8945, "aoi": "Dodoma craton (Gold, gemstones, Li-pegmatites)"}}, {"type": "Feature", "geometry": {"type": "Point", "coordinates": [35.849644, -6.249417]}, "properties": {"rank": 459, "score": 0.8945, "aoi": "Dodoma craton (Gold, gemstones, Li-pegmatites)"}}, {"type": "Feature", "geometry": {"type": "Point", "coordinates": [35.891691, -6.244309]}, "properties": {"rank": 460, "score": 0.8944, "aoi": "Dodoma craton (Gold, gemstones, Li-pegmatites)"}}, {"type": "Feature", "geometry": {"type": "Point", "coordinates": [35.641407, -6.28376]}, "properties": {"rank": 461, "score": 0.8943, "aoi": "Dodoma craton (Gold, gemstones, Li-pegmatites)"}}, {"type": "Feature", "geometry": {"type": "Point", "coordinates": [35.763666, -6.246081]}, "properties": {"rank": 462, "score": 0.8943, "aoi": "Dodoma craton (Gold, gemstones, Li-pegmatites)"}}, {"type": "Feature", "geometry": {"type": "Point", "coordinates": [35.742446, -6.263361]}, "properties": {"rank": 463, "score": 0.8942, "aoi": "Dodoma craton (Gold, gemstones, Li-pegmatites)"}}, {"type": "Feature", "geometry": {"type": "Point", "coordinates": [35.843869, -6.283421]}, "properties": {"rank": 464, "score": 0.8941, "aoi": "Dodoma craton (Gold, gemstones, Li-pegmatites)"}}, {"type": "Feature", "geometry": {"type": "Point", "coordinates": [35.76974, -6.233399]}, "properties": {"rank": 465, "score": 0.894, "aoi": "Dodoma craton (Gold, gemstones, Li-pegmatites)"}}, {"type": "Feature", "geometry": {"type": "Point", "coordinates": [35.826893, -6.283332]}, "properties": {"rank": 466, "score": 0.8939, "aoi": "Dodoma craton (Gold, gemstones, Li-pegmatites)"}}, {"type": "Feature", "geometry": {"type": "Point", "coordinates": [35.641603, -6.286832]}, "properties": {"rank": 467, "score": 0.8938, "aoi": "Dodoma craton (Gold, gemstones, Li-pegmatites)"}}, {"type": "Feature", "geometry": {"type": "Point", "coordinates": [35.641784, -6.287012]}, "properties": {"rank": 468, "score": 0.8938, "aoi": "Dodoma craton (Gold, gemstones, Li-pegmatites)"}}, {"type": "Feature", "geometry": {"type": "Point", "coordinates": [35.747312, -6.295865]}, "properties": {"rank": 469, "score": 0.8937, "aoi": "Dodoma craton (Gold, gemstones, Li-pegmatites)"}}, {"type": "Feature", "geometry": {"type": "Point", "coordinates": [35.619479, -6.269412]}, "properties": {"rank": 470, "score": 0.8936, "aoi": "Dodoma craton (Gold, gemstones, Li-pegmatites)"}}, {"type": "Feature", "geometry": {"type": "Point", "coordinates": [35.6193, -6.269774]}, "properties": {"rank": 471, "score": 0.8935, "aoi": "Dodoma craton (Gold, gemstones, Li-pegmatites)"}}, {"type": "Feature", "geometry": {"type": "Point", "coordinates": [35.81865, -6.194106]}, "properties": {"rank": 472, "score": 0.8935, "aoi": "Dodoma craton (Gold, gemstones, Li-pegmatites)"}}, {"type": "Feature", "geometry": {"type": "Point", "coordinates": [35.813934, -6.291534]}, "properties": {"rank": 473, "score": 0.8935, "aoi": "Dodoma craton (Gold, gemstones, Li-pegmatites)"}}, {"type": "Feature", "geometry": {"type": "Point", "coordinates": [35.653115, -6.169477]}, "properties": {"rank": 474, "score": 0.8935, "aoi": "Dodoma craton (Gold, gemstones, Li-pegmatites)"}}, {"type": "Feature", "geometry": {"type": "Point", "coordinates": [35.9237, -6.021336]}, "properties": {"rank": 475, "score": 0.8934, "aoi": "Dodoma craton (Gold, gemstones, Li-pegmatites)"}}, {"type": "Feature", "geometry": {"type": "Point", "coordinates": [35.775813, -6.220717]}, "properties": {"rank": 476, "score": 0.8933, "aoi": "Dodoma craton (Gold, gemstones, Li-pegmatites)"}}, {"type": "Feature", "geometry": {"type": "Point", "coordinates": [35.923203, -6.228414]}, "properties": {"rank": 477, "score": 0.8933, "aoi": "Dodoma craton (Gold, gemstones, Li-pegmatites)"}}, {"type": "Feature", "geometry": {"type": "Point", "coordinates": [35.843488, -6.246378]}, "properties": {"rank": 478, "score": 0.8933, "aoi": "Dodoma craton (Gold, gemstones, Li-pegmatites)"}}, {"type": "Feature", "geometry": {"type": "Point", "coordinates": [35.720315, -6.2445]}, "properties": {"rank": 479, "score": 0.8932, "aoi": "Dodoma craton (Gold, gemstones, Li-pegmatites)"}}, {"type": "Feature", "geometry": {"type": "Point", "coordinates": [35.650664, -6.29275]}, "properties": {"rank": 480, "score": 0.8932, "aoi": "Dodoma craton (Gold, gemstones, Li-pegmatites)"}}, {"type": "Feature", "geometry": {"type": "Point", "coordinates": [35.834792, -6.274616]}, "properties": {"rank": 481, "score": 0.8932, "aoi": "Dodoma craton (Gold, gemstones, Li-pegmatites)"}}, {"type": "Feature", "geometry": {"type": "Point", "coordinates": [35.845842, -6.247631]}, "properties": {"rank": 482, "score": 0.8931, "aoi": "Dodoma craton (Gold, gemstones, Li-pegmatites)"}}, {"type": "Feature", "geometry": {"type": "Point", "coordinates": [35.849645, -6.282847]}, "properties": {"rank": 483, "score": 0.8931, "aoi": "Dodoma craton (Gold, gemstones, Li-pegmatites)"}}, {"type": "Feature", "geometry": {"type": "Point", "coordinates": [35.844942, -6.248178]}, "properties": {"rank": 484, "score": 0.8931, "aoi": "Dodoma craton (Gold, gemstones, Li-pegmatites)"}}, {"type": "Feature", "geometry": {"type": "Point", "coordinates": [35.650123, -6.292934]}, "properties": {"rank": 485, "score": 0.893, "aoi": "Dodoma craton (Gold, gemstones, Li-pegmatites)"}}, {"type": "Feature", "geometry": {"type": "Point", "coordinates": [35.763127, -6.246626]}, "properties": {"rank": 486, "score": 0.893, "aoi": "Dodoma craton (Gold, gemstones, Li-pegmatites)"}}, {"type": "Feature", "geometry": {"type": "Point", "coordinates": [35.649942, -6.292754]}, "properties": {"rank": 487, "score": 0.893, "aoi": "Dodoma craton (Gold, gemstones, Li-pegmatites)"}}, {"type": "Feature", "geometry": {"type": "Point", "coordinates": [35.763664, -6.24572]}, "properties": {"rank": 488, "score": 0.893, "aoi": "Dodoma craton (Gold, gemstones, Li-pegmatites)"}}, {"type": "Feature", "geometry": {"type": "Point", "coordinates": [35.814816, -6.287735]}, "properties": {"rank": 489, "score": 0.8929, "aoi": "Dodoma craton (Gold, gemstones, Li-pegmatites)"}}, {"type": "Feature", "geometry": {"type": "Point", "coordinates": [35.828228, -6.296517]}, "properties": {"rank": 490, "score": 0.8928, "aoi": "Dodoma craton (Gold, gemstones, Li-pegmatites)"}}, {"type": "Feature", "geometry": {"type": "Point", "coordinates": [35.837582, -6.256349]}, "properties": {"rank": 491, "score": 0.8928, "aoi": "Dodoma craton (Gold, gemstones, Li-pegmatites)"}}, {"type": "Feature", "geometry": {"type": "Point", "coordinates": [35.639261, -6.288109]}, "properties": {"rank": 492, "score": 0.8928, "aoi": "Dodoma craton (Gold, gemstones, Li-pegmatites)"}}, {"type": "Feature", "geometry": {"type": "Point", "coordinates": [35.845482, -6.247813]}, "properties": {"rank": 493, "score": 0.8927, "aoi": "Dodoma craton (Gold, gemstones, Li-pegmatites)"}}, {"type": "Feature", "geometry": {"type": "Point", "coordinates": [35.708787, -6.285404]}, "properties": {"rank": 494, "score": 0.8927, "aoi": "Dodoma craton (Gold, gemstones, Li-pegmatites)"}}, {"type": "Feature", "geometry": {"type": "Point", "coordinates": [35.849648, -6.28339]}, "properties": {"rank": 495, "score": 0.8927, "aoi": "Dodoma craton (Gold, gemstones, Li-pegmatites)"}}, {"type": "Feature", "geometry": {"type": "Point", "coordinates": [35.628334, -6.234123]}, "properties": {"rank": 496, "score": 0.8927, "aoi": "Dodoma craton (Gold, gemstones, Li-pegmatites)"}}, {"type": "Feature", "geometry": {"type": "Point", "coordinates": [35.849828, -6.283208]}, "properties": {"rank": 497, "score": 0.8927, "aoi": "Dodoma craton (Gold, gemstones, Li-pegmatites)"}}, {"type": "Feature", "geometry": {"type": "Point", "coordinates": [35.642892, -6.147297]}, "properties": {"rank": 498, "score": 0.8926, "aoi": "Dodoma craton (Gold, gemstones, Li-pegmatites)"}}, {"type": "Feature", "geometry": {"type": "Point", "coordinates": [35.849466, -6.28321]}, "properties": {"rank": 499, "score": 0.8926, "aoi": "Dodoma craton (Gold, gemstones, Li-pegmatites)"}}, {"type": "Feature", "geometry": {"type": "Point", "coordinates": [35.925846, -6.01753]}, "properties": {"rank": 500, "score": 0.8926, "aoi": "Dodoma craton (Gold, gemstones, Li-pegmatites)"}}]}