{"type": "FeatureCollection", "features": [{"type": "Feature", "geometry": {"type": "Point", "coordinates": [36.977924, -3.688312]}, "properties": {"rank": 1, "score": 0.9119, "aoi": "Mererani / Manyara (Tanzanite + Gold zone)"}}, {"type": "Feature", "geometry": {"type": "Point", "coordinates": [36.977744, -3.688312]}, "properties": {"rank": 2, "score": 0.9036, "aoi": "Mererani / Manyara (Tanzanite + Gold zone)"}}, {"type": "Feature", "geometry": {"type": "Point", "coordinates": [37.092038, -3.691097]}, "properties": {"rank": 3, "score": 0.8951, "aoi": "Mererani / Manyara (Tanzanite + Gold zone)"}}, {"type": "Feature", "geometry": {"type": "Point", "coordinates": [36.995014, -3.528499]}, "properties": {"rank": 4, "score": 0.8944, "aoi": "Mererani / Manyara (Tanzanite + Gold zone)"}}, {"type": "Feature", "geometry": {"type": "Point", "coordinates": [36.995194, -3.52868]}, "properties": {"rank": 5, "score": 0.8895, "aoi": "Mererani / Manyara (Tanzanite + Gold zone)"}}, {"type": "Feature", "geometry": {"type": "Point", "coordinates": [36.991757, -3.536991]}, "properties": {"rank": 6, "score": 0.8895, "aoi": "Mererani / Manyara (Tanzanite + Gold zone)"}}, {"type": "Feature", "geometry": {"type": "Point", "coordinates": [36.996093, -3.528863]}, "properties": {"rank": 7, "score": 0.8894, "aoi": "Mererani / Manyara (Tanzanite + Gold zone)"}}, {"type": "Feature", "geometry": {"type": "Point", "coordinates": [36.995374, -3.52868]}, "properties": {"rank": 8, "score": 0.8892, "aoi": "Mererani / Manyara (Tanzanite + Gold zone)"}}, {"type": "Feature", "geometry": {"type": "Point", "coordinates": [36.995913, -3.529043]}, "properties": {"rank": 9, "score": 0.8888, "aoi": "Mererani / Manyara (Tanzanite + Gold zone)"}}, {"type": "Feature", "geometry": {"type": "Point", "coordinates": [36.995555, -3.528319]}, "properties": {"rank": 10, "score": 0.8876, "aoi": "Mererani / Manyara (Tanzanite + Gold zone)"}}, {"type": "Feature", "geometry": {"type": "Point", "coordinates": [36.995015, -3.528318]}, "properties": {"rank": 11, "score": 0.8872, "aoi": "Mererani / Manyara (Tanzanite + Gold zone)"}}, {"type": "Feature", "geometry": {"type": "Point", "coordinates": [36.998261, -3.52507]}, "properties": {"rank": 12, "score": 0.8868, "aoi": "Mererani / Manyara (Tanzanite + Gold zone)"}}, {"type": "Feature", "geometry": {"type": "Point", "coordinates": [36.995195, -3.528138]}, "properties": {"rank": 13, "score": 0.8856, "aoi": "Mererani / Manyara (Tanzanite + Gold zone)"}}, {"type": "Feature", "geometry": {"type": "Point", "coordinates": [36.995194, -3.528499]}, "properties": {"rank": 14, "score": 0.8855, "aoi": "Mererani / Manyara (Tanzanite + Gold zone)"}}, {"type": "Feature", "geometry": {"type": "Point", "coordinates": [36.997722, -3.524707]}, "properties": {"rank": 15, "score": 0.8854, "aoi": "Mererani / Manyara (Tanzanite + Gold zone)"}}, {"type": "Feature", "geometry": {"type": "Point", "coordinates": [36.998082, -3.524889]}, "properties": {"rank": 16, "score": 0.8852, "aoi": "Mererani / Manyara (Tanzanite + Gold zone)"}}, {"type": "Feature", "geometry": {"type": "Point", "coordinates": [36.995915, -3.527958]}, "properties": {"rank": 17, "score": 0.8847, "aoi": "Mererani / Manyara (Tanzanite + Gold zone)"}}, {"type": "Feature", "geometry": {"type": "Point", "coordinates": [36.991576, -3.537171]}, "properties": {"rank": 18, "score": 0.8844, "aoi": "Mererani / Manyara (Tanzanite + Gold zone)"}}, {"type": "Feature", "geometry": {"type": "Point", "coordinates": [36.993222, -3.68907]}, "properties": {"rank": 19, "score": 0.884, "aoi": "Mererani / Manyara (Tanzanite + Gold zone)"}}, {"type": "Feature", "geometry": {"type": "Point", "coordinates": [37.004206, -3.522009]}, "properties": {"rank": 20, "score": 0.884, "aoi": "Mererani / Manyara (Tanzanite + Gold zone)"}}, {"type": "Feature", "geometry": {"type": "Point", "coordinates": [36.995375, -3.528319]}, "properties": {"rank": 21, "score": 0.8838, "aoi": "Mererani / Manyara (Tanzanite + Gold zone)"}}, {"type": "Feature", "geometry": {"type": "Point", "coordinates": [36.997722, -3.524526]}, "properties": {"rank": 22, "score": 0.8833, "aoi": "Mererani / Manyara (Tanzanite + Gold zone)"}}, {"type": "Feature", "geometry": {"type": "Point", "coordinates": [36.995913, -3.528862]}, "properties": {"rank": 23, "score": 0.8828, "aoi": "Mererani / Manyara (Tanzanite + Gold zone)"}}, {"type": "Feature", "geometry": {"type": "Point", "coordinates": [36.997903, -3.524346]}, "properties": {"rank": 24, "score": 0.8827, "aoi": "Mererani / Manyara (Tanzanite + Gold zone)"}}, {"type": "Feature", "geometry": {"type": "Point", "coordinates": [36.992667, -3.532291]}, "properties": {"rank": 25, "score": 0.8826, "aoi": "Mererani / Manyara (Tanzanite + Gold zone)"}}, {"type": "Feature", "geometry": {"type": "Point", "coordinates": [36.998262, -3.524889]}, "properties": {"rank": 26, "score": 0.8826, "aoi": "Mererani / Manyara (Tanzanite + Gold zone)"}}, {"type": "Feature", "geometry": {"type": "Point", "coordinates": [36.991577, -3.53699]}, "properties": {"rank": 27, "score": 0.8821, "aoi": "Mererani / Manyara (Tanzanite + Gold zone)"}}, {"type": "Feature", "geometry": {"type": "Point", "coordinates": [36.994834, -3.528498]}, "properties": {"rank": 28, "score": 0.8818, "aoi": "Mererani / Manyara (Tanzanite + Gold zone)"}}, {"type": "Feature", "geometry": {"type": "Point", "coordinates": [36.997878, -3.535919]}, "properties": {"rank": 29, "score": 0.8817, "aoi": "Mererani / Manyara (Tanzanite + Gold zone)"}}, {"type": "Feature", "geometry": {"type": "Point", "coordinates": [36.997542, -3.524526]}, "properties": {"rank": 30, "score": 0.8815, "aoi": "Mererani / Manyara (Tanzanite + Gold zone)"}}, {"type": "Feature", "geometry": {"type": "Point", "coordinates": [36.991757, -3.53681]}, "properties": {"rank": 31, "score": 0.8815, "aoi": "Mererani / Manyara (Tanzanite + Gold zone)"}}, {"type": "Feature", "geometry": {"type": "Point", "coordinates": [37.004566, -3.52201]}, "properties": {"rank": 32, "score": 0.881, "aoi": "Mererani / Manyara (Tanzanite + Gold zone)"}}, {"type": "Feature", "geometry": {"type": "Point", "coordinates": [36.977744, -3.688493]}, "properties": {"rank": 33, "score": 0.8807, "aoi": "Mererani / Manyara (Tanzanite + Gold zone)"}}, {"type": "Feature", "geometry": {"type": "Point", "coordinates": [36.995014, -3.52868]}, "properties": {"rank": 34, "score": 0.8801, "aoi": "Mererani / Manyara (Tanzanite + Gold zone)"}}, {"type": "Feature", "geometry": {"type": "Point", "coordinates": [36.996096, -3.527778]}, "properties": {"rank": 35, "score": 0.8801, "aoi": "Mererani / Manyara (Tanzanite + Gold zone)"}}, {"type": "Feature", "geometry": {"type": "Point", "coordinates": [36.995554, -3.5285]}, "properties": {"rank": 36, "score": 0.8794, "aoi": "Mererani / Manyara (Tanzanite + Gold zone)"}}, {"type": "Feature", "geometry": {"type": "Point", "coordinates": [36.995195, -3.528318]}, "properties": {"rank": 37, "score": 0.8794, "aoi": "Mererani / Manyara (Tanzanite + Gold zone)"}}, {"type": "Feature", "geometry": {"type": "Point", "coordinates": [36.997902, -3.524708]}, "properties": {"rank": 38, "score": 0.8793, "aoi": "Mererani / Manyara (Tanzanite + Gold zone)"}}, {"type": "Feature", "geometry": {"type": "Point", "coordinates": [36.998081, -3.52507]}, "properties": {"rank": 39, "score": 0.879, "aoi": "Mererani / Manyara (Tanzanite + Gold zone)"}}, {"type": "Feature", "geometry": {"type": "Point", "coordinates": [36.998262, -3.524708]}, "properties": {"rank": 40, "score": 0.8784, "aoi": "Mererani / Manyara (Tanzanite + Gold zone)"}}, {"type": "Feature", "geometry": {"type": "Point", "coordinates": [37.086092, -3.693978]}, "properties": {"rank": 41, "score": 0.8783, "aoi": "Mererani / Manyara (Tanzanite + Gold zone)"}}, {"type": "Feature", "geometry": {"type": "Point", "coordinates": [36.998082, -3.524527]}, "properties": {"rank": 42, "score": 0.8783, "aoi": "Mererani / Manyara (Tanzanite + Gold zone)"}}, {"type": "Feature", "geometry": {"type": "Point", "coordinates": [36.997902, -3.524888]}, "properties": {"rank": 43, "score": 0.8782, "aoi": "Mererani / Manyara (Tanzanite + Gold zone)"}}, {"type": "Feature", "geometry": {"type": "Point", "coordinates": [36.996817, -3.527056]}, "properties": {"rank": 44, "score": 0.8777, "aoi": "Mererani / Manyara (Tanzanite + Gold zone)"}}, {"type": "Feature", "geometry": {"type": "Point", "coordinates": [36.997902, -3.524527]}, "properties": {"rank": 45, "score": 0.8776, "aoi": "Mererani / Manyara (Tanzanite + Gold zone)"}}, {"type": "Feature", "geometry": {"type": "Point", "coordinates": [36.997722, -3.524888]}, "properties": {"rank": 46, "score": 0.8774, "aoi": "Mererani / Manyara (Tanzanite + Gold zone)"}}, {"type": "Feature", "geometry": {"type": "Point", "coordinates": [36.997698, -3.535919]}, "properties": {"rank": 47, "score": 0.8772, "aoi": "Mererani / Manyara (Tanzanite + Gold zone)"}}, {"type": "Feature", "geometry": {"type": "Point", "coordinates": [36.976857, -3.519599]}, "properties": {"rank": 48, "score": 0.8771, "aoi": "Mererani / Manyara (Tanzanite + Gold zone)"}}, {"type": "Feature", "geometry": {"type": "Point", "coordinates": [36.995374, -3.5285]}, "properties": {"rank": 49, "score": 0.8765, "aoi": "Mererani / Manyara (Tanzanite + Gold zone)"}}, {"type": "Feature", "geometry": {"type": "Point", "coordinates": [36.996093, -3.529044]}, "properties": {"rank": 50, "score": 0.8764, "aoi": "Mererani / Manyara (Tanzanite + Gold zone)"}}, {"type": "Feature", "geometry": {"type": "Point", "coordinates": [37.005689, -3.50194]}, "properties": {"rank": 51, "score": 0.8761, "aoi": "Mererani / Manyara (Tanzanite + Gold zone)"}}, {"type": "Feature", "geometry": {"type": "Point", "coordinates": [37.005469, -3.520565]}, "properties": {"rank": 52, "score": 0.8759, "aoi": "Mererani / Manyara (Tanzanite + Gold zone)"}}, {"type": "Feature", "geometry": {"type": "Point", "coordinates": [37.004386, -3.522371]}, "properties": {"rank": 53, "score": 0.8757, "aoi": "Mererani / Manyara (Tanzanite + Gold zone)"}}, {"type": "Feature", "geometry": {"type": "Point", "coordinates": [37.004927, -3.521468]}, "properties": {"rank": 54, "score": 0.8757, "aoi": "Mererani / Manyara (Tanzanite + Gold zone)"}}, {"type": "Feature", "geometry": {"type": "Point", "coordinates": [37.005688, -3.502301]}, "properties": {"rank": 55, "score": 0.8756, "aoi": "Mererani / Manyara (Tanzanite + Gold zone)"}}, {"type": "Feature", "geometry": {"type": "Point", "coordinates": [36.997542, -3.524707]}, "properties": {"rank": 56, "score": 0.8755, "aoi": "Mererani / Manyara (Tanzanite + Gold zone)"}}, {"type": "Feature", "geometry": {"type": "Point", "coordinates": [37.004748, -3.521467]}, "properties": {"rank": 57, "score": 0.8752, "aoi": "Mererani / Manyara (Tanzanite + Gold zone)"}}, {"type": "Feature", "geometry": {"type": "Point", "coordinates": [36.997878, -3.5361]}, "properties": {"rank": 58, "score": 0.875, "aoi": "Mererani / Manyara (Tanzanite + Gold zone)"}}, {"type": "Feature", "geometry": {"type": "Point", "coordinates": [36.994835, -3.528137]}, "properties": {"rank": 59, "score": 0.8747, "aoi": "Mererani / Manyara (Tanzanite + Gold zone)"}}, {"type": "Feature", "geometry": {"type": "Point", "coordinates": [36.997721, -3.525069]}, "properties": {"rank": 60, "score": 0.8747, "aoi": "Mererani / Manyara (Tanzanite + Gold zone)"}}, {"type": "Feature", "geometry": {"type": "Point", "coordinates": [36.997177, -3.527057]}, "properties": {"rank": 61, "score": 0.8747, "aoi": "Mererani / Manyara (Tanzanite + Gold zone)"}}, {"type": "Feature", "geometry": {"type": "Point", "coordinates": [37.005108, -3.521287]}, "properties": {"rank": 62, "score": 0.8746, "aoi": "Mererani / Manyara (Tanzanite + Gold zone)"}}, {"type": "Feature", "geometry": {"type": "Point", "coordinates": [36.998058, -3.535919]}, "properties": {"rank": 63, "score": 0.8746, "aoi": "Mererani / Manyara (Tanzanite + Gold zone)"}}, {"type": "Feature", "geometry": {"type": "Point", "coordinates": [36.995015, -3.528137]}, "properties": {"rank": 64, "score": 0.8745, "aoi": "Mererani / Manyara (Tanzanite + Gold zone)"}}, {"type": "Feature", "geometry": {"type": "Point", "coordinates": [36.993042, -3.68907]}, "properties": {"rank": 65, "score": 0.8744, "aoi": "Mererani / Manyara (Tanzanite + Gold zone)"}}, {"type": "Feature", "geometry": {"type": "Point", "coordinates": [36.992848, -3.53193]}, "properties": {"rank": 66, "score": 0.8744, "aoi": "Mererani / Manyara (Tanzanite + Gold zone)"}}, {"type": "Feature", "geometry": {"type": "Point", "coordinates": [36.996277, -3.527417]}, "properties": {"rank": 67, "score": 0.874, "aoi": "Mererani / Manyara (Tanzanite + Gold zone)"}}, {"type": "Feature", "geometry": {"type": "Point", "coordinates": [37.004748, -3.521287]}, "properties": {"rank": 68, "score": 0.8738, "aoi": "Mererani / Manyara (Tanzanite + Gold zone)"}}, {"type": "Feature", "geometry": {"type": "Point", "coordinates": [37.004567, -3.521829]}, "properties": {"rank": 69, "score": 0.8736, "aoi": "Mererani / Manyara (Tanzanite + Gold zone)"}}, {"type": "Feature", "geometry": {"type": "Point", "coordinates": [37.005288, -3.521107]}, "properties": {"rank": 70, "score": 0.8733, "aoi": "Mererani / Manyara (Tanzanite + Gold zone)"}}, {"type": "Feature", "geometry": {"type": "Point", "coordinates": [36.997542, -3.524888]}, "properties": {"rank": 71, "score": 0.873, "aoi": "Mererani / Manyara (Tanzanite + Gold zone)"}}, {"type": "Feature", "geometry": {"type": "Point", "coordinates": [36.991756, -3.537171]}, "properties": {"rank": 72, "score": 0.8728, "aoi": "Mererani / Manyara (Tanzanite + Gold zone)"}}, {"type": "Feature", "geometry": {"type": "Point", "coordinates": [37.005107, -3.521468]}, "properties": {"rank": 73, "score": 0.8725, "aoi": "Mererani / Manyara (Tanzanite + Gold zone)"}}, {"type": "Feature", "geometry": {"type": "Point", "coordinates": [36.995194, -3.528861]}, "properties": {"rank": 74, "score": 0.8723, "aoi": "Mererani / Manyara (Tanzanite + Gold zone)"}}, {"type": "Feature", "geometry": {"type": "Point", "coordinates": [36.998082, -3.524708]}, "properties": {"rank": 75, "score": 0.8722, "aoi": "Mererani / Manyara (Tanzanite + Gold zone)"}}, {"type": "Feature", "geometry": {"type": "Point", "coordinates": [37.00619, -3.520024]}, "properties": {"rank": 76, "score": 0.8718, "aoi": "Mererani / Manyara (Tanzanite + Gold zone)"}}, {"type": "Feature", "geometry": {"type": "Point", "coordinates": [37.004928, -3.521287]}, "properties": {"rank": 77, "score": 0.8715, "aoi": "Mererani / Manyara (Tanzanite + Gold zone)"}}, {"type": "Feature", "geometry": {"type": "Point", "coordinates": [36.995733, -3.529043]}, "properties": {"rank": 78, "score": 0.8712, "aoi": "Mererani / Manyara (Tanzanite + Gold zone)"}}, {"type": "Feature", "geometry": {"type": "Point", "coordinates": [36.987985, -3.533366]}, "properties": {"rank": 79, "score": 0.8709, "aoi": "Mererani / Manyara (Tanzanite + Gold zone)"}}, {"type": "Feature", "geometry": {"type": "Point", "coordinates": [36.976857, -3.51978]}, "properties": {"rank": 80, "score": 0.8709, "aoi": "Mererani / Manyara (Tanzanite + Gold zone)"}}, {"type": "Feature", "geometry": {"type": "Point", "coordinates": [37.015022, -3.513895]}, "properties": {"rank": 81, "score": 0.8709, "aoi": "Mererani / Manyara (Tanzanite + Gold zone)"}}, {"type": "Feature", "geometry": {"type": "Point", "coordinates": [36.995734, -3.528862]}, "properties": {"rank": 82, "score": 0.8709, "aoi": "Mererani / Manyara (Tanzanite + Gold zone)"}}, {"type": "Feature", "geometry": {"type": "Point", "coordinates": [36.979902, -3.526658]}, "properties": {"rank": 83, "score": 0.8708, "aoi": "Mererani / Manyara (Tanzanite + Gold zone)"}}, {"type": "Feature", "geometry": {"type": "Point", "coordinates": [37.005469, -3.520746]}, "properties": {"rank": 84, "score": 0.8707, "aoi": "Mererani / Manyara (Tanzanite + Gold zone)"}}, {"type": "Feature", "geometry": {"type": "Point", "coordinates": [37.004386, -3.52219]}, "properties": {"rank": 85, "score": 0.8706, "aoi": "Mererani / Manyara (Tanzanite + Gold zone)"}}, {"type": "Feature", "geometry": {"type": "Point", "coordinates": [36.996979, -3.535736]}, "properties": {"rank": 86, "score": 0.8706, "aoi": "Mererani / Manyara (Tanzanite + Gold zone)"}}, {"type": "Feature", "geometry": {"type": "Point", "coordinates": [36.997339, -3.535375]}, "properties": {"rank": 87, "score": 0.8704, "aoi": "Mererani / Manyara (Tanzanite + Gold zone)"}}, {"type": "Feature", "geometry": {"type": "Point", "coordinates": [36.997158, -3.536098]}, "properties": {"rank": 88, "score": 0.8703, "aoi": "Mererani / Manyara (Tanzanite + Gold zone)"}}, {"type": "Feature", "geometry": {"type": "Point", "coordinates": [36.995917, -3.527416]}, "properties": {"rank": 89, "score": 0.8702, "aoi": "Mererani / Manyara (Tanzanite + Gold zone)"}}, {"type": "Feature", "geometry": {"type": "Point", "coordinates": [36.996095, -3.527959]}, "properties": {"rank": 90, "score": 0.8702, "aoi": "Mererani / Manyara (Tanzanite + Gold zone)"}}, {"type": "Feature", "geometry": {"type": "Point", "coordinates": [36.998442, -3.524709]}, "properties": {"rank": 91, "score": 0.8702, "aoi": "Mererani / Manyara (Tanzanite + Gold zone)"}}, {"type": "Feature", "geometry": {"type": "Point", "coordinates": [36.931058, -3.639744]}, "properties": {"rank": 92, "score": 0.8701, "aoi": "Mererani / Manyara (Tanzanite + Gold zone)"}}, {"type": "Feature", "geometry": {"type": "Point", "coordinates": [37.005689, -3.501759]}, "properties": {"rank": 93, "score": 0.8701, "aoi": "Mererani / Manyara (Tanzanite + Gold zone)"}}, {"type": "Feature", "geometry": {"type": "Point", "coordinates": [36.996645, -3.523258]}, "properties": {"rank": 94, "score": 0.8697, "aoi": "Mererani / Manyara (Tanzanite + Gold zone)"}}, {"type": "Feature", "geometry": {"type": "Point", "coordinates": [36.993029, -3.531026]}, "properties": {"rank": 95, "score": 0.8697, "aoi": "Mererani / Manyara (Tanzanite + Gold zone)"}}, {"type": "Feature", "geometry": {"type": "Point", "coordinates": [36.987993, -3.529749]}, "properties": {"rank": 96, "score": 0.8697, "aoi": "Mererani / Manyara (Tanzanite + Gold zone)"}}, {"type": "Feature", "geometry": {"type": "Point", "coordinates": [37.00349, -3.52038]}, "properties": {"rank": 97, "score": 0.8697, "aoi": "Mererani / Manyara (Tanzanite + Gold zone)"}}, {"type": "Feature", "geometry": {"type": "Point", "coordinates": [37.005109, -3.520926]}, "properties": {"rank": 98, "score": 0.8696, "aoi": "Mererani / Manyara (Tanzanite + Gold zone)"}}, {"type": "Feature", "geometry": {"type": "Point", "coordinates": [36.93016, -3.639019]}, "properties": {"rank": 99, "score": 0.8695, "aoi": "Mererani / Manyara (Tanzanite + Gold zone)"}}, {"type": "Feature", "geometry": {"type": "Point", "coordinates": [37.005995, -3.527257]}, "properties": {"rank": 100, "score": 0.8694, "aoi": "Mererani / Manyara (Tanzanite + Gold zone)"}}, {"type": "Feature", "geometry": {"type": "Point", "coordinates": [36.992849, -3.531207]}, "properties": {"rank": 101, "score": 0.8694, "aoi": "Mererani / Manyara (Tanzanite + Gold zone)"}}, {"type": "Feature", "geometry": {"type": "Point", "coordinates": [37.000474, -3.50012]}, "properties": {"rank": 102, "score": 0.8693, "aoi": "Mererani / Manyara (Tanzanite + Gold zone)"}}, {"type": "Feature", "geometry": {"type": "Point", "coordinates": [36.998239, -3.535196]}, "properties": {"rank": 103, "score": 0.8691, "aoi": "Mererani / Manyara (Tanzanite + Gold zone)"}}, {"type": "Feature", "geometry": {"type": "Point", "coordinates": [36.979722, -3.526657]}, "properties": {"rank": 104, "score": 0.8691, "aoi": "Mererani / Manyara (Tanzanite + Gold zone)"}}, {"type": "Feature", "geometry": {"type": "Point", "coordinates": [37.00331, -3.520379]}, "properties": {"rank": 105, "score": 0.869, "aoi": "Mererani / Manyara (Tanzanite + Gold zone)"}}, {"type": "Feature", "geometry": {"type": "Point", "coordinates": [36.982777, -3.528653]}, "properties": {"rank": 106, "score": 0.8687, "aoi": "Mererani / Manyara (Tanzanite + Gold zone)"}}, {"type": "Feature", "geometry": {"type": "Point", "coordinates": [36.998059, -3.535377]}, "properties": {"rank": 107, "score": 0.8686, "aoi": "Mererani / Manyara (Tanzanite + Gold zone)"}}, {"type": "Feature", "geometry": {"type": "Point", "coordinates": [36.99752, -3.535014]}, "properties": {"rank": 108, "score": 0.8686, "aoi": "Mererani / Manyara (Tanzanite + Gold zone)"}}, {"type": "Feature", "geometry": {"type": "Point", "coordinates": [36.998262, -3.524528]}, "properties": {"rank": 109, "score": 0.8686, "aoi": "Mererani / Manyara (Tanzanite + Gold zone)"}}, {"type": "Feature", "geometry": {"type": "Point", "coordinates": [36.996619, -3.535374]}, "properties": {"rank": 110, "score": 0.8685, "aoi": "Mererani / Manyara (Tanzanite + Gold zone)"}}, {"type": "Feature", "geometry": {"type": "Point", "coordinates": [37.010503, -3.523107]}, "properties": {"rank": 111, "score": 0.8685, "aoi": "Mererani / Manyara (Tanzanite + Gold zone)"}}, {"type": "Feature", "geometry": {"type": "Point", "coordinates": [36.997699, -3.535557]}, "properties": {"rank": 112, "score": 0.8685, "aoi": "Mererani / Manyara (Tanzanite + Gold zone)"}}, {"type": "Feature", "geometry": {"type": "Point", "coordinates": [37.000109, -3.50247]}, "properties": {"rank": 113, "score": 0.8684, "aoi": "Mererani / Manyara (Tanzanite + Gold zone)"}}, {"type": "Feature", "geometry": {"type": "Point", "coordinates": [37.004387, -3.521828]}, "properties": {"rank": 114, "score": 0.8684, "aoi": "Mererani / Manyara (Tanzanite + Gold zone)"}}, {"type": "Feature", "geometry": {"type": "Point", "coordinates": [37.005648, -3.521289]}, "properties": {"rank": 115, "score": 0.8684, "aoi": "Mererani / Manyara (Tanzanite + Gold zone)"}}, {"type": "Feature", "geometry": {"type": "Point", "coordinates": [37.0064, -3.50592]}, "properties": {"rank": 116, "score": 0.8683, "aoi": "Mererani / Manyara (Tanzanite + Gold zone)"}}, {"type": "Feature", "geometry": {"type": "Point", "coordinates": [36.999882, -3.524712]}, "properties": {"rank": 117, "score": 0.8683, "aoi": "Mererani / Manyara (Tanzanite + Gold zone)"}}, {"type": "Feature", "geometry": {"type": "Point", "coordinates": [37.006175, -3.527076]}, "properties": {"rank": 118, "score": 0.8683, "aoi": "Mererani / Manyara (Tanzanite + Gold zone)"}}, {"type": "Feature", "geometry": {"type": "Point", "coordinates": [36.986555, -3.529204]}, "properties": {"rank": 119, "score": 0.8682, "aoi": "Mererani / Manyara (Tanzanite + Gold zone)"}}, {"type": "Feature", "geometry": {"type": "Point", "coordinates": [36.976677, -3.519598]}, "properties": {"rank": 120, "score": 0.8682, "aoi": "Mererani / Manyara (Tanzanite + Gold zone)"}}, {"type": "Feature", "geometry": {"type": "Point", "coordinates": [37.008179, -3.515507]}, "properties": {"rank": 121, "score": 0.8681, "aoi": "Mererani / Manyara (Tanzanite + Gold zone)"}}, {"type": "Feature", "geometry": {"type": "Point", "coordinates": [36.996093, -3.529224]}, "properties": {"rank": 122, "score": 0.868, "aoi": "Mererani / Manyara (Tanzanite + Gold zone)"}}, {"type": "Feature", "geometry": {"type": "Point", "coordinates": [37.004386, -3.522009]}, "properties": {"rank": 123, "score": 0.868, "aoi": "Mererani / Manyara (Tanzanite + Gold zone)"}}, {"type": "Feature", "geometry": {"type": "Point", "coordinates": [36.996997, -3.527056]}, "properties": {"rank": 124, "score": 0.8678, "aoi": "Mererani / Manyara (Tanzanite + Gold zone)"}}, {"type": "Feature", "geometry": {"type": "Point", "coordinates": [37.004928, -3.521106]}, "properties": {"rank": 125, "score": 0.8677, "aoi": "Mererani / Manyara (Tanzanite + Gold zone)"}}, {"type": "Feature", "geometry": {"type": "Point", "coordinates": [36.994653, -3.529221]}, "properties": {"rank": 126, "score": 0.8674, "aoi": "Mererani / Manyara (Tanzanite + Gold zone)"}}, {"type": "Feature", "geometry": {"type": "Point", "coordinates": [36.987452, -3.530291]}, "properties": {"rank": 127, "score": 0.8673, "aoi": "Mererani / Manyara (Tanzanite + Gold zone)"}}, {"type": "Feature", "geometry": {"type": "Point", "coordinates": [36.996276, -3.527778]}, "properties": {"rank": 128, "score": 0.8673, "aoi": "Mererani / Manyara (Tanzanite + Gold zone)"}}, {"type": "Feature", "geometry": {"type": "Point", "coordinates": [37.006582, -3.504835]}, "properties": {"rank": 129, "score": 0.8673, "aoi": "Mererani / Manyara (Tanzanite + Gold zone)"}}, {"type": "Feature", "geometry": {"type": "Point", "coordinates": [36.984596, -3.519435]}, "properties": {"rank": 130, "score": 0.8666, "aoi": "Mererani / Manyara (Tanzanite + Gold zone)"}}, {"type": "Feature", "geometry": {"type": "Point", "coordinates": [37.000469, -3.502471]}, "properties": {"rank": 131, "score": 0.8664, "aoi": "Mererani / Manyara (Tanzanite + Gold zone)"}}, {"type": "Feature", "geometry": {"type": "Point", "coordinates": [36.995914, -3.528682]}, "properties": {"rank": 132, "score": 0.8664, "aoi": "Mererani / Manyara (Tanzanite + Gold zone)"}}, {"type": "Feature", "geometry": {"type": "Point", "coordinates": [36.992666, -3.532472]}, "properties": {"rank": 133, "score": 0.8663, "aoi": "Mererani / Manyara (Tanzanite + Gold zone)"}}, {"type": "Feature", "geometry": {"type": "Point", "coordinates": [36.997901, -3.525069]}, "properties": {"rank": 134, "score": 0.8663, "aoi": "Mererani / Manyara (Tanzanite + Gold zone)"}}, {"type": "Feature", "geometry": {"type": "Point", "coordinates": [37.004568, -3.521286]}, "properties": {"rank": 135, "score": 0.8662, "aoi": "Mererani / Manyara (Tanzanite + Gold zone)"}}, {"type": "Feature", "geometry": {"type": "Point", "coordinates": [36.992668, -3.531929]}, "properties": {"rank": 136, "score": 0.8657, "aoi": "Mererani / Manyara (Tanzanite + Gold zone)"}}, {"type": "Feature", "geometry": {"type": "Point", "coordinates": [37.004747, -3.521829]}, "properties": {"rank": 137, "score": 0.8657, "aoi": "Mererani / Manyara (Tanzanite + Gold zone)"}}, {"type": "Feature", "geometry": {"type": "Point", "coordinates": [37.013098, -3.654577]}, "properties": {"rank": 138, "score": 0.8657, "aoi": "Mererani / Manyara (Tanzanite + Gold zone)"}}, {"type": "Feature", "geometry": {"type": "Point", "coordinates": [36.997877, -3.536281]}, "properties": {"rank": 139, "score": 0.8656, "aoi": "Mererani / Manyara (Tanzanite + Gold zone)"}}, {"type": "Feature", "geometry": {"type": "Point", "coordinates": [36.993386, -3.532473]}, "properties": {"rank": 140, "score": 0.8655, "aoi": "Mererani / Manyara (Tanzanite + Gold zone)"}}, {"type": "Feature", "geometry": {"type": "Point", "coordinates": [36.996979, -3.535555]}, "properties": {"rank": 141, "score": 0.8654, "aoi": "Mererani / Manyara (Tanzanite + Gold zone)"}}, {"type": "Feature", "geometry": {"type": "Point", "coordinates": [36.996619, -3.535735]}, "properties": {"rank": 142, "score": 0.8651, "aoi": "Mererani / Manyara (Tanzanite + Gold zone)"}}, {"type": "Feature", "geometry": {"type": "Point", "coordinates": [37.005469, -3.520927]}, "properties": {"rank": 143, "score": 0.865, "aoi": "Mererani / Manyara (Tanzanite + Gold zone)"}}, {"type": "Feature", "geometry": {"type": "Point", "coordinates": [37.000467, -3.503194]}, "properties": {"rank": 144, "score": 0.865, "aoi": "Mererani / Manyara (Tanzanite + Gold zone)"}}, {"type": "Feature", "geometry": {"type": "Point", "coordinates": [37.004747, -3.521648]}, "properties": {"rank": 145, "score": 0.865, "aoi": "Mererani / Manyara (Tanzanite + Gold zone)"}}, {"type": "Feature", "geometry": {"type": "Point", "coordinates": [36.998441, -3.52489]}, "properties": {"rank": 146, "score": 0.865, "aoi": "Mererani / Manyara (Tanzanite + Gold zone)"}}, {"type": "Feature", "geometry": {"type": "Point", "coordinates": [36.979186, -3.524486]}, "properties": {"rank": 147, "score": 0.865, "aoi": "Mererani / Manyara (Tanzanite + Gold zone)"}}, {"type": "Feature", "geometry": {"type": "Point", "coordinates": [36.930879, -3.639382]}, "properties": {"rank": 148, "score": 0.8647, "aoi": "Mererani / Manyara (Tanzanite + Gold zone)"}}, {"type": "Feature", "geometry": {"type": "Point", "coordinates": [36.997878, -3.535738]}, "properties": {"rank": 149, "score": 0.8647, "aoi": "Mererani / Manyara (Tanzanite + Gold zone)"}}, {"type": "Feature", "geometry": {"type": "Point", "coordinates": [37.005289, -3.520745]}, "properties": {"rank": 150, "score": 0.8647, "aoi": "Mererani / Manyara (Tanzanite + Gold zone)"}}, {"type": "Feature", "geometry": {"type": "Point", "coordinates": [36.983519, -3.518167]}, "properties": {"rank": 151, "score": 0.8646, "aoi": "Mererani / Manyara (Tanzanite + Gold zone)"}}, {"type": "Feature", "geometry": {"type": "Point", "coordinates": [36.998058, -3.535739]}, "properties": {"rank": 152, "score": 0.8644, "aoi": "Mererani / Manyara (Tanzanite + Gold zone)"}}, {"type": "Feature", "geometry": {"type": "Point", "coordinates": [36.999705, -3.522903]}, "properties": {"rank": 153, "score": 0.8642, "aoi": "Mererani / Manyara (Tanzanite + Gold zone)"}}, {"type": "Feature", "geometry": {"type": "Point", "coordinates": [37.017367, -3.511006]}, "properties": {"rank": 154, "score": 0.8641, "aoi": "Mererani / Manyara (Tanzanite + Gold zone)"}}, {"type": "Feature", "geometry": {"type": "Point", "coordinates": [36.992667, -3.53211]}, "properties": {"rank": 155, "score": 0.8641, "aoi": "Mererani / Manyara (Tanzanite + Gold zone)"}}, {"type": "Feature", "geometry": {"type": "Point", "coordinates": [36.979001, -3.526837]}, "properties": {"rank": 156, "score": 0.864, "aoi": "Mererani / Manyara (Tanzanite + Gold zone)"}}, {"type": "Feature", "geometry": {"type": "Point", "coordinates": [36.979181, -3.526837]}, "properties": {"rank": 157, "score": 0.8639, "aoi": "Mererani / Manyara (Tanzanite + Gold zone)"}}, {"type": "Feature", "geometry": {"type": "Point", "coordinates": [37.005108, -3.521107]}, "properties": {"rank": 158, "score": 0.8637, "aoi": "Mererani / Manyara (Tanzanite + Gold zone)"}}, {"type": "Feature", "geometry": {"type": "Point", "coordinates": [36.996094, -3.528501]}, "properties": {"rank": 159, "score": 0.8637, "aoi": "Mererani / Manyara (Tanzanite + Gold zone)"}}, {"type": "Feature", "geometry": {"type": "Point", "coordinates": [37.005687, -3.502663]}, "properties": {"rank": 160, "score": 0.8636, "aoi": "Mererani / Manyara (Tanzanite + Gold zone)"}}, {"type": "Feature", "geometry": {"type": "Point", "coordinates": [36.979351, -3.531358]}, "properties": {"rank": 161, "score": 0.8636, "aoi": "Mererani / Manyara (Tanzanite + Gold zone)"}}, {"type": "Feature", "geometry": {"type": "Point", "coordinates": [37.000762, -3.533574]}, "properties": {"rank": 162, "score": 0.8633, "aoi": "Mererani / Manyara (Tanzanite + Gold zone)"}}, {"type": "Feature", "geometry": {"type": "Point", "coordinates": [36.984811, -3.50298]}, "properties": {"rank": 163, "score": 0.8633, "aoi": "Mererani / Manyara (Tanzanite + Gold zone)"}}, {"type": "Feature", "geometry": {"type": "Point", "coordinates": [37.010323, -3.523107]}, "properties": {"rank": 164, "score": 0.8633, "aoi": "Mererani / Manyara (Tanzanite + Gold zone)"}}, {"type": "Feature", "geometry": {"type": "Point", "coordinates": [36.992847, -3.532291]}, "properties": {"rank": 165, "score": 0.8632, "aoi": "Mererani / Manyara (Tanzanite + Gold zone)"}}, {"type": "Feature", "geometry": {"type": "Point", "coordinates": [36.992128, -3.531747]}, "properties": {"rank": 166, "score": 0.8631, "aoi": "Mererani / Manyara (Tanzanite + Gold zone)"}}, {"type": "Feature", "geometry": {"type": "Point", "coordinates": [36.998441, -3.52507]}, "properties": {"rank": 167, "score": 0.8628, "aoi": "Mererani / Manyara (Tanzanite + Gold zone)"}}, {"type": "Feature", "geometry": {"type": "Point", "coordinates": [36.99734, -3.535194]}, "properties": {"rank": 168, "score": 0.8627, "aoi": "Mererani / Manyara (Tanzanite + Gold zone)"}}, {"type": "Feature", "geometry": {"type": "Point", "coordinates": [36.986194, -3.529565]}, "properties": {"rank": 169, "score": 0.8624, "aoi": "Mererani / Manyara (Tanzanite + Gold zone)"}}, {"type": "Feature", "geometry": {"type": "Point", "coordinates": [36.930879, -3.639563]}, "properties": {"rank": 170, "score": 0.8624, "aoi": "Mererani / Manyara (Tanzanite + Gold zone)"}}, {"type": "Feature", "geometry": {"type": "Point", "coordinates": [36.999505, -3.532487]}, "properties": {"rank": 171, "score": 0.8624, "aoi": "Mererani / Manyara (Tanzanite + Gold zone)"}}, {"type": "Feature", "geometry": {"type": "Point", "coordinates": [36.99734, -3.535014]}, "properties": {"rank": 172, "score": 0.8624, "aoi": "Mererani / Manyara (Tanzanite + Gold zone)"}}, {"type": "Feature", "geometry": {"type": "Point", "coordinates": [36.996825, -3.523439]}, "properties": {"rank": 173, "score": 0.8624, "aoi": "Mererani / Manyara (Tanzanite + Gold zone)"}}, {"type": "Feature", "geometry": {"type": "Point", "coordinates": [36.983339, -3.518166]}, "properties": {"rank": 174, "score": 0.8622, "aoi": "Mererani / Manyara (Tanzanite + Gold zone)"}}, {"type": "Feature", "geometry": {"type": "Point", "coordinates": [37.004927, -3.521829]}, "properties": {"rank": 175, "score": 0.8621, "aoi": "Mererani / Manyara (Tanzanite + Gold zone)"}}, {"type": "Feature", "geometry": {"type": "Point", "coordinates": [37.005861, -3.505738]}, "properties": {"rank": 176, "score": 0.8621, "aoi": "Mererani / Manyara (Tanzanite + Gold zone)"}}, {"type": "Feature", "geometry": {"type": "Point", "coordinates": [36.995915, -3.52832]}, "properties": {"rank": 177, "score": 0.8621, "aoi": "Mererani / Manyara (Tanzanite + Gold zone)"}}, {"type": "Feature", "geometry": {"type": "Point", "coordinates": [37.005688, -3.502482]}, "properties": {"rank": 178, "score": 0.8621, "aoi": "Mererani / Manyara (Tanzanite + Gold zone)"}}, {"type": "Feature", "geometry": {"type": "Point", "coordinates": [36.983519, -3.517986]}, "properties": {"rank": 179, "score": 0.8621, "aoi": "Mererani / Manyara (Tanzanite + Gold zone)"}}, {"type": "Feature", "geometry": {"type": "Point", "coordinates": [36.979905, -3.52503]}, "properties": {"rank": 180, "score": 0.862, "aoi": "Mererani / Manyara (Tanzanite + Gold zone)"}}, {"type": "Feature", "geometry": {"type": "Point", "coordinates": [37.000288, -3.502652]}, "properties": {"rank": 181, "score": 0.8619, "aoi": "Mererani / Manyara (Tanzanite + Gold zone)"}}, {"type": "Feature", "geometry": {"type": "Point", "coordinates": [36.993387, -3.532293]}, "properties": {"rank": 182, "score": 0.8615, "aoi": "Mererani / Manyara (Tanzanite + Gold zone)"}}, {"type": "Feature", "geometry": {"type": "Point", "coordinates": [37.001144, -3.523449]}, "properties": {"rank": 183, "score": 0.8614, "aoi": "Mererani / Manyara (Tanzanite + Gold zone)"}}, {"type": "Feature", "geometry": {"type": "Point", "coordinates": [37.000964, -3.523268]}, "properties": {"rank": 184, "score": 0.8614, "aoi": "Mererani / Manyara (Tanzanite + Gold zone)"}}, {"type": "Feature", "geometry": {"type": "Point", "coordinates": [36.983339, -3.517985]}, "properties": {"rank": 185, "score": 0.8614, "aoi": "Mererani / Manyara (Tanzanite + Gold zone)"}}, {"type": "Feature", "geometry": {"type": "Point", "coordinates": [37.005509, -3.501939]}, "properties": {"rank": 186, "score": 0.8614, "aoi": "Mererani / Manyara (Tanzanite + Gold zone)"}}, {"type": "Feature", "geometry": {"type": "Point", "coordinates": [36.984631, -3.50316]}, "properties": {"rank": 187, "score": 0.8613, "aoi": "Mererani / Manyara (Tanzanite + Gold zone)"}}, {"type": "Feature", "geometry": {"type": "Point", "coordinates": [36.994653, -3.52904]}, "properties": {"rank": 188, "score": 0.8613, "aoi": "Mererani / Manyara (Tanzanite + Gold zone)"}}, {"type": "Feature", "geometry": {"type": "Point", "coordinates": [36.98334, -3.517805]}, "properties": {"rank": 189, "score": 0.8612, "aoi": "Mererani / Manyara (Tanzanite + Gold zone)"}}, {"type": "Feature", "geometry": {"type": "Point", "coordinates": [36.986911, -3.531013]}, "properties": {"rank": 190, "score": 0.8612, "aoi": "Mererani / Manyara (Tanzanite + Gold zone)"}}, {"type": "Feature", "geometry": {"type": "Point", "coordinates": [37.00367, -3.52038]}, "properties": {"rank": 191, "score": 0.8612, "aoi": "Mererani / Manyara (Tanzanite + Gold zone)"}}, {"type": "Feature", "geometry": {"type": "Point", "coordinates": [36.984776, -3.519435]}, "properties": {"rank": 192, "score": 0.8611, "aoi": "Mererani / Manyara (Tanzanite + Gold zone)"}}, {"type": "Feature", "geometry": {"type": "Point", "coordinates": [37.005468, -3.521107]}, "properties": {"rank": 193, "score": 0.861, "aoi": "Mererani / Manyara (Tanzanite + Gold zone)"}}, {"type": "Feature", "geometry": {"type": "Point", "coordinates": [37.004567, -3.521648]}, "properties": {"rank": 194, "score": 0.8609, "aoi": "Mererani / Manyara (Tanzanite + Gold zone)"}}, {"type": "Feature", "geometry": {"type": "Point", "coordinates": [36.987272, -3.53029]}, "properties": {"rank": 195, "score": 0.8609, "aoi": "Mererani / Manyara (Tanzanite + Gold zone)"}}, {"type": "Feature", "geometry": {"type": "Point", "coordinates": [37.00313, -3.520379]}, "properties": {"rank": 196, "score": 0.8609, "aoi": "Mererani / Manyara (Tanzanite + Gold zone)"}}, {"type": "Feature", "geometry": {"type": "Point", "coordinates": [36.996096, -3.527597]}, "properties": {"rank": 197, "score": 0.8609, "aoi": "Mererani / Manyara (Tanzanite + Gold zone)"}}, {"type": "Feature", "geometry": {"type": "Point", "coordinates": [36.997517, -3.53628]}, "properties": {"rank": 198, "score": 0.8606, "aoi": "Mererani / Manyara (Tanzanite + Gold zone)"}}, {"type": "Feature", "geometry": {"type": "Point", "coordinates": [36.998059, -3.535558]}, "properties": {"rank": 199, "score": 0.8606, "aoi": "Mererani / Manyara (Tanzanite + Gold zone)"}}, {"type": "Feature", "geometry": {"type": "Point", "coordinates": [36.997698, -3.535738]}, "properties": {"rank": 200, "score": 0.8605, "aoi": "Mererani / Manyara (Tanzanite + Gold zone)"}}, {"type": "Feature", "geometry": {"type": "Point", "coordinates": [36.982225, -3.534257]}, "properties": {"rank": 201, "score": 0.8604, "aoi": "Mererani / Manyara (Tanzanite + Gold zone)"}}, {"type": "Feature", "geometry": {"type": "Point", "coordinates": [36.982775, -3.529196]}, "properties": {"rank": 202, "score": 0.8603, "aoi": "Mererani / Manyara (Tanzanite + Gold zone)"}}, {"type": "Feature", "geometry": {"type": "Point", "coordinates": [36.99716, -3.534832]}, "properties": {"rank": 203, "score": 0.8602, "aoi": "Mererani / Manyara (Tanzanite + Gold zone)"}}, {"type": "Feature", "geometry": {"type": "Point", "coordinates": [36.997037, -3.508431]}, "properties": {"rank": 204, "score": 0.8601, "aoi": "Mererani / Manyara (Tanzanite + Gold zone)"}}, {"type": "Feature", "geometry": {"type": "Point", "coordinates": [36.930878, -3.639744]}, "properties": {"rank": 205, "score": 0.86, "aoi": "Mererani / Manyara (Tanzanite + Gold zone)"}}, {"type": "Feature", "geometry": {"type": "Point", "coordinates": [37.015381, -3.514076]}, "properties": {"rank": 206, "score": 0.86, "aoi": "Mererani / Manyara (Tanzanite + Gold zone)"}}, {"type": "Feature", "geometry": {"type": "Point", "coordinates": [36.997541, -3.525069]}, "properties": {"rank": 207, "score": 0.86, "aoi": "Mererani / Manyara (Tanzanite + Gold zone)"}}, {"type": "Feature", "geometry": {"type": "Point", "coordinates": [37.000648, -3.503014]}, "properties": {"rank": 208, "score": 0.8597, "aoi": "Mererani / Manyara (Tanzanite + Gold zone)"}}, {"type": "Feature", "geometry": {"type": "Point", "coordinates": [36.996457, -3.527236]}, "properties": {"rank": 209, "score": 0.8596, "aoi": "Mererani / Manyara (Tanzanite + Gold zone)"}}, {"type": "Feature", "geometry": {"type": "Point", "coordinates": [37.004566, -3.52219]}, "properties": {"rank": 210, "score": 0.8596, "aoi": "Mererani / Manyara (Tanzanite + Gold zone)"}}, {"type": "Feature", "geometry": {"type": "Point", "coordinates": [36.99716, -3.535013]}, "properties": {"rank": 211, "score": 0.8595, "aoi": "Mererani / Manyara (Tanzanite + Gold zone)"}}, {"type": "Feature", "geometry": {"type": "Point", "coordinates": [36.979891, -3.531359]}, "properties": {"rank": 212, "score": 0.8594, "aoi": "Mererani / Manyara (Tanzanite + Gold zone)"}}, {"type": "Feature", "geometry": {"type": "Point", "coordinates": [36.999201, -3.506085]}, "properties": {"rank": 213, "score": 0.8593, "aoi": "Mererani / Manyara (Tanzanite + Gold zone)"}}, {"type": "Feature", "geometry": {"type": "Point", "coordinates": [37.009986, -3.512256]}, "properties": {"rank": 214, "score": 0.8592, "aoi": "Mererani / Manyara (Tanzanite + Gold zone)"}}, {"type": "Feature", "geometry": {"type": "Point", "coordinates": [36.995736, -3.527777]}, "properties": {"rank": 215, "score": 0.8592, "aoi": "Mererani / Manyara (Tanzanite + Gold zone)"}}, {"type": "Feature", "geometry": {"type": "Point", "coordinates": [37.001123, -3.533394]}, "properties": {"rank": 216, "score": 0.8591, "aoi": "Mererani / Manyara (Tanzanite + Gold zone)"}}, {"type": "Feature", "geometry": {"type": "Point", "coordinates": [36.996456, -3.527417]}, "properties": {"rank": 217, "score": 0.8591, "aoi": "Mererani / Manyara (Tanzanite + Gold zone)"}}, {"type": "Feature", "geometry": {"type": "Point", "coordinates": [36.995915, -3.528139]}, "properties": {"rank": 218, "score": 0.8591, "aoi": "Mererani / Manyara (Tanzanite + Gold zone)"}}, {"type": "Feature", "geometry": {"type": "Point", "coordinates": [37.005288, -3.521288]}, "properties": {"rank": 219, "score": 0.8591, "aoi": "Mererani / Manyara (Tanzanite + Gold zone)"}}, {"type": "Feature", "geometry": {"type": "Point", "coordinates": [36.998263, -3.523985]}, "properties": {"rank": 220, "score": 0.859, "aoi": "Mererani / Manyara (Tanzanite + Gold zone)"}}, {"type": "Feature", "geometry": {"type": "Point", "coordinates": [36.986912, -3.530289]}, "properties": {"rank": 221, "score": 0.859, "aoi": "Mererani / Manyara (Tanzanite + Gold zone)"}}, {"type": "Feature", "geometry": {"type": "Point", "coordinates": [37.008179, -3.515688]}, "properties": {"rank": 222, "score": 0.859, "aoi": "Mererani / Manyara (Tanzanite + Gold zone)"}}, {"type": "Feature", "geometry": {"type": "Point", "coordinates": [37.018648, -3.501063]}, "properties": {"rank": 223, "score": 0.8589, "aoi": "Mererani / Manyara (Tanzanite + Gold zone)"}}, {"type": "Feature", "geometry": {"type": "Point", "coordinates": [36.996259, -3.535554]}, "properties": {"rank": 224, "score": 0.8588, "aoi": "Mererani / Manyara (Tanzanite + Gold zone)"}}, {"type": "Feature", "geometry": {"type": "Point", "coordinates": [36.987092, -3.530471]}, "properties": {"rank": 225, "score": 0.8588, "aoi": "Mererani / Manyara (Tanzanite + Gold zone)"}}, {"type": "Feature", "geometry": {"type": "Point", "coordinates": [37.000942, -3.533575]}, "properties": {"rank": 226, "score": 0.8586, "aoi": "Mererani / Manyara (Tanzanite + Gold zone)"}}, {"type": "Feature", "geometry": {"type": "Point", "coordinates": [37.005649, -3.520746]}, "properties": {"rank": 227, "score": 0.8586, "aoi": "Mererani / Manyara (Tanzanite + Gold zone)"}}, {"type": "Feature", "geometry": {"type": "Point", "coordinates": [37.002409, -3.52092]}, "properties": {"rank": 228, "score": 0.8586, "aoi": "Mererani / Manyara (Tanzanite + Gold zone)"}}, {"type": "Feature", "geometry": {"type": "Point", "coordinates": [36.993567, -3.532112]}, "properties": {"rank": 229, "score": 0.8584, "aoi": "Mererani / Manyara (Tanzanite + Gold zone)"}}, {"type": "Feature", "geometry": {"type": "Point", "coordinates": [36.97881, -3.532261]}, "properties": {"rank": 230, "score": 0.8584, "aoi": "Mererani / Manyara (Tanzanite + Gold zone)"}}, {"type": "Feature", "geometry": {"type": "Point", "coordinates": [36.997518, -3.535918]}, "properties": {"rank": 231, "score": 0.8584, "aoi": "Mererani / Manyara (Tanzanite + Gold zone)"}}, {"type": "Feature", "geometry": {"type": "Point", "coordinates": [36.996817, -3.527237]}, "properties": {"rank": 232, "score": 0.8584, "aoi": "Mererani / Manyara (Tanzanite + Gold zone)"}}, {"type": "Feature", "geometry": {"type": "Point", "coordinates": [36.979722, -3.526476]}, "properties": {"rank": 233, "score": 0.8584, "aoi": "Mererani / Manyara (Tanzanite + Gold zone)"}}, {"type": "Feature", "geometry": {"type": "Point", "coordinates": [36.991938, -3.536449]}, "properties": {"rank": 234, "score": 0.8583, "aoi": "Mererani / Manyara (Tanzanite + Gold zone)"}}, {"type": "Feature", "geometry": {"type": "Point", "coordinates": [36.986554, -3.529385]}, "properties": {"rank": 235, "score": 0.8583, "aoi": "Mererani / Manyara (Tanzanite + Gold zone)"}}, {"type": "Feature", "geometry": {"type": "Point", "coordinates": [36.996095, -3.52832]}, "properties": {"rank": 236, "score": 0.8583, "aoi": "Mererani / Manyara (Tanzanite + Gold zone)"}}, {"type": "Feature", "geometry": {"type": "Point", "coordinates": [37.006041, -3.505738]}, "properties": {"rank": 237, "score": 0.8582, "aoi": "Mererani / Manyara (Tanzanite + Gold zone)"}}, {"type": "Feature", "geometry": {"type": "Point", "coordinates": [37.009263, -3.513521]}, "properties": {"rank": 238, "score": 0.8581, "aoi": "Mererani / Manyara (Tanzanite + Gold zone)"}}, {"type": "Feature", "geometry": {"type": "Point", "coordinates": [36.994457, -3.536454]}, "properties": {"rank": 239, "score": 0.8581, "aoi": "Mererani / Manyara (Tanzanite + Gold zone)"}}, {"type": "Feature", "geometry": {"type": "Point", "coordinates": [36.992488, -3.531929]}, "properties": {"rank": 240, "score": 0.8581, "aoi": "Mererani / Manyara (Tanzanite + Gold zone)"}}, {"type": "Feature", "geometry": {"type": "Point", "coordinates": [37.005688, -3.502121]}, "properties": {"rank": 241, "score": 0.8579, "aoi": "Mererani / Manyara (Tanzanite + Gold zone)"}}, {"type": "Feature", "geometry": {"type": "Point", "coordinates": [36.992307, -3.532109]}, "properties": {"rank": 242, "score": 0.8578, "aoi": "Mererani / Manyara (Tanzanite + Gold zone)"}}, {"type": "Feature", "geometry": {"type": "Point", "coordinates": [36.996619, -3.535555]}, "properties": {"rank": 243, "score": 0.8576, "aoi": "Mererani / Manyara (Tanzanite + Gold zone)"}}, {"type": "Feature", "geometry": {"type": "Point", "coordinates": [36.987271, -3.530652]}, "properties": {"rank": 244, "score": 0.8576, "aoi": "Mererani / Manyara (Tanzanite + Gold zone)"}}, {"type": "Feature", "geometry": {"type": "Point", "coordinates": [36.975064, -3.516521]}, "properties": {"rank": 245, "score": 0.8576, "aoi": "Mererani / Manyara (Tanzanite + Gold zone)"}}, {"type": "Feature", "geometry": {"type": "Point", "coordinates": [36.996816, -3.527779]}, "properties": {"rank": 246, "score": 0.8575, "aoi": "Mererani / Manyara (Tanzanite + Gold zone)"}}, {"type": "Feature", "geometry": {"type": "Point", "coordinates": [36.996095, -3.528139]}, "properties": {"rank": 247, "score": 0.8575, "aoi": "Mererani / Manyara (Tanzanite + Gold zone)"}}, {"type": "Feature", "geometry": {"type": "Point", "coordinates": [36.997721, -3.52525]}, "properties": {"rank": 248, "score": 0.8574, "aoi": "Mererani / Manyara (Tanzanite + Gold zone)"}}, {"type": "Feature", "geometry": {"type": "Point", "coordinates": [36.986913, -3.529747]}, "properties": {"rank": 249, "score": 0.8574, "aoi": "Mererani / Manyara (Tanzanite + Gold zone)"}}, {"type": "Feature", "geometry": {"type": "Point", "coordinates": [37.001303, -3.533395]}, "properties": {"rank": 250, "score": 0.8574, "aoi": "Mererani / Manyara (Tanzanite + Gold zone)"}}, {"type": "Feature", "geometry": {"type": "Point", "coordinates": [37.00047, -3.502109]}, "properties": {"rank": 251, "score": 0.8572, "aoi": "Mererani / Manyara (Tanzanite + Gold zone)"}}, {"type": "Feature", "geometry": {"type": "Point", "coordinates": [36.99808, -3.525431]}, "properties": {"rank": 252, "score": 0.8571, "aoi": "Mererani / Manyara (Tanzanite + Gold zone)"}}, {"type": "Feature", "geometry": {"type": "Point", "coordinates": [36.982777, -3.528472]}, "properties": {"rank": 253, "score": 0.8571, "aoi": "Mererani / Manyara (Tanzanite + Gold zone)"}}, {"type": "Feature", "geometry": {"type": "Point", "coordinates": [36.987868, -3.504433]}, "properties": {"rank": 254, "score": 0.857, "aoi": "Mererani / Manyara (Tanzanite + Gold zone)"}}, {"type": "Feature", "geometry": {"type": "Point", "coordinates": [36.996097, -3.527416]}, "properties": {"rank": 255, "score": 0.8568, "aoi": "Mererani / Manyara (Tanzanite + Gold zone)"}}, {"type": "Feature", "geometry": {"type": "Point", "coordinates": [36.974705, -3.51652]}, "properties": {"rank": 256, "score": 0.8566, "aoi": "Mererani / Manyara (Tanzanite + Gold zone)"}}, {"type": "Feature", "geometry": {"type": "Point", "coordinates": [36.991948, -3.531928]}, "properties": {"rank": 257, "score": 0.8566, "aoi": "Mererani / Manyara (Tanzanite + Gold zone)"}}, {"type": "Feature", "geometry": {"type": "Point", "coordinates": [37.000288, -3.503013]}, "properties": {"rank": 258, "score": 0.8565, "aoi": "Mererani / Manyara (Tanzanite + Gold zone)"}}, {"type": "Feature", "geometry": {"type": "Point", "coordinates": [37.007985, -3.522198]}, "properties": {"rank": 259, "score": 0.8565, "aoi": "Mererani / Manyara (Tanzanite + Gold zone)"}}, {"type": "Feature", "geometry": {"type": "Point", "coordinates": [36.996276, -3.527597]}, "properties": {"rank": 260, "score": 0.8565, "aoi": "Mererani / Manyara (Tanzanite + Gold zone)"}}, {"type": "Feature", "geometry": {"type": "Point", "coordinates": [36.995358, -3.536094]}, "properties": {"rank": 261, "score": 0.8565, "aoi": "Mererani / Manyara (Tanzanite + Gold zone)"}}, {"type": "Feature", "geometry": {"type": "Point", "coordinates": [37.00818, -3.515146]}, "properties": {"rank": 262, "score": 0.8563, "aoi": "Mererani / Manyara (Tanzanite + Gold zone)"}}, {"type": "Feature", "geometry": {"type": "Point", "coordinates": [36.987686, -3.505156]}, "properties": {"rank": 263, "score": 0.8561, "aoi": "Mererani / Manyara (Tanzanite + Gold zone)"}}, {"type": "Feature", "geometry": {"type": "Point", "coordinates": [37.001863, -3.523812]}, "properties": {"rank": 264, "score": 0.8561, "aoi": "Mererani / Manyara (Tanzanite + Gold zone)"}}, {"type": "Feature", "geometry": {"type": "Point", "coordinates": [37.005648, -3.521108]}, "properties": {"rank": 265, "score": 0.856, "aoi": "Mererani / Manyara (Tanzanite + Gold zone)"}}, {"type": "Feature", "geometry": {"type": "Point", "coordinates": [36.976677, -3.519779]}, "properties": {"rank": 266, "score": 0.856, "aoi": "Mererani / Manyara (Tanzanite + Gold zone)"}}, {"type": "Feature", "geometry": {"type": "Point", "coordinates": [36.992846, -3.532472]}, "properties": {"rank": 267, "score": 0.8559, "aoi": "Mererani / Manyara (Tanzanite + Gold zone)"}}, {"type": "Feature", "geometry": {"type": "Point", "coordinates": [37.002228, -3.521281]}, "properties": {"rank": 268, "score": 0.8558, "aoi": "Mererani / Manyara (Tanzanite + Gold zone)"}}, {"type": "Feature", "geometry": {"type": "Point", "coordinates": [37.000289, -3.50229]}, "properties": {"rank": 269, "score": 0.8558, "aoi": "Mererani / Manyara (Tanzanite + Gold zone)"}}, {"type": "Feature", "geometry": {"type": "Point", "coordinates": [36.998081, -3.52525]}, "properties": {"rank": 270, "score": 0.8558, "aoi": "Mererani / Manyara (Tanzanite + Gold zone)"}}, {"type": "Feature", "geometry": {"type": "Point", "coordinates": [36.998621, -3.52489]}, "properties": {"rank": 271, "score": 0.8557, "aoi": "Mererani / Manyara (Tanzanite + Gold zone)"}}, {"type": "Feature", "geometry": {"type": "Point", "coordinates": [36.997338, -3.536099]}, "properties": {"rank": 272, "score": 0.8556, "aoi": "Mererani / Manyara (Tanzanite + Gold zone)"}}, {"type": "Feature", "geometry": {"type": "Point", "coordinates": [36.997719, -3.526154]}, "properties": {"rank": 273, "score": 0.8555, "aoi": "Mererani / Manyara (Tanzanite + Gold zone)"}}, {"type": "Feature", "geometry": {"type": "Point", "coordinates": [36.999382, -3.505905]}, "properties": {"rank": 274, "score": 0.8555, "aoi": "Mererani / Manyara (Tanzanite + Gold zone)"}}, {"type": "Feature", "geometry": {"type": "Point", "coordinates": [36.992486, -3.532472]}, "properties": {"rank": 275, "score": 0.8555, "aoi": "Mererani / Manyara (Tanzanite + Gold zone)"}}, {"type": "Feature", "geometry": {"type": "Point", "coordinates": [36.995554, -3.528681]}, "properties": {"rank": 276, "score": 0.8554, "aoi": "Mererani / Manyara (Tanzanite + Gold zone)"}}, {"type": "Feature", "geometry": {"type": "Point", "coordinates": [36.992487, -3.53211]}, "properties": {"rank": 277, "score": 0.8554, "aoi": "Mererani / Manyara (Tanzanite + Gold zone)"}}, {"type": "Feature", "geometry": {"type": "Point", "coordinates": [36.992487, -3.532291]}, "properties": {"rank": 278, "score": 0.8554, "aoi": "Mererani / Manyara (Tanzanite + Gold zone)"}}, {"type": "Feature", "geometry": {"type": "Point", "coordinates": [36.997877, -3.536461]}, "properties": {"rank": 279, "score": 0.8554, "aoi": "Mererani / Manyara (Tanzanite + Gold zone)"}}, {"type": "Feature", "geometry": {"type": "Point", "coordinates": [36.974673, -3.530986]}, "properties": {"rank": 280, "score": 0.855, "aoi": "Mererani / Manyara (Tanzanite + Gold zone)"}}, {"type": "Feature", "geometry": {"type": "Point", "coordinates": [36.987686, -3.505337]}, "properties": {"rank": 281, "score": 0.8549, "aoi": "Mererani / Manyara (Tanzanite + Gold zone)"}}, {"type": "Feature", "geometry": {"type": "Point", "coordinates": [36.993749, -3.531208]}, "properties": {"rank": 282, "score": 0.8549, "aoi": "Mererani / Manyara (Tanzanite + Gold zone)"}}, {"type": "Feature", "geometry": {"type": "Point", "coordinates": [37.006009, -3.520566]}, "properties": {"rank": 283, "score": 0.8547, "aoi": "Mererani / Manyara (Tanzanite + Gold zone)"}}, {"type": "Feature", "geometry": {"type": "Point", "coordinates": [37.004746, -3.522191]}, "properties": {"rank": 284, "score": 0.8547, "aoi": "Mererani / Manyara (Tanzanite + Gold zone)"}}, {"type": "Feature", "geometry": {"type": "Point", "coordinates": [36.986195, -3.529022]}, "properties": {"rank": 285, "score": 0.8545, "aoi": "Mererani / Manyara (Tanzanite + Gold zone)"}}, {"type": "Feature", "geometry": {"type": "Point", "coordinates": [36.995735, -3.527958]}, "properties": {"rank": 286, "score": 0.8544, "aoi": "Mererani / Manyara (Tanzanite + Gold zone)"}}, {"type": "Feature", "geometry": {"type": "Point", "coordinates": [36.99752, -3.535195]}, "properties": {"rank": 287, "score": 0.8543, "aoi": "Mererani / Manyara (Tanzanite + Gold zone)"}}, {"type": "Feature", "geometry": {"type": "Point", "coordinates": [37.000287, -3.503194]}, "properties": {"rank": 288, "score": 0.8543, "aoi": "Mererani / Manyara (Tanzanite + Gold zone)"}}, {"type": "Feature", "geometry": {"type": "Point", "coordinates": [37.009806, -3.512256]}, "properties": {"rank": 289, "score": 0.8543, "aoi": "Mererani / Manyara (Tanzanite + Gold zone)"}}, {"type": "Feature", "geometry": {"type": "Point", "coordinates": [37.001684, -3.523269]}, "properties": {"rank": 290, "score": 0.8542, "aoi": "Mererani / Manyara (Tanzanite + Gold zone)"}}, {"type": "Feature", "geometry": {"type": "Point", "coordinates": [36.97917, -3.5319]}, "properties": {"rank": 291, "score": 0.8541, "aoi": "Mererani / Manyara (Tanzanite + Gold zone)"}}, {"type": "Feature", "geometry": {"type": "Point", "coordinates": [36.979901, -3.526839]}, "properties": {"rank": 292, "score": 0.8541, "aoi": "Mererani / Manyara (Tanzanite + Gold zone)"}}, {"type": "Feature", "geometry": {"type": "Point", "coordinates": [36.98228, -3.508761]}, "properties": {"rank": 293, "score": 0.854, "aoi": "Mererani / Manyara (Tanzanite + Gold zone)"}}, {"type": "Feature", "geometry": {"type": "Point", "coordinates": [36.99968, -3.534838]}, "properties": {"rank": 294, "score": 0.8538, "aoi": "Mererani / Manyara (Tanzanite + Gold zone)"}}, {"type": "Feature", "geometry": {"type": "Point", "coordinates": [36.986374, -3.529384]}, "properties": {"rank": 295, "score": 0.8538, "aoi": "Mererani / Manyara (Tanzanite + Gold zone)"}}, {"type": "Feature", "geometry": {"type": "Point", "coordinates": [37.000288, -3.502832]}, "properties": {"rank": 296, "score": 0.8537, "aoi": "Mererani / Manyara (Tanzanite + Gold zone)"}}, {"type": "Feature", "geometry": {"type": "Point", "coordinates": [36.996637, -3.527236]}, "properties": {"rank": 297, "score": 0.8536, "aoi": "Mererani / Manyara (Tanzanite + Gold zone)"}}, {"type": "Feature", "geometry": {"type": "Point", "coordinates": [37.003671, -3.519838]}, "properties": {"rank": 298, "score": 0.8536, "aoi": "Mererani / Manyara (Tanzanite + Gold zone)"}}, {"type": "Feature", "geometry": {"type": "Point", "coordinates": [36.999926, -3.504097]}, "properties": {"rank": 299, "score": 0.8535, "aoi": "Mererani / Manyara (Tanzanite + Gold zone)"}}, {"type": "Feature", "geometry": {"type": "Point", "coordinates": [36.997159, -3.535556]}, "properties": {"rank": 300, "score": 0.8535, "aoi": "Mererani / Manyara (Tanzanite + Gold zone)"}}, {"type": "Feature", "geometry": {"type": "Point", "coordinates": [36.931059, -3.639563]}, "properties": {"rank": 301, "score": 0.8535, "aoi": "Mererani / Manyara (Tanzanite + Gold zone)"}}, {"type": "Feature", "geometry": {"type": "Point", "coordinates": [36.995735, -3.528139]}, "properties": {"rank": 302, "score": 0.8535, "aoi": "Mererani / Manyara (Tanzanite + Gold zone)"}}, {"type": "Feature", "geometry": {"type": "Point", "coordinates": [37.000289, -3.502471]}, "properties": {"rank": 303, "score": 0.8535, "aoi": "Mererani / Manyara (Tanzanite + Gold zone)"}}, {"type": "Feature", "geometry": {"type": "Point", "coordinates": [36.987273, -3.530109]}, "properties": {"rank": 304, "score": 0.8535, "aoi": "Mererani / Manyara (Tanzanite + Gold zone)"}}, {"type": "Feature", "geometry": {"type": "Point", "coordinates": [36.974345, -3.516338]}, "properties": {"rank": 305, "score": 0.8534, "aoi": "Mererani / Manyara (Tanzanite + Gold zone)"}}, {"type": "Feature", "geometry": {"type": "Point", "coordinates": [36.996637, -3.527056]}, "properties": {"rank": 306, "score": 0.8534, "aoi": "Mererani / Manyara (Tanzanite + Gold zone)"}}, {"type": "Feature", "geometry": {"type": "Point", "coordinates": [36.998986, -3.522902]}, "properties": {"rank": 307, "score": 0.8534, "aoi": "Mererani / Manyara (Tanzanite + Gold zone)"}}, {"type": "Feature", "geometry": {"type": "Point", "coordinates": [36.97936, -3.527199]}, "properties": {"rank": 308, "score": 0.8533, "aoi": "Mererani / Manyara (Tanzanite + Gold zone)"}}, {"type": "Feature", "geometry": {"type": "Point", "coordinates": [36.931239, -3.639564]}, "properties": {"rank": 309, "score": 0.8532, "aoi": "Mererani / Manyara (Tanzanite + Gold zone)"}}, {"type": "Feature", "geometry": {"type": "Point", "coordinates": [37.005468, -3.521288]}, "properties": {"rank": 310, "score": 0.853, "aoi": "Mererani / Manyara (Tanzanite + Gold zone)"}}, {"type": "Feature", "geometry": {"type": "Point", "coordinates": [37.010143, -3.522926]}, "properties": {"rank": 311, "score": 0.853, "aoi": "Mererani / Manyara (Tanzanite + Gold zone)"}}, {"type": "Feature", "geometry": {"type": "Point", "coordinates": [36.993749, -3.531389]}, "properties": {"rank": 312, "score": 0.8529, "aoi": "Mererani / Manyara (Tanzanite + Gold zone)"}}, {"type": "Feature", "geometry": {"type": "Point", "coordinates": [37.005995, -3.527076]}, "properties": {"rank": 313, "score": 0.8529, "aoi": "Mererani / Manyara (Tanzanite + Gold zone)"}}, {"type": "Feature", "geometry": {"type": "Point", "coordinates": [36.999685, -3.532487]}, "properties": {"rank": 314, "score": 0.8529, "aoi": "Mererani / Manyara (Tanzanite + Gold zone)"}}, {"type": "Feature", "geometry": {"type": "Point", "coordinates": [36.999926, -3.503736]}, "properties": {"rank": 315, "score": 0.8528, "aoi": "Mererani / Manyara (Tanzanite + Gold zone)"}}, {"type": "Feature", "geometry": {"type": "Point", "coordinates": [37.000469, -3.50229]}, "properties": {"rank": 316, "score": 0.8528, "aoi": "Mererani / Manyara (Tanzanite + Gold zone)"}}, {"type": "Feature", "geometry": {"type": "Point", "coordinates": [36.97954, -3.52738]}, "properties": {"rank": 317, "score": 0.8528, "aoi": "Mererani / Manyara (Tanzanite + Gold zone)"}}, {"type": "Feature", "geometry": {"type": "Point", "coordinates": [36.998058, -3.5361]}, "properties": {"rank": 318, "score": 0.8528, "aoi": "Mererani / Manyara (Tanzanite + Gold zone)"}}, {"type": "Feature", "geometry": {"type": "Point", "coordinates": [36.980265, -3.525031]}, "properties": {"rank": 319, "score": 0.8526, "aoi": "Mererani / Manyara (Tanzanite + Gold zone)"}}, {"type": "Feature", "geometry": {"type": "Point", "coordinates": [37.099242, -3.689304]}, "properties": {"rank": 320, "score": 0.8526, "aoi": "Mererani / Manyara (Tanzanite + Gold zone)"}}, {"type": "Feature", "geometry": {"type": "Point", "coordinates": [37.009806, -3.512075]}, "properties": {"rank": 321, "score": 0.8526, "aoi": "Mererani / Manyara (Tanzanite + Gold zone)"}}, {"type": "Feature", "geometry": {"type": "Point", "coordinates": [37.00565, -3.520384]}, "properties": {"rank": 322, "score": 0.8525, "aoi": "Mererani / Manyara (Tanzanite + Gold zone)"}}, {"type": "Feature", "geometry": {"type": "Point", "coordinates": [37.017187, -3.511006]}, "properties": {"rank": 323, "score": 0.8525, "aoi": "Mererani / Manyara (Tanzanite + Gold zone)"}}, {"type": "Feature", "geometry": {"type": "Point", "coordinates": [37.004419, -3.506639]}, "properties": {"rank": 324, "score": 0.8525, "aoi": "Mererani / Manyara (Tanzanite + Gold zone)"}}, {"type": "Feature", "geometry": {"type": "Point", "coordinates": [36.998238, -3.53592]}, "properties": {"rank": 325, "score": 0.8525, "aoi": "Mererani / Manyara (Tanzanite + Gold zone)"}}, {"type": "Feature", "geometry": {"type": "Point", "coordinates": [36.998662, -3.506084]}, "properties": {"rank": 326, "score": 0.8525, "aoi": "Mererani / Manyara (Tanzanite + Gold zone)"}}, {"type": "Feature", "geometry": {"type": "Point", "coordinates": [36.987092, -3.53029]}, "properties": {"rank": 327, "score": 0.8524, "aoi": "Mererani / Manyara (Tanzanite + Gold zone)"}}, {"type": "Feature", "geometry": {"type": "Point", "coordinates": [36.997518, -3.536099]}, "properties": {"rank": 328, "score": 0.8524, "aoi": "Mererani / Manyara (Tanzanite + Gold zone)"}}, {"type": "Feature", "geometry": {"type": "Point", "coordinates": [37.005289, -3.520564]}, "properties": {"rank": 329, "score": 0.8523, "aoi": "Mererani / Manyara (Tanzanite + Gold zone)"}}, {"type": "Feature", "geometry": {"type": "Point", "coordinates": [36.985872, -3.511843]}, "properties": {"rank": 330, "score": 0.8523, "aoi": "Mererani / Manyara (Tanzanite + Gold zone)"}}, {"type": "Feature", "geometry": {"type": "Point", "coordinates": [37.000045, -3.532307]}, "properties": {"rank": 331, "score": 0.8522, "aoi": "Mererani / Manyara (Tanzanite + Gold zone)"}}, {"type": "Feature", "geometry": {"type": "Point", "coordinates": [36.994998, -3.536094]}, "properties": {"rank": 332, "score": 0.8522, "aoi": "Mererani / Manyara (Tanzanite + Gold zone)"}}, {"type": "Feature", "geometry": {"type": "Point", "coordinates": [36.980795, -3.529734]}, "properties": {"rank": 333, "score": 0.8522, "aoi": "Mererani / Manyara (Tanzanite + Gold zone)"}}, {"type": "Feature", "geometry": {"type": "Point", "coordinates": [36.979001, -3.527198]}, "properties": {"rank": 334, "score": 0.8521, "aoi": "Mererani / Manyara (Tanzanite + Gold zone)"}}, {"type": "Feature", "geometry": {"type": "Point", "coordinates": [36.995179, -3.535913]}, "properties": {"rank": 335, "score": 0.8521, "aoi": "Mererani / Manyara (Tanzanite + Gold zone)"}}, {"type": "Feature", "geometry": {"type": "Point", "coordinates": [36.997697, -3.53628]}, "properties": {"rank": 336, "score": 0.852, "aoi": "Mererani / Manyara (Tanzanite + Gold zone)"}}, {"type": "Feature", "geometry": {"type": "Point", "coordinates": [36.994818, -3.536274]}, "properties": {"rank": 337, "score": 0.852, "aoi": "Mererani / Manyara (Tanzanite + Gold zone)"}}, {"type": "Feature", "geometry": {"type": "Point", "coordinates": [36.987093, -3.529928]}, "properties": {"rank": 338, "score": 0.8519, "aoi": "Mererani / Manyara (Tanzanite + Gold zone)"}}, {"type": "Feature", "geometry": {"type": "Point", "coordinates": [37.000649, -3.502472]}, "properties": {"rank": 339, "score": 0.8518, "aoi": "Mererani / Manyara (Tanzanite + Gold zone)"}}, {"type": "Feature", "geometry": {"type": "Point", "coordinates": [36.979721, -3.526838]}, "properties": {"rank": 340, "score": 0.8518, "aoi": "Mererani / Manyara (Tanzanite + Gold zone)"}}, {"type": "Feature", "geometry": {"type": "Point", "coordinates": [37.004385, -3.522552]}, "properties": {"rank": 341, "score": 0.8518, "aoi": "Mererani / Manyara (Tanzanite + Gold zone)"}}, {"type": "Feature", "geometry": {"type": "Point", "coordinates": [37.005509, -3.501759]}, "properties": {"rank": 342, "score": 0.8517, "aoi": "Mererani / Manyara (Tanzanite + Gold zone)"}}, {"type": "Feature", "geometry": {"type": "Point", "coordinates": [37.009443, -3.513521]}, "properties": {"rank": 343, "score": 0.8516, "aoi": "Mererani / Manyara (Tanzanite + Gold zone)"}}, {"type": "Feature", "geometry": {"type": "Point", "coordinates": [36.979902, -3.526296]}, "properties": {"rank": 344, "score": 0.8516, "aoi": "Mererani / Manyara (Tanzanite + Gold zone)"}}, {"type": "Feature", "geometry": {"type": "Point", "coordinates": [36.997218, -3.507889]}, "properties": {"rank": 345, "score": 0.8515, "aoi": "Mererani / Manyara (Tanzanite + Gold zone)"}}, {"type": "Feature", "geometry": {"type": "Point", "coordinates": [37.085185, -3.69705]}, "properties": {"rank": 346, "score": 0.8515, "aoi": "Mererani / Manyara (Tanzanite + Gold zone)"}}, {"type": "Feature", "geometry": {"type": "Point", "coordinates": [37.010323, -3.523288]}, "properties": {"rank": 347, "score": 0.8514, "aoi": "Mererani / Manyara (Tanzanite + Gold zone)"}}, {"type": "Feature", "geometry": {"type": "Point", "coordinates": [36.995914, -3.528501]}, "properties": {"rank": 348, "score": 0.8513, "aoi": "Mererani / Manyara (Tanzanite + Gold zone)"}}, {"type": "Feature", "geometry": {"type": "Point", "coordinates": [36.995555, -3.528138]}, "properties": {"rank": 349, "score": 0.8513, "aoi": "Mererani / Manyara (Tanzanite + Gold zone)"}}, {"type": "Feature", "geometry": {"type": "Point", "coordinates": [36.992308, -3.531929]}, "properties": {"rank": 350, "score": 0.8513, "aoi": "Mererani / Manyara (Tanzanite + Gold zone)"}}, {"type": "Feature", "geometry": {"type": "Point", "coordinates": [36.982776, -3.528834]}, "properties": {"rank": 351, "score": 0.8511, "aoi": "Mererani / Manyara (Tanzanite + Gold zone)"}}, {"type": "Feature", "geometry": {"type": "Point", "coordinates": [37.004927, -3.521649]}, "properties": {"rank": 352, "score": 0.8511, "aoi": "Mererani / Manyara (Tanzanite + Gold zone)"}}, {"type": "Feature", "geometry": {"type": "Point", "coordinates": [37.000647, -3.503195]}, "properties": {"rank": 353, "score": 0.8511, "aoi": "Mererani / Manyara (Tanzanite + Gold zone)"}}, {"type": "Feature", "geometry": {"type": "Point", "coordinates": [36.97917, -3.532081]}, "properties": {"rank": 354, "score": 0.8511, "aoi": "Mererani / Manyara (Tanzanite + Gold zone)"}}, {"type": "Feature", "geometry": {"type": "Point", "coordinates": [37.005289, -3.520926]}, "properties": {"rank": 355, "score": 0.851, "aoi": "Mererani / Manyara (Tanzanite + Gold zone)"}}, {"type": "Feature", "geometry": {"type": "Point", "coordinates": [36.998261, -3.525251]}, "properties": {"rank": 356, "score": 0.851, "aoi": "Mererani / Manyara (Tanzanite + Gold zone)"}}, {"type": "Feature", "geometry": {"type": "Point", "coordinates": [36.997157, -3.536279]}, "properties": {"rank": 357, "score": 0.8509, "aoi": "Mererani / Manyara (Tanzanite + Gold zone)"}}, {"type": "Feature", "geometry": {"type": "Point", "coordinates": [36.995735, -3.52832]}, "properties": {"rank": 358, "score": 0.8509, "aoi": "Mererani / Manyara (Tanzanite + Gold zone)"}}, {"type": "Feature", "geometry": {"type": "Point", "coordinates": [36.978089, -3.532802]}, "properties": {"rank": 359, "score": 0.8509, "aoi": "Mererani / Manyara (Tanzanite + Gold zone)"}}, {"type": "Feature", "geometry": {"type": "Point", "coordinates": [37.004565, -3.522552]}, "properties": {"rank": 360, "score": 0.8509, "aoi": "Mererani / Manyara (Tanzanite + Gold zone)"}}, {"type": "Feature", "geometry": {"type": "Point", "coordinates": [37.002409, -3.521101]}, "properties": {"rank": 361, "score": 0.8509, "aoi": "Mererani / Manyara (Tanzanite + Gold zone)"}}, {"type": "Feature", "geometry": {"type": "Point", "coordinates": [36.992308, -3.531748]}, "properties": {"rank": 362, "score": 0.8508, "aoi": "Mererani / Manyara (Tanzanite + Gold zone)"}}, {"type": "Feature", "geometry": {"type": "Point", "coordinates": [37.03286, -3.503263]}, "properties": {"rank": 363, "score": 0.8507, "aoi": "Mererani / Manyara (Tanzanite + Gold zone)"}}, {"type": "Feature", "geometry": {"type": "Point", "coordinates": [37.005329, -3.501758]}, "properties": {"rank": 364, "score": 0.8507, "aoi": "Mererani / Manyara (Tanzanite + Gold zone)"}}, {"type": "Feature", "geometry": {"type": "Point", "coordinates": [37.015021, -3.514256]}, "properties": {"rank": 365, "score": 0.8506, "aoi": "Mererani / Manyara (Tanzanite + Gold zone)"}}, {"type": "Feature", "geometry": {"type": "Point", "coordinates": [36.979712, -3.530997]}, "properties": {"rank": 366, "score": 0.8505, "aoi": "Mererani / Manyara (Tanzanite + Gold zone)"}}, {"type": "Feature", "geometry": {"type": "Point", "coordinates": [36.98406, -3.517445]}, "properties": {"rank": 367, "score": 0.8505, "aoi": "Mererani / Manyara (Tanzanite + Gold zone)"}}, {"type": "Feature", "geometry": {"type": "Point", "coordinates": [36.997397, -3.508251]}, "properties": {"rank": 368, "score": 0.8504, "aoi": "Mererani / Manyara (Tanzanite + Gold zone)"}}, {"type": "Feature", "geometry": {"type": "Point", "coordinates": [36.987813, -3.529749]}, "properties": {"rank": 369, "score": 0.8504, "aoi": "Mererani / Manyara (Tanzanite + Gold zone)"}}, {"type": "Feature", "geometry": {"type": "Point", "coordinates": [37.001685, -3.523088]}, "properties": {"rank": 370, "score": 0.8503, "aoi": "Mererani / Manyara (Tanzanite + Gold zone)"}}, {"type": "Feature", "geometry": {"type": "Point", "coordinates": [37.00818, -3.515327]}, "properties": {"rank": 371, "score": 0.8503, "aoi": "Mererani / Manyara (Tanzanite + Gold zone)"}}, {"type": "Feature", "geometry": {"type": "Point", "coordinates": [36.990145, -3.533551]}, "properties": {"rank": 372, "score": 0.8503, "aoi": "Mererani / Manyara (Tanzanite + Gold zone)"}}, {"type": "Feature", "geometry": {"type": "Point", "coordinates": [36.992128, -3.531928]}, "properties": {"rank": 373, "score": 0.8501, "aoi": "Mererani / Manyara (Tanzanite + Gold zone)"}}, {"type": "Feature", "geometry": {"type": "Point", "coordinates": [36.998803, -3.524348]}, "properties": {"rank": 374, "score": 0.85, "aoi": "Mererani / Manyara (Tanzanite + Gold zone)"}}, {"type": "Feature", "geometry": {"type": "Point", "coordinates": [36.997037, -3.50825]}, "properties": {"rank": 375, "score": 0.85, "aoi": "Mererani / Manyara (Tanzanite + Gold zone)"}}, {"type": "Feature", "geometry": {"type": "Point", "coordinates": [36.999526, -3.522722]}, "properties": {"rank": 376, "score": 0.85, "aoi": "Mererani / Manyara (Tanzanite + Gold zone)"}}, {"type": "Feature", "geometry": {"type": "Point", "coordinates": [36.980809, -3.523224]}, "properties": {"rank": 377, "score": 0.8498, "aoi": "Mererani / Manyara (Tanzanite + Gold zone)"}}, {"type": "Feature", "geometry": {"type": "Point", "coordinates": [37.005869, -3.50194]}, "properties": {"rank": 378, "score": 0.8498, "aoi": "Mererani / Manyara (Tanzanite + Gold zone)"}}, {"type": "Feature", "geometry": {"type": "Point", "coordinates": [36.99734, -3.534833]}, "properties": {"rank": 379, "score": 0.8498, "aoi": "Mererani / Manyara (Tanzanite + Gold zone)"}}, {"type": "Feature", "geometry": {"type": "Point", "coordinates": [36.985336, -3.510033]}, "properties": {"rank": 380, "score": 0.8498, "aoi": "Mererani / Manyara (Tanzanite + Gold zone)"}}, {"type": "Feature", "geometry": {"type": "Point", "coordinates": [36.986732, -3.530289]}, "properties": {"rank": 381, "score": 0.8496, "aoi": "Mererani / Manyara (Tanzanite + Gold zone)"}}, {"type": "Feature", "geometry": {"type": "Point", "coordinates": [37.010143, -3.523107]}, "properties": {"rank": 382, "score": 0.8496, "aoi": "Mererani / Manyara (Tanzanite + Gold zone)"}}, {"type": "Feature", "geometry": {"type": "Point", "coordinates": [36.976852, -3.52195]}, "properties": {"rank": 383, "score": 0.8496, "aoi": "Mererani / Manyara (Tanzanite + Gold zone)"}}, {"type": "Feature", "geometry": {"type": "Point", "coordinates": [36.999159, -3.525976]}, "properties": {"rank": 384, "score": 0.8495, "aoi": "Mererani / Manyara (Tanzanite + Gold zone)"}}, {"type": "Feature", "geometry": {"type": "Point", "coordinates": [36.977924, -3.688493]}, "properties": {"rank": 385, "score": 0.8494, "aoi": "Mererani / Manyara (Tanzanite + Gold zone)"}}, {"type": "Feature", "geometry": {"type": "Point", "coordinates": [36.988173, -3.52975]}, "properties": {"rank": 386, "score": 0.8494, "aoi": "Mererani / Manyara (Tanzanite + Gold zone)"}}, {"type": "Feature", "geometry": {"type": "Point", "coordinates": [36.984991, -3.50298]}, "properties": {"rank": 387, "score": 0.8493, "aoi": "Mererani / Manyara (Tanzanite + Gold zone)"}}, {"type": "Feature", "geometry": {"type": "Point", "coordinates": [36.985512, -3.512023]}, "properties": {"rank": 388, "score": 0.8493, "aoi": "Mererani / Manyara (Tanzanite + Gold zone)"}}, {"type": "Feature", "geometry": {"type": "Point", "coordinates": [36.982776, -3.529015]}, "properties": {"rank": 389, "score": 0.8492, "aoi": "Mererani / Manyara (Tanzanite + Gold zone)"}}, {"type": "Feature", "geometry": {"type": "Point", "coordinates": [36.998842, -3.506084]}, "properties": {"rank": 390, "score": 0.8492, "aoi": "Mererani / Manyara (Tanzanite + Gold zone)"}}, {"type": "Feature", "geometry": {"type": "Point", "coordinates": [37.000287, -3.503375]}, "properties": {"rank": 391, "score": 0.8491, "aoi": "Mererani / Manyara (Tanzanite + Gold zone)"}}, {"type": "Feature", "geometry": {"type": "Point", "coordinates": [37.007091, -3.519845]}, "properties": {"rank": 392, "score": 0.849, "aoi": "Mererani / Manyara (Tanzanite + Gold zone)"}}, {"type": "Feature", "geometry": {"type": "Point", "coordinates": [37.002404, -3.523452]}, "properties": {"rank": 393, "score": 0.849, "aoi": "Mererani / Manyara (Tanzanite + Gold zone)"}}, {"type": "Feature", "geometry": {"type": "Point", "coordinates": [37.001143, -3.52381]}, "properties": {"rank": 394, "score": 0.849, "aoi": "Mererani / Manyara (Tanzanite + Gold zone)"}}, {"type": "Feature", "geometry": {"type": "Point", "coordinates": [36.986015, -3.529203]}, "properties": {"rank": 395, "score": 0.8489, "aoi": "Mererani / Manyara (Tanzanite + Gold zone)"}}, {"type": "Feature", "geometry": {"type": "Point", "coordinates": [36.995374, -3.528861]}, "properties": {"rank": 396, "score": 0.8489, "aoi": "Mererani / Manyara (Tanzanite + Gold zone)"}}, {"type": "Feature", "geometry": {"type": "Point", "coordinates": [36.979006, -3.524486]}, "properties": {"rank": 397, "score": 0.8487, "aoi": "Mererani / Manyara (Tanzanite + Gold zone)"}}, {"type": "Feature", "geometry": {"type": "Point", "coordinates": [36.98334, -3.517624]}, "properties": {"rank": 398, "score": 0.8486, "aoi": "Mererani / Manyara (Tanzanite + Gold zone)"}}, {"type": "Feature", "geometry": {"type": "Point", "coordinates": [37.002023, -3.533215]}, "properties": {"rank": 399, "score": 0.8486, "aoi": "Mererani / Manyara (Tanzanite + Gold zone)"}}, {"type": "Feature", "geometry": {"type": "Point", "coordinates": [36.984416, -3.519434]}, "properties": {"rank": 400, "score": 0.8486, "aoi": "Mererani / Manyara (Tanzanite + Gold zone)"}}, {"type": "Feature", "geometry": {"type": "Point", "coordinates": [36.997879, -3.535376]}, "properties": {"rank": 401, "score": 0.8486, "aoi": "Mererani / Manyara (Tanzanite + Gold zone)"}}, {"type": "Feature", "geometry": {"type": "Point", "coordinates": [37.006189, -3.520747]}, "properties": {"rank": 402, "score": 0.8485, "aoi": "Mererani / Manyara (Tanzanite + Gold zone)"}}, {"type": "Feature", "geometry": {"type": "Point", "coordinates": [36.997698, -3.536099]}, "properties": {"rank": 403, "score": 0.8485, "aoi": "Mererani / Manyara (Tanzanite + Gold zone)"}}, {"type": "Feature", "geometry": {"type": "Point", "coordinates": [36.997158, -3.535917]}, "properties": {"rank": 404, "score": 0.8485, "aoi": "Mererani / Manyara (Tanzanite + Gold zone)"}}, {"type": "Feature", "geometry": {"type": "Point", "coordinates": [36.974345, -3.516519]}, "properties": {"rank": 405, "score": 0.8484, "aoi": "Mererani / Manyara (Tanzanite + Gold zone)"}}, {"type": "Feature", "geometry": {"type": "Point", "coordinates": [37.000582, -3.533755]}, "properties": {"rank": 406, "score": 0.8484, "aoi": "Mererani / Manyara (Tanzanite + Gold zone)"}}, {"type": "Feature", "geometry": {"type": "Point", "coordinates": [36.986734, -3.529566]}, "properties": {"rank": 407, "score": 0.8481, "aoi": "Mererani / Manyara (Tanzanite + Gold zone)"}}, {"type": "Feature", "geometry": {"type": "Point", "coordinates": [37.000109, -3.502651]}, "properties": {"rank": 408, "score": 0.8481, "aoi": "Mererani / Manyara (Tanzanite + Gold zone)"}}, {"type": "Feature", "geometry": {"type": "Point", "coordinates": [36.991758, -3.536629]}, "properties": {"rank": 409, "score": 0.8481, "aoi": "Mererani / Manyara (Tanzanite + Gold zone)"}}, {"type": "Feature", "geometry": {"type": "Point", "coordinates": [36.995913, -3.529224]}, "properties": {"rank": 410, "score": 0.8481, "aoi": "Mererani / Manyara (Tanzanite + Gold zone)"}}, {"type": "Feature", "geometry": {"type": "Point", "coordinates": [36.997537, -3.527238]}, "properties": {"rank": 411, "score": 0.8481, "aoi": "Mererani / Manyara (Tanzanite + Gold zone)"}}, {"type": "Feature", "geometry": {"type": "Point", "coordinates": [36.99988, -3.525435]}, "properties": {"rank": 412, "score": 0.848, "aoi": "Mererani / Manyara (Tanzanite + Gold zone)"}}, {"type": "Feature", "geometry": {"type": "Point", "coordinates": [36.995916, -3.527597]}, "properties": {"rank": 413, "score": 0.848, "aoi": "Mererani / Manyara (Tanzanite + Gold zone)"}}, {"type": "Feature", "geometry": {"type": "Point", "coordinates": [37.004965, -3.503747]}, "properties": {"rank": 414, "score": 0.848, "aoi": "Mererani / Manyara (Tanzanite + Gold zone)"}}, {"type": "Feature", "geometry": {"type": "Point", "coordinates": [36.984991, -3.503161]}, "properties": {"rank": 415, "score": 0.848, "aoi": "Mererani / Manyara (Tanzanite + Gold zone)"}}, {"type": "Feature", "geometry": {"type": "Point", "coordinates": [36.987633, -3.529929]}, "properties": {"rank": 416, "score": 0.8479, "aoi": "Mererani / Manyara (Tanzanite + Gold zone)"}}, {"type": "Feature", "geometry": {"type": "Point", "coordinates": [36.987633, -3.529749]}, "properties": {"rank": 417, "score": 0.8479, "aoi": "Mererani / Manyara (Tanzanite + Gold zone)"}}, {"type": "Feature", "geometry": {"type": "Point", "coordinates": [37.009257, -3.516776]}, "properties": {"rank": 418, "score": 0.8479, "aoi": "Mererani / Manyara (Tanzanite + Gold zone)"}}, {"type": "Feature", "geometry": {"type": "Point", "coordinates": [36.994637, -3.536454]}, "properties": {"rank": 419, "score": 0.8478, "aoi": "Mererani / Manyara (Tanzanite + Gold zone)"}}, {"type": "Feature", "geometry": {"type": "Point", "coordinates": [37.003851, -3.520019]}, "properties": {"rank": 420, "score": 0.8478, "aoi": "Mererani / Manyara (Tanzanite + Gold zone)"}}, {"type": "Feature", "geometry": {"type": "Point", "coordinates": [37.002771, -3.519836]}, "properties": {"rank": 421, "score": 0.8478, "aoi": "Mererani / Manyara (Tanzanite + Gold zone)"}}, {"type": "Feature", "geometry": {"type": "Point", "coordinates": [36.999201, -3.506447]}, "properties": {"rank": 422, "score": 0.8478, "aoi": "Mererani / Manyara (Tanzanite + Gold zone)"}}, {"type": "Feature", "geometry": {"type": "Point", "coordinates": [37.007986, -3.522017]}, "properties": {"rank": 423, "score": 0.8476, "aoi": "Mererani / Manyara (Tanzanite + Gold zone)"}}, {"type": "Feature", "geometry": {"type": "Point", "coordinates": [36.997339, -3.535556]}, "properties": {"rank": 424, "score": 0.8476, "aoi": "Mererani / Manyara (Tanzanite + Gold zone)"}}, {"type": "Feature", "geometry": {"type": "Point", "coordinates": [36.996638, -3.526875]}, "properties": {"rank": 425, "score": 0.8476, "aoi": "Mererani / Manyara (Tanzanite + Gold zone)"}}, {"type": "Feature", "geometry": {"type": "Point", "coordinates": [36.97972, -3.527381]}, "properties": {"rank": 426, "score": 0.8475, "aoi": "Mererani / Manyara (Tanzanite + Gold zone)"}}, {"type": "Feature", "geometry": {"type": "Point", "coordinates": [36.993566, -3.532474]}, "properties": {"rank": 427, "score": 0.8475, "aoi": "Mererani / Manyara (Tanzanite + Gold zone)"}}, {"type": "Feature", "geometry": {"type": "Point", "coordinates": [36.987994, -3.529569]}, "properties": {"rank": 428, "score": 0.8475, "aoi": "Mererani / Manyara (Tanzanite + Gold zone)"}}, {"type": "Feature", "geometry": {"type": "Point", "coordinates": [36.979711, -3.53154]}, "properties": {"rank": 429, "score": 0.8474, "aoi": "Mererani / Manyara (Tanzanite + Gold zone)"}}, {"type": "Feature", "geometry": {"type": "Point", "coordinates": [37.016836, -3.506846]}, "properties": {"rank": 430, "score": 0.8473, "aoi": "Mererani / Manyara (Tanzanite + Gold zone)"}}, {"type": "Feature", "geometry": {"type": "Point", "coordinates": [37.005287, -3.521469]}, "properties": {"rank": 431, "score": 0.8473, "aoi": "Mererani / Manyara (Tanzanite + Gold zone)"}}, {"type": "Feature", "geometry": {"type": "Point", "coordinates": [36.998238, -3.536101]}, "properties": {"rank": 432, "score": 0.8473, "aoi": "Mererani / Manyara (Tanzanite + Gold zone)"}}, {"type": "Feature", "geometry": {"type": "Point", "coordinates": [37.00622, -3.505919]}, "properties": {"rank": 433, "score": 0.8473, "aoi": "Mererani / Manyara (Tanzanite + Gold zone)"}}, {"type": "Feature", "geometry": {"type": "Point", "coordinates": [37.004565, -3.522733]}, "properties": {"rank": 434, "score": 0.8471, "aoi": "Mererani / Manyara (Tanzanite + Gold zone)"}}, {"type": "Feature", "geometry": {"type": "Point", "coordinates": [36.99321, -3.530846]}, "properties": {"rank": 435, "score": 0.8471, "aoi": "Mererani / Manyara (Tanzanite + Gold zone)"}}, {"type": "Feature", "geometry": {"type": "Point", "coordinates": [36.997177, -3.527238]}, "properties": {"rank": 436, "score": 0.8471, "aoi": "Mererani / Manyara (Tanzanite + Gold zone)"}}, {"type": "Feature", "geometry": {"type": "Point", "coordinates": [36.996997, -3.527237]}, "properties": {"rank": 437, "score": 0.8471, "aoi": "Mererani / Manyara (Tanzanite + Gold zone)"}}, {"type": "Feature", "geometry": {"type": "Point", "coordinates": [37.008165, -3.522198]}, "properties": {"rank": 438, "score": 0.847, "aoi": "Mererani / Manyara (Tanzanite + Gold zone)"}}, {"type": "Feature", "geometry": {"type": "Point", "coordinates": [36.995917, -3.527235]}, "properties": {"rank": 439, "score": 0.847, "aoi": "Mererani / Manyara (Tanzanite + Gold zone)"}}, {"type": "Feature", "geometry": {"type": "Point", "coordinates": [37.004204, -3.523275]}, "properties": {"rank": 440, "score": 0.8469, "aoi": "Mererani / Manyara (Tanzanite + Gold zone)"}}, {"type": "Feature", "geometry": {"type": "Point", "coordinates": [37.00533, -3.501577]}, "properties": {"rank": 441, "score": 0.8469, "aoi": "Mererani / Manyara (Tanzanite + Gold zone)"}}, {"type": "Feature", "geometry": {"type": "Point", "coordinates": [37.00065, -3.50211]}, "properties": {"rank": 442, "score": 0.8468, "aoi": "Mererani / Manyara (Tanzanite + Gold zone)"}}, {"type": "Feature", "geometry": {"type": "Point", "coordinates": [37.015022, -3.513533]}, "properties": {"rank": 443, "score": 0.8468, "aoi": "Mererani / Manyara (Tanzanite + Gold zone)"}}, {"type": "Feature", "geometry": {"type": "Point", "coordinates": [36.977037, -3.519599]}, "properties": {"rank": 444, "score": 0.8467, "aoi": "Mererani / Manyara (Tanzanite + Gold zone)"}}, {"type": "Feature", "geometry": {"type": "Point", "coordinates": [36.984451, -3.50316]}, "properties": {"rank": 445, "score": 0.8466, "aoi": "Mererani / Manyara (Tanzanite + Gold zone)"}}, {"type": "Feature", "geometry": {"type": "Point", "coordinates": [37.005508, -3.502482]}, "properties": {"rank": 446, "score": 0.8465, "aoi": "Mererani / Manyara (Tanzanite + Gold zone)"}}, {"type": "Feature", "geometry": {"type": "Point", "coordinates": [37.005868, -3.502302]}, "properties": {"rank": 447, "score": 0.8464, "aoi": "Mererani / Manyara (Tanzanite + Gold zone)"}}, {"type": "Feature", "geometry": {"type": "Point", "coordinates": [37.006762, -3.505016]}, "properties": {"rank": 448, "score": 0.8464, "aoi": "Mererani / Manyara (Tanzanite + Gold zone)"}}, {"type": "Feature", "geometry": {"type": "Point", "coordinates": [37.085186, -3.696869]}, "properties": {"rank": 449, "score": 0.8464, "aoi": "Mererani / Manyara (Tanzanite + Gold zone)"}}, {"type": "Feature", "geometry": {"type": "Point", "coordinates": [36.996635, -3.52796]}, "properties": {"rank": 450, "score": 0.8463, "aoi": "Mererani / Manyara (Tanzanite + Gold zone)"}}, {"type": "Feature", "geometry": {"type": "Point", "coordinates": [36.992657, -3.536993]}, "properties": {"rank": 451, "score": 0.8463, "aoi": "Mererani / Manyara (Tanzanite + Gold zone)"}}, {"type": "Feature", "geometry": {"type": "Point", "coordinates": [36.999146, -3.532124]}, "properties": {"rank": 452, "score": 0.8462, "aoi": "Mererani / Manyara (Tanzanite + Gold zone)"}}, {"type": "Feature", "geometry": {"type": "Point", "coordinates": [37.005269, -3.529968]}, "properties": {"rank": 453, "score": 0.846, "aoi": "Mererani / Manyara (Tanzanite + Gold zone)"}}, {"type": "Feature", "geometry": {"type": "Point", "coordinates": [36.986912, -3.53047]}, "properties": {"rank": 454, "score": 0.846, "aoi": "Mererani / Manyara (Tanzanite + Gold zone)"}}, {"type": "Feature", "geometry": {"type": "Point", "coordinates": [37.00583, -3.520204]}, "properties": {"rank": 455, "score": 0.846, "aoi": "Mererani / Manyara (Tanzanite + Gold zone)"}}, {"type": "Feature", "geometry": {"type": "Point", "coordinates": [37.005094, -3.527978]}, "properties": {"rank": 456, "score": 0.846, "aoi": "Mererani / Manyara (Tanzanite + Gold zone)"}}, {"type": "Feature", "geometry": {"type": "Point", "coordinates": [36.986374, -3.529565]}, "properties": {"rank": 457, "score": 0.8459, "aoi": "Mererani / Manyara (Tanzanite + Gold zone)"}}, {"type": "Feature", "geometry": {"type": "Point", "coordinates": [36.98406, -3.517806]}, "properties": {"rank": 458, "score": 0.8459, "aoi": "Mererani / Manyara (Tanzanite + Gold zone)"}}, {"type": "Feature", "geometry": {"type": "Point", "coordinates": [36.996799, -3.535555]}, "properties": {"rank": 459, "score": 0.8459, "aoi": "Mererani / Manyara (Tanzanite + Gold zone)"}}, {"type": "Feature", "geometry": {"type": "Point", "coordinates": [36.996646, -3.523077]}, "properties": {"rank": 460, "score": 0.8459, "aoi": "Mererani / Manyara (Tanzanite + Gold zone)"}}, {"type": "Feature", "geometry": {"type": "Point", "coordinates": [36.994292, -3.529582]}, "properties": {"rank": 461, "score": 0.8458, "aoi": "Mererani / Manyara (Tanzanite + Gold zone)"}}, {"type": "Feature", "geometry": {"type": "Point", "coordinates": [37.00331, -3.52056]}, "properties": {"rank": 462, "score": 0.8458, "aoi": "Mererani / Manyara (Tanzanite + Gold zone)"}}, {"type": "Feature", "geometry": {"type": "Point", "coordinates": [36.979546, -3.524849]}, "properties": {"rank": 463, "score": 0.8458, "aoi": "Mererani / Manyara (Tanzanite + Gold zone)"}}, {"type": "Feature", "geometry": {"type": "Point", "coordinates": [36.997364, -3.523802]}, "properties": {"rank": 464, "score": 0.8458, "aoi": "Mererani / Manyara (Tanzanite + Gold zone)"}}, {"type": "Feature", "geometry": {"type": "Point", "coordinates": [36.991397, -3.53699]}, "properties": {"rank": 465, "score": 0.8455, "aoi": "Mererani / Manyara (Tanzanite + Gold zone)"}}, {"type": "Feature", "geometry": {"type": "Point", "coordinates": [37.000468, -3.502833]}, "properties": {"rank": 466, "score": 0.8455, "aoi": "Mererani / Manyara (Tanzanite + Gold zone)"}}, {"type": "Feature", "geometry": {"type": "Point", "coordinates": [36.996097, -3.527235]}, "properties": {"rank": 467, "score": 0.8454, "aoi": "Mererani / Manyara (Tanzanite + Gold zone)"}}, {"type": "Feature", "geometry": {"type": "Point", "coordinates": [36.979902, -3.526477]}, "properties": {"rank": 468, "score": 0.8454, "aoi": "Mererani / Manyara (Tanzanite + Gold zone)"}}, {"type": "Feature", "geometry": {"type": "Point", "coordinates": [37.00349, -3.520199]}, "properties": {"rank": 469, "score": 0.8454, "aoi": "Mererani / Manyara (Tanzanite + Gold zone)"}}, {"type": "Feature", "geometry": {"type": "Point", "coordinates": [37.005501, -3.505556]}, "properties": {"rank": 470, "score": 0.8453, "aoi": "Mererani / Manyara (Tanzanite + Gold zone)"}}, {"type": "Feature", "geometry": {"type": "Point", "coordinates": [36.983554, -3.502073]}, "properties": {"rank": 471, "score": 0.8453, "aoi": "Mererani / Manyara (Tanzanite + Gold zone)"}}, {"type": "Feature", "geometry": {"type": "Point", "coordinates": [36.993042, -3.689251]}, "properties": {"rank": 472, "score": 0.8453, "aoi": "Mererani / Manyara (Tanzanite + Gold zone)"}}, {"type": "Feature", "geometry": {"type": "Point", "coordinates": [37.000064, -3.523446]}, "properties": {"rank": 473, "score": 0.8453, "aoi": "Mererani / Manyara (Tanzanite + Gold zone)"}}, {"type": "Feature", "geometry": {"type": "Point", "coordinates": [36.994834, -3.528679]}, "properties": {"rank": 474, "score": 0.8452, "aoi": "Mererani / Manyara (Tanzanite + Gold zone)"}}, {"type": "Feature", "geometry": {"type": "Point", "coordinates": [36.999021, -3.506446]}, "properties": {"rank": 475, "score": 0.8451, "aoi": "Mererani / Manyara (Tanzanite + Gold zone)"}}, {"type": "Feature", "geometry": {"type": "Point", "coordinates": [37.006036, -3.507908]}, "properties": {"rank": 476, "score": 0.8451, "aoi": "Mererani / Manyara (Tanzanite + Gold zone)"}}, {"type": "Feature", "geometry": {"type": "Point", "coordinates": [36.996799, -3.535374]}, "properties": {"rank": 477, "score": 0.8451, "aoi": "Mererani / Manyara (Tanzanite + Gold zone)"}}, {"type": "Feature", "geometry": {"type": "Point", "coordinates": [37.000965, -3.523087]}, "properties": {"rank": 478, "score": 0.8451, "aoi": "Mererani / Manyara (Tanzanite + Gold zone)"}}, {"type": "Feature", "geometry": {"type": "Point", "coordinates": [36.992656, -3.537173]}, "properties": {"rank": 479, "score": 0.845, "aoi": "Mererani / Manyara (Tanzanite + Gold zone)"}}, {"type": "Feature", "geometry": {"type": "Point", "coordinates": [36.996439, -3.535554]}, "properties": {"rank": 480, "score": 0.845, "aoi": "Mererani / Manyara (Tanzanite + Gold zone)"}}, {"type": "Feature", "geometry": {"type": "Point", "coordinates": [37.004746, -3.52201]}, "properties": {"rank": 481, "score": 0.845, "aoi": "Mererani / Manyara (Tanzanite + Gold zone)"}}, {"type": "Feature", "geometry": {"type": "Point", "coordinates": [37.001144, -3.52363]}, "properties": {"rank": 482, "score": 0.8449, "aoi": "Mererani / Manyara (Tanzanite + Gold zone)"}}, {"type": "Feature", "geometry": {"type": "Point", "coordinates": [36.979721, -3.527019]}, "properties": {"rank": 483, "score": 0.8449, "aoi": "Mererani / Manyara (Tanzanite + Gold zone)"}}, {"type": "Feature", "geometry": {"type": "Point", "coordinates": [36.983137, -3.528654]}, "properties": {"rank": 484, "score": 0.8449, "aoi": "Mererani / Manyara (Tanzanite + Gold zone)"}}, {"type": "Feature", "geometry": {"type": "Point", "coordinates": [36.998239, -3.535377]}, "properties": {"rank": 485, "score": 0.8449, "aoi": "Mererani / Manyara (Tanzanite + Gold zone)"}}, {"type": "Feature", "geometry": {"type": "Point", "coordinates": [36.996086, -3.532479]}, "properties": {"rank": 486, "score": 0.8449, "aoi": "Mererani / Manyara (Tanzanite + Gold zone)"}}, {"type": "Feature", "geometry": {"type": "Point", "coordinates": [36.997337, -3.53646]}, "properties": {"rank": 487, "score": 0.8449, "aoi": "Mererani / Manyara (Tanzanite + Gold zone)"}}, {"type": "Feature", "geometry": {"type": "Point", "coordinates": [37.034665, -3.500916]}, "properties": {"rank": 488, "score": 0.8449, "aoi": "Mererani / Manyara (Tanzanite + Gold zone)"}}, {"type": "Feature", "geometry": {"type": "Point", "coordinates": [37.000107, -3.503375]}, "properties": {"rank": 489, "score": 0.8448, "aoi": "Mererani / Manyara (Tanzanite + Gold zone)"}}, {"type": "Feature", "geometry": {"type": "Point", "coordinates": [36.974674, -3.530805]}, "properties": {"rank": 490, "score": 0.8448, "aoi": "Mererani / Manyara (Tanzanite + Gold zone)"}}, {"type": "Feature", "geometry": {"type": "Point", "coordinates": [36.979531, -3.531539]}, "properties": {"rank": 491, "score": 0.8448, "aoi": "Mererani / Manyara (Tanzanite + Gold zone)"}}, {"type": "Feature", "geometry": {"type": "Point", "coordinates": [36.985516, -3.510215]}, "properties": {"rank": 492, "score": 0.8447, "aoi": "Mererani / Manyara (Tanzanite + Gold zone)"}}, {"type": "Feature", "geometry": {"type": "Point", "coordinates": [37.000649, -3.502291]}, "properties": {"rank": 493, "score": 0.8446, "aoi": "Mererani / Manyara (Tanzanite + Gold zone)"}}, {"type": "Feature", "geometry": {"type": "Point", "coordinates": [36.996857, -3.508431]}, "properties": {"rank": 494, "score": 0.8446, "aoi": "Mererani / Manyara (Tanzanite + Gold zone)"}}, {"type": "Feature", "geometry": {"type": "Point", "coordinates": [36.997218, -3.50807]}, "properties": {"rank": 495, "score": 0.8446, "aoi": "Mererani / Manyara (Tanzanite + Gold zone)"}}, {"type": "Feature", "geometry": {"type": "Point", "coordinates": [36.986913, -3.530109]}, "properties": {"rank": 496, "score": 0.8446, "aoi": "Mererani / Manyara (Tanzanite + Gold zone)"}}, {"type": "Feature", "geometry": {"type": "Point", "coordinates": [36.987687, -3.504614]}, "properties": {"rank": 497, "score": 0.8445, "aoi": "Mererani / Manyara (Tanzanite + Gold zone)"}}, {"type": "Feature", "geometry": {"type": "Point", "coordinates": [37.000964, -3.523629]}, "properties": {"rank": 498, "score": 0.8445, "aoi": "Mererani / Manyara (Tanzanite + Gold zone)"}}, {"type": "Feature", "geometry": {"type": "Point", "coordinates": [36.993929, -3.531209]}, "properties": {"rank": 499, "score": 0.8444, "aoi": "Mererani / Manyara (Tanzanite + Gold zone)"}}, {"type": "Feature", "geometry": {"type": "Point", "coordinates": [37.005467, -3.521469]}, "properties": {"rank": 500, "score": 0.8444, "aoi": "Mererani / Manyara (Tanzanite + Gold zone)"}}]}