{"type": "FeatureCollection", "features": [{"type": "Feature", "geometry": {"type": "Point", "coordinates": [38.004331, -5.400541]}, "properties": {"rank": 1, "score": 0.9315, "aoi": "Handeni / Tanga (Greenstone gold belt)"}}, {"type": "Feature", "geometry": {"type": "Point", "coordinates": [38.004512, -5.400361]}, "properties": {"rank": 2, "score": 0.9147, "aoi": "Handeni / Tanga (Greenstone gold belt)"}}, {"type": "Feature", "geometry": {"type": "Point", "coordinates": [38.055358, -5.319577]}, "properties": {"rank": 3, "score": 0.9061, "aoi": "Handeni / Tanga (Greenstone gold belt)"}}, {"type": "Feature", "geometry": {"type": "Point", "coordinates": [38.004331, -5.40036]}, "properties": {"rank": 4, "score": 0.9042, "aoi": "Handeni / Tanga (Greenstone gold belt)"}}, {"type": "Feature", "geometry": {"type": "Point", "coordinates": [37.888504, -5.469081]}, "properties": {"rank": 5, "score": 0.8931, "aoi": "Handeni / Tanga (Greenstone gold belt)"}}, {"type": "Feature", "geometry": {"type": "Point", "coordinates": [37.888324, -5.469081]}, "properties": {"rank": 6, "score": 0.8893, "aoi": "Handeni / Tanga (Greenstone gold belt)"}}, {"type": "Feature", "geometry": {"type": "Point", "coordinates": [37.888866, -5.46872]}, "properties": {"rank": 7, "score": 0.8892, "aoi": "Handeni / Tanga (Greenstone gold belt)"}}, {"type": "Feature", "geometry": {"type": "Point", "coordinates": [37.888325, -5.468538]}, "properties": {"rank": 8, "score": 0.8891, "aoi": "Handeni / Tanga (Greenstone gold belt)"}}, {"type": "Feature", "geometry": {"type": "Point", "coordinates": [38.004331, -5.400722]}, "properties": {"rank": 9, "score": 0.8875, "aoi": "Handeni / Tanga (Greenstone gold belt)"}}, {"type": "Feature", "geometry": {"type": "Point", "coordinates": [37.888685, -5.468719]}, "properties": {"rank": 10, "score": 0.8875, "aoi": "Handeni / Tanga (Greenstone gold belt)"}}, {"type": "Feature", "geometry": {"type": "Point", "coordinates": [37.888325, -5.468357]}, "properties": {"rank": 11, "score": 0.8861, "aoi": "Handeni / Tanga (Greenstone gold belt)"}}, {"type": "Feature", "geometry": {"type": "Point", "coordinates": [38.097441, -5.421672]}, "properties": {"rank": 12, "score": 0.8851, "aoi": "Handeni / Tanga (Greenstone gold belt)"}}, {"type": "Feature", "geometry": {"type": "Point", "coordinates": [37.889046, -5.46872]}, "properties": {"rank": 13, "score": 0.8847, "aoi": "Handeni / Tanga (Greenstone gold belt)"}}, {"type": "Feature", "geometry": {"type": "Point", "coordinates": [38.074701, -5.53597]}, "properties": {"rank": 14, "score": 0.8843, "aoi": "Handeni / Tanga (Greenstone gold belt)"}}, {"type": "Feature", "geometry": {"type": "Point", "coordinates": [38.055539, -5.319396]}, "properties": {"rank": 15, "score": 0.8841, "aoi": "Handeni / Tanga (Greenstone gold belt)"}}, {"type": "Feature", "geometry": {"type": "Point", "coordinates": [38.004511, -5.400541]}, "properties": {"rank": 16, "score": 0.8827, "aoi": "Handeni / Tanga (Greenstone gold belt)"}}, {"type": "Feature", "geometry": {"type": "Point", "coordinates": [37.828378, -5.476564]}, "properties": {"rank": 17, "score": 0.88, "aoi": "Handeni / Tanga (Greenstone gold belt)"}}, {"type": "Feature", "geometry": {"type": "Point", "coordinates": [37.888866, -5.468901]}, "properties": {"rank": 18, "score": 0.8797, "aoi": "Handeni / Tanga (Greenstone gold belt)"}}, {"type": "Feature", "geometry": {"type": "Point", "coordinates": [38.024062, -5.477457]}, "properties": {"rank": 19, "score": 0.8787, "aoi": "Handeni / Tanga (Greenstone gold belt)"}}, {"type": "Feature", "geometry": {"type": "Point", "coordinates": [38.054275, -5.319394]}, "properties": {"rank": 20, "score": 0.8782, "aoi": "Handeni / Tanga (Greenstone gold belt)"}}, {"type": "Feature", "geometry": {"type": "Point", "coordinates": [37.888686, -5.468538]}, "properties": {"rank": 21, "score": 0.8781, "aoi": "Handeni / Tanga (Greenstone gold belt)"}}, {"type": "Feature", "geometry": {"type": "Point", "coordinates": [37.866102, -5.573596]}, "properties": {"rank": 22, "score": 0.8776, "aoi": "Handeni / Tanga (Greenstone gold belt)"}}, {"type": "Feature", "geometry": {"type": "Point", "coordinates": [37.888866, -5.468539]}, "properties": {"rank": 23, "score": 0.8775, "aoi": "Handeni / Tanga (Greenstone gold belt)"}}, {"type": "Feature", "geometry": {"type": "Point", "coordinates": [37.888325, -5.468176]}, "properties": {"rank": 24, "score": 0.8775, "aoi": "Handeni / Tanga (Greenstone gold belt)"}}, {"type": "Feature", "geometry": {"type": "Point", "coordinates": [38.072143, -5.319783]}, "properties": {"rank": 25, "score": 0.8774, "aoi": "Handeni / Tanga (Greenstone gold belt)"}}, {"type": "Feature", "geometry": {"type": "Point", "coordinates": [37.865198, -5.574137]}, "properties": {"rank": 26, "score": 0.8766, "aoi": "Handeni / Tanga (Greenstone gold belt)"}}, {"type": "Feature", "geometry": {"type": "Point", "coordinates": [37.950412, -5.57737]}, "properties": {"rank": 27, "score": 0.8762, "aoi": "Handeni / Tanga (Greenstone gold belt)"}}, {"type": "Feature", "geometry": {"type": "Point", "coordinates": [37.888865, -5.469082]}, "properties": {"rank": 28, "score": 0.8758, "aoi": "Handeni / Tanga (Greenstone gold belt)"}}, {"type": "Feature", "geometry": {"type": "Point", "coordinates": [37.888505, -5.4689]}, "properties": {"rank": 29, "score": 0.8751, "aoi": "Handeni / Tanga (Greenstone gold belt)"}}, {"type": "Feature", "geometry": {"type": "Point", "coordinates": [37.888505, -5.468538]}, "properties": {"rank": 30, "score": 0.8746, "aoi": "Handeni / Tanga (Greenstone gold belt)"}}, {"type": "Feature", "geometry": {"type": "Point", "coordinates": [37.888506, -5.468357]}, "properties": {"rank": 31, "score": 0.8743, "aoi": "Handeni / Tanga (Greenstone gold belt)"}}, {"type": "Feature", "geometry": {"type": "Point", "coordinates": [37.842535, -5.436252]}, "properties": {"rank": 32, "score": 0.8736, "aoi": "Handeni / Tanga (Greenstone gold belt)"}}, {"type": "Feature", "geometry": {"type": "Point", "coordinates": [37.888685, -5.4689]}, "properties": {"rank": 33, "score": 0.8735, "aoi": "Handeni / Tanga (Greenstone gold belt)"}}, {"type": "Feature", "geometry": {"type": "Point", "coordinates": [37.950412, -5.577551]}, "properties": {"rank": 34, "score": 0.8734, "aoi": "Handeni / Tanga (Greenstone gold belt)"}}, {"type": "Feature", "geometry": {"type": "Point", "coordinates": [37.889046, -5.468901]}, "properties": {"rank": 35, "score": 0.8727, "aoi": "Handeni / Tanga (Greenstone gold belt)"}}, {"type": "Feature", "geometry": {"type": "Point", "coordinates": [37.888685, -5.469081]}, "properties": {"rank": 36, "score": 0.8727, "aoi": "Handeni / Tanga (Greenstone gold belt)"}}, {"type": "Feature", "geometry": {"type": "Point", "coordinates": [38.023882, -5.477638]}, "properties": {"rank": 37, "score": 0.8726, "aoi": "Handeni / Tanga (Greenstone gold belt)"}}, {"type": "Feature", "geometry": {"type": "Point", "coordinates": [38.076671, -5.429058]}, "properties": {"rank": 38, "score": 0.8718, "aoi": "Handeni / Tanga (Greenstone gold belt)"}}, {"type": "Feature", "geometry": {"type": "Point", "coordinates": [37.808565, -5.454275]}, "properties": {"rank": 39, "score": 0.8707, "aoi": "Handeni / Tanga (Greenstone gold belt)"}}, {"type": "Feature", "geometry": {"type": "Point", "coordinates": [38.092359, -5.318366]}, "properties": {"rank": 40, "score": 0.8706, "aoi": "Handeni / Tanga (Greenstone gold belt)"}}, {"type": "Feature", "geometry": {"type": "Point", "coordinates": [37.981767, -5.401227]}, "properties": {"rank": 41, "score": 0.8705, "aoi": "Handeni / Tanga (Greenstone gold belt)"}}, {"type": "Feature", "geometry": {"type": "Point", "coordinates": [38.081711, -5.317627]}, "properties": {"rank": 42, "score": 0.8696, "aoi": "Handeni / Tanga (Greenstone gold belt)"}}, {"type": "Feature", "geometry": {"type": "Point", "coordinates": [38.08135, -5.317626]}, "properties": {"rank": 43, "score": 0.8694, "aoi": "Handeni / Tanga (Greenstone gold belt)"}}, {"type": "Feature", "geometry": {"type": "Point", "coordinates": [37.888506, -5.468176]}, "properties": {"rank": 44, "score": 0.8679, "aoi": "Handeni / Tanga (Greenstone gold belt)"}}, {"type": "Feature", "geometry": {"type": "Point", "coordinates": [38.00415, -5.400541]}, "properties": {"rank": 45, "score": 0.8664, "aoi": "Handeni / Tanga (Greenstone gold belt)"}}, {"type": "Feature", "geometry": {"type": "Point", "coordinates": [37.876844, -5.429443]}, "properties": {"rank": 46, "score": 0.866, "aoi": "Handeni / Tanga (Greenstone gold belt)"}}, {"type": "Feature", "geometry": {"type": "Point", "coordinates": [37.978472, -5.534546]}, "properties": {"rank": 47, "score": 0.8657, "aoi": "Handeni / Tanga (Greenstone gold belt)"}}, {"type": "Feature", "geometry": {"type": "Point", "coordinates": [37.877208, -5.427816]}, "properties": {"rank": 48, "score": 0.8651, "aoi": "Handeni / Tanga (Greenstone gold belt)"}}, {"type": "Feature", "geometry": {"type": "Point", "coordinates": [38.054456, -5.319394]}, "properties": {"rank": 49, "score": 0.8645, "aoi": "Handeni / Tanga (Greenstone gold belt)"}}, {"type": "Feature", "geometry": {"type": "Point", "coordinates": [38.08933, -5.4137]}, "properties": {"rank": 50, "score": 0.8637, "aoi": "Handeni / Tanga (Greenstone gold belt)"}}, {"type": "Feature", "geometry": {"type": "Point", "coordinates": [38.024062, -5.477638]}, "properties": {"rank": 51, "score": 0.8636, "aoi": "Handeni / Tanga (Greenstone gold belt)"}}, {"type": "Feature", "geometry": {"type": "Point", "coordinates": [37.889047, -5.468539]}, "properties": {"rank": 52, "score": 0.8635, "aoi": "Handeni / Tanga (Greenstone gold belt)"}}, {"type": "Feature", "geometry": {"type": "Point", "coordinates": [37.978653, -5.534546]}, "properties": {"rank": 53, "score": 0.8629, "aoi": "Handeni / Tanga (Greenstone gold belt)"}}, {"type": "Feature", "geometry": {"type": "Point", "coordinates": [38.076671, -5.428877]}, "properties": {"rank": 54, "score": 0.8625, "aoi": "Handeni / Tanga (Greenstone gold belt)"}}, {"type": "Feature", "geometry": {"type": "Point", "coordinates": [38.081711, -5.317807]}, "properties": {"rank": 55, "score": 0.8625, "aoi": "Handeni / Tanga (Greenstone gold belt)"}}, {"type": "Feature", "geometry": {"type": "Point", "coordinates": [37.928734, -5.584024]}, "properties": {"rank": 56, "score": 0.8622, "aoi": "Handeni / Tanga (Greenstone gold belt)"}}, {"type": "Feature", "geometry": {"type": "Point", "coordinates": [37.807971, -5.388972]}, "properties": {"rank": 57, "score": 0.8622, "aoi": "Handeni / Tanga (Greenstone gold belt)"}}, {"type": "Feature", "geometry": {"type": "Point", "coordinates": [37.9272, -5.533551]}, "properties": {"rank": 58, "score": 0.8619, "aoi": "Handeni / Tanga (Greenstone gold belt)"}}, {"type": "Feature", "geometry": {"type": "Point", "coordinates": [37.888324, -5.4689]}, "properties": {"rank": 59, "score": 0.8613, "aoi": "Handeni / Tanga (Greenstone gold belt)"}}, {"type": "Feature", "geometry": {"type": "Point", "coordinates": [37.888686, -5.468358]}, "properties": {"rank": 60, "score": 0.8612, "aoi": "Handeni / Tanga (Greenstone gold belt)"}}, {"type": "Feature", "geometry": {"type": "Point", "coordinates": [38.034963, -5.546942]}, "properties": {"rank": 61, "score": 0.8607, "aoi": "Handeni / Tanga (Greenstone gold belt)"}}, {"type": "Feature", "geometry": {"type": "Point", "coordinates": [38.089149, -5.4137]}, "properties": {"rank": 62, "score": 0.8601, "aoi": "Handeni / Tanga (Greenstone gold belt)"}}, {"type": "Feature", "geometry": {"type": "Point", "coordinates": [38.023882, -5.477457]}, "properties": {"rank": 63, "score": 0.8597, "aoi": "Handeni / Tanga (Greenstone gold belt)"}}, {"type": "Feature", "geometry": {"type": "Point", "coordinates": [37.888867, -5.468358]}, "properties": {"rank": 64, "score": 0.859, "aoi": "Handeni / Tanga (Greenstone gold belt)"}}, {"type": "Feature", "geometry": {"type": "Point", "coordinates": [37.978653, -5.534727]}, "properties": {"rank": 65, "score": 0.8588, "aoi": "Handeni / Tanga (Greenstone gold belt)"}}, {"type": "Feature", "geometry": {"type": "Point", "coordinates": [38.002967, -5.461684]}, "properties": {"rank": 66, "score": 0.8587, "aoi": "Handeni / Tanga (Greenstone gold belt)"}}, {"type": "Feature", "geometry": {"type": "Point", "coordinates": [37.948617, -5.46937]}, "properties": {"rank": 67, "score": 0.8584, "aoi": "Handeni / Tanga (Greenstone gold belt)"}}, {"type": "Feature", "geometry": {"type": "Point", "coordinates": [37.808204, -5.454274]}, "properties": {"rank": 68, "score": 0.8582, "aoi": "Handeni / Tanga (Greenstone gold belt)"}}, {"type": "Feature", "geometry": {"type": "Point", "coordinates": [37.991833, -5.426751]}, "properties": {"rank": 69, "score": 0.8579, "aoi": "Handeni / Tanga (Greenstone gold belt)"}}, {"type": "Feature", "geometry": {"type": "Point", "coordinates": [37.877749, -5.427998]}, "properties": {"rank": 70, "score": 0.8579, "aoi": "Handeni / Tanga (Greenstone gold belt)"}}, {"type": "Feature", "geometry": {"type": "Point", "coordinates": [37.889227, -5.468901]}, "properties": {"rank": 71, "score": 0.8579, "aoi": "Handeni / Tanga (Greenstone gold belt)"}}, {"type": "Feature", "geometry": {"type": "Point", "coordinates": [38.07667, -5.429239]}, "properties": {"rank": 72, "score": 0.8578, "aoi": "Handeni / Tanga (Greenstone gold belt)"}}, {"type": "Feature", "geometry": {"type": "Point", "coordinates": [37.877028, -5.427815]}, "properties": {"rank": 73, "score": 0.8575, "aoi": "Handeni / Tanga (Greenstone gold belt)"}}, {"type": "Feature", "geometry": {"type": "Point", "coordinates": [38.07649, -5.429058]}, "properties": {"rank": 74, "score": 0.8574, "aoi": "Handeni / Tanga (Greenstone gold belt)"}}, {"type": "Feature", "geometry": {"type": "Point", "coordinates": [37.824574, -5.483069]}, "properties": {"rank": 75, "score": 0.8574, "aoi": "Handeni / Tanga (Greenstone gold belt)"}}, {"type": "Feature", "geometry": {"type": "Point", "coordinates": [37.877389, -5.427816]}, "properties": {"rank": 76, "score": 0.8573, "aoi": "Handeni / Tanga (Greenstone gold belt)"}}, {"type": "Feature", "geometry": {"type": "Point", "coordinates": [38.099939, -5.318377]}, "properties": {"rank": 77, "score": 0.8571, "aoi": "Handeni / Tanga (Greenstone gold belt)"}}, {"type": "Feature", "geometry": {"type": "Point", "coordinates": [37.827124, -5.471496]}, "properties": {"rank": 78, "score": 0.8567, "aoi": "Handeni / Tanga (Greenstone gold belt)"}}, {"type": "Feature", "geometry": {"type": "Point", "coordinates": [37.885275, -5.359633]}, "properties": {"rank": 79, "score": 0.8565, "aoi": "Handeni / Tanga (Greenstone gold belt)"}}, {"type": "Feature", "geometry": {"type": "Point", "coordinates": [37.818093, -5.474011]}, "properties": {"rank": 80, "score": 0.8564, "aoi": "Handeni / Tanga (Greenstone gold belt)"}}, {"type": "Feature", "geometry": {"type": "Point", "coordinates": [38.022513, -5.542037]}, "properties": {"rank": 81, "score": 0.8562, "aoi": "Handeni / Tanga (Greenstone gold belt)"}}, {"type": "Feature", "geometry": {"type": "Point", "coordinates": [37.889046, -5.469082]}, "properties": {"rank": 82, "score": 0.8555, "aoi": "Handeni / Tanga (Greenstone gold belt)"}}, {"type": "Feature", "geometry": {"type": "Point", "coordinates": [37.869617, -5.433228]}, "properties": {"rank": 83, "score": 0.8554, "aoi": "Handeni / Tanga (Greenstone gold belt)"}}, {"type": "Feature", "geometry": {"type": "Point", "coordinates": [38.053914, -5.319575]}, "properties": {"rank": 84, "score": 0.8552, "aoi": "Handeni / Tanga (Greenstone gold belt)"}}, {"type": "Feature", "geometry": {"type": "Point", "coordinates": [37.877569, -5.427997]}, "properties": {"rank": 85, "score": 0.8549, "aoi": "Handeni / Tanga (Greenstone gold belt)"}}, {"type": "Feature", "geometry": {"type": "Point", "coordinates": [37.857211, -5.407337]}, "properties": {"rank": 86, "score": 0.8546, "aoi": "Handeni / Tanga (Greenstone gold belt)"}}, {"type": "Feature", "geometry": {"type": "Point", "coordinates": [37.877569, -5.427816]}, "properties": {"rank": 87, "score": 0.8545, "aoi": "Handeni / Tanga (Greenstone gold belt)"}}, {"type": "Feature", "geometry": {"type": "Point", "coordinates": [37.910373, -5.553962]}, "properties": {"rank": 88, "score": 0.8544, "aoi": "Handeni / Tanga (Greenstone gold belt)"}}, {"type": "Feature", "geometry": {"type": "Point", "coordinates": [38.059278, -5.352508]}, "properties": {"rank": 89, "score": 0.854, "aoi": "Handeni / Tanga (Greenstone gold belt)"}}, {"type": "Feature", "geometry": {"type": "Point", "coordinates": [38.045977, -5.546236]}, "properties": {"rank": 90, "score": 0.8538, "aoi": "Handeni / Tanga (Greenstone gold belt)"}}, {"type": "Feature", "geometry": {"type": "Point", "coordinates": [37.843222, -5.454705]}, "properties": {"rank": 91, "score": 0.8537, "aoi": "Handeni / Tanga (Greenstone gold belt)"}}, {"type": "Feature", "geometry": {"type": "Point", "coordinates": [37.990154, -5.350227]}, "properties": {"rank": 92, "score": 0.8536, "aoi": "Handeni / Tanga (Greenstone gold belt)"}}, {"type": "Feature", "geometry": {"type": "Point", "coordinates": [37.836154, -5.469343]}, "properties": {"rank": 93, "score": 0.8531, "aoi": "Handeni / Tanga (Greenstone gold belt)"}}, {"type": "Feature", "geometry": {"type": "Point", "coordinates": [37.978292, -5.534546]}, "properties": {"rank": 94, "score": 0.852, "aoi": "Handeni / Tanga (Greenstone gold belt)"}}, {"type": "Feature", "geometry": {"type": "Point", "coordinates": [37.823392, -5.44128]}, "properties": {"rank": 95, "score": 0.8517, "aoi": "Handeni / Tanga (Greenstone gold belt)"}}, {"type": "Feature", "geometry": {"type": "Point", "coordinates": [37.838972, -5.411825]}, "properties": {"rank": 96, "score": 0.8514, "aoi": "Handeni / Tanga (Greenstone gold belt)"}}, {"type": "Feature", "geometry": {"type": "Point", "coordinates": [37.825848, -5.478006]}, "properties": {"rank": 97, "score": 0.8514, "aoi": "Handeni / Tanga (Greenstone gold belt)"}}, {"type": "Feature", "geometry": {"type": "Point", "coordinates": [37.843401, -5.455609]}, "properties": {"rank": 98, "score": 0.8512, "aoi": "Handeni / Tanga (Greenstone gold belt)"}}, {"type": "Feature", "geometry": {"type": "Point", "coordinates": [37.84299, -5.481476]}, "properties": {"rank": 99, "score": 0.851, "aoi": "Handeni / Tanga (Greenstone gold belt)"}}, {"type": "Feature", "geometry": {"type": "Point", "coordinates": [37.934065, -5.429366]}, "properties": {"rank": 100, "score": 0.8508, "aoi": "Handeni / Tanga (Greenstone gold belt)"}}, {"type": "Feature", "geometry": {"type": "Point", "coordinates": [38.093247, -5.328317]}, "properties": {"rank": 101, "score": 0.8507, "aoi": "Handeni / Tanga (Greenstone gold belt)"}}, {"type": "Feature", "geometry": {"type": "Point", "coordinates": [37.988245, -5.303732]}, "properties": {"rank": 102, "score": 0.8504, "aoi": "Handeni / Tanga (Greenstone gold belt)"}}, {"type": "Feature", "geometry": {"type": "Point", "coordinates": [37.978292, -5.534365]}, "properties": {"rank": 103, "score": 0.8499, "aoi": "Handeni / Tanga (Greenstone gold belt)"}}, {"type": "Feature", "geometry": {"type": "Point", "coordinates": [37.98643, -5.309879]}, "properties": {"rank": 104, "score": 0.8494, "aoi": "Handeni / Tanga (Greenstone gold belt)"}}, {"type": "Feature", "geometry": {"type": "Point", "coordinates": [37.888505, -5.468719]}, "properties": {"rank": 105, "score": 0.8493, "aoi": "Handeni / Tanga (Greenstone gold belt)"}}, {"type": "Feature", "geometry": {"type": "Point", "coordinates": [37.870825, -5.462716]}, "properties": {"rank": 106, "score": 0.8493, "aoi": "Handeni / Tanga (Greenstone gold belt)"}}, {"type": "Feature", "geometry": {"type": "Point", "coordinates": [37.842535, -5.436433]}, "properties": {"rank": 107, "score": 0.8493, "aoi": "Handeni / Tanga (Greenstone gold belt)"}}, {"type": "Feature", "geometry": {"type": "Point", "coordinates": [37.811638, -5.452111]}, "properties": {"rank": 108, "score": 0.849, "aoi": "Handeni / Tanga (Greenstone gold belt)"}}, {"type": "Feature", "geometry": {"type": "Point", "coordinates": [38.035685, -5.546582]}, "properties": {"rank": 109, "score": 0.849, "aoi": "Handeni / Tanga (Greenstone gold belt)"}}, {"type": "Feature", "geometry": {"type": "Point", "coordinates": [37.863161, -5.410604]}, "properties": {"rank": 110, "score": 0.8489, "aoi": "Handeni / Tanga (Greenstone gold belt)"}}, {"type": "Feature", "geometry": {"type": "Point", "coordinates": [37.934246, -5.429366]}, "properties": {"rank": 111, "score": 0.8487, "aoi": "Handeni / Tanga (Greenstone gold belt)"}}, {"type": "Feature", "geometry": {"type": "Point", "coordinates": [38.086782, -5.306056]}, "properties": {"rank": 112, "score": 0.8486, "aoi": "Handeni / Tanga (Greenstone gold belt)"}}, {"type": "Feature", "geometry": {"type": "Point", "coordinates": [37.899916, -5.545983]}, "properties": {"rank": 113, "score": 0.8486, "aoi": "Handeni / Tanga (Greenstone gold belt)"}}, {"type": "Feature", "geometry": {"type": "Point", "coordinates": [38.067657, -5.302228]}, "properties": {"rank": 114, "score": 0.8485, "aoi": "Handeni / Tanga (Greenstone gold belt)"}}, {"type": "Feature", "geometry": {"type": "Point", "coordinates": [37.891213, -5.468543]}, "properties": {"rank": 115, "score": 0.8483, "aoi": "Handeni / Tanga (Greenstone gold belt)"}}, {"type": "Feature", "geometry": {"type": "Point", "coordinates": [37.877028, -5.427634]}, "properties": {"rank": 116, "score": 0.848, "aoi": "Handeni / Tanga (Greenstone gold belt)"}}, {"type": "Feature", "geometry": {"type": "Point", "coordinates": [38.004511, -5.400722]}, "properties": {"rank": 117, "score": 0.848, "aoi": "Handeni / Tanga (Greenstone gold belt)"}}, {"type": "Feature", "geometry": {"type": "Point", "coordinates": [37.856697, -5.488196]}, "properties": {"rank": 118, "score": 0.8478, "aoi": "Handeni / Tanga (Greenstone gold belt)"}}, {"type": "Feature", "geometry": {"type": "Point", "coordinates": [37.910553, -5.553962]}, "properties": {"rank": 119, "score": 0.8478, "aoi": "Handeni / Tanga (Greenstone gold belt)"}}, {"type": "Feature", "geometry": {"type": "Point", "coordinates": [37.948797, -5.46937]}, "properties": {"rank": 120, "score": 0.8475, "aoi": "Handeni / Tanga (Greenstone gold belt)"}}, {"type": "Feature", "geometry": {"type": "Point", "coordinates": [37.84268, -5.455246]}, "properties": {"rank": 121, "score": 0.8474, "aoi": "Handeni / Tanga (Greenstone gold belt)"}}, {"type": "Feature", "geometry": {"type": "Point", "coordinates": [37.856156, -5.488014]}, "properties": {"rank": 122, "score": 0.847, "aoi": "Handeni / Tanga (Greenstone gold belt)"}}, {"type": "Feature", "geometry": {"type": "Point", "coordinates": [37.874492, -5.432333]}, "properties": {"rank": 123, "score": 0.8468, "aoi": "Handeni / Tanga (Greenstone gold belt)"}}, {"type": "Feature", "geometry": {"type": "Point", "coordinates": [37.938952, -5.421958]}, "properties": {"rank": 124, "score": 0.8466, "aoi": "Handeni / Tanga (Greenstone gold belt)"}}, {"type": "Feature", "geometry": {"type": "Point", "coordinates": [37.909718, -5.417564]}, "properties": {"rank": 125, "score": 0.8462, "aoi": "Handeni / Tanga (Greenstone gold belt)"}}, {"type": "Feature", "geometry": {"type": "Point", "coordinates": [37.872673, -5.440108]}, "properties": {"rank": 126, "score": 0.8462, "aoi": "Handeni / Tanga (Greenstone gold belt)"}}, {"type": "Feature", "geometry": {"type": "Point", "coordinates": [37.980273, -5.537082]}, "properties": {"rank": 127, "score": 0.8461, "aoi": "Handeni / Tanga (Greenstone gold belt)"}}, {"type": "Feature", "geometry": {"type": "Point", "coordinates": [37.967634, -5.537603]}, "properties": {"rank": 128, "score": 0.8456, "aoi": "Handeni / Tanga (Greenstone gold belt)"}}, {"type": "Feature", "geometry": {"type": "Point", "coordinates": [37.819734, -5.466055]}, "properties": {"rank": 129, "score": 0.8455, "aoi": "Handeni / Tanga (Greenstone gold belt)"}}, {"type": "Feature", "geometry": {"type": "Point", "coordinates": [37.988064, -5.303912]}, "properties": {"rank": 130, "score": 0.8453, "aoi": "Handeni / Tanga (Greenstone gold belt)"}}, {"type": "Feature", "geometry": {"type": "Point", "coordinates": [38.049225, -5.547508]}, "properties": {"rank": 131, "score": 0.8453, "aoi": "Handeni / Tanga (Greenstone gold belt)"}}, {"type": "Feature", "geometry": {"type": "Point", "coordinates": [37.984144, -5.382779]}, "properties": {"rank": 132, "score": 0.8452, "aoi": "Handeni / Tanga (Greenstone gold belt)"}}, {"type": "Feature", "geometry": {"type": "Point", "coordinates": [37.825297, -5.482889]}, "properties": {"rank": 133, "score": 0.8452, "aoi": "Handeni / Tanga (Greenstone gold belt)"}}, {"type": "Feature", "geometry": {"type": "Point", "coordinates": [38.059098, -5.352507]}, "properties": {"rank": 134, "score": 0.8452, "aoi": "Handeni / Tanga (Greenstone gold belt)"}}, {"type": "Feature", "geometry": {"type": "Point", "coordinates": [38.053914, -5.319755]}, "properties": {"rank": 135, "score": 0.8451, "aoi": "Handeni / Tanga (Greenstone gold belt)"}}, {"type": "Feature", "geometry": {"type": "Point", "coordinates": [38.077837, -5.374064]}, "properties": {"rank": 136, "score": 0.8449, "aoi": "Handeni / Tanga (Greenstone gold belt)"}}, {"type": "Feature", "geometry": {"type": "Point", "coordinates": [38.042945, -5.409648]}, "properties": {"rank": 137, "score": 0.8449, "aoi": "Handeni / Tanga (Greenstone gold belt)"}}, {"type": "Feature", "geometry": {"type": "Point", "coordinates": [38.062508, -5.365176]}, "properties": {"rank": 138, "score": 0.8448, "aoi": "Handeni / Tanga (Greenstone gold belt)"}}, {"type": "Feature", "geometry": {"type": "Point", "coordinates": [38.081531, -5.317626]}, "properties": {"rank": 139, "score": 0.8447, "aoi": "Handeni / Tanga (Greenstone gold belt)"}}, {"type": "Feature", "geometry": {"type": "Point", "coordinates": [37.928104, -5.533191]}, "properties": {"rank": 140, "score": 0.8446, "aoi": "Handeni / Tanga (Greenstone gold belt)"}}, {"type": "Feature", "geometry": {"type": "Point", "coordinates": [38.096064, -5.376081]}, "properties": {"rank": 141, "score": 0.8446, "aoi": "Handeni / Tanga (Greenstone gold belt)"}}, {"type": "Feature", "geometry": {"type": "Point", "coordinates": [38.002787, -5.461141]}, "properties": {"rank": 142, "score": 0.8443, "aoi": "Handeni / Tanga (Greenstone gold belt)"}}, {"type": "Feature", "geometry": {"type": "Point", "coordinates": [37.842391, -5.417439]}, "properties": {"rank": 143, "score": 0.8443, "aoi": "Handeni / Tanga (Greenstone gold belt)"}}, {"type": "Feature", "geometry": {"type": "Point", "coordinates": [37.842499, -5.455246]}, "properties": {"rank": 144, "score": 0.8442, "aoi": "Handeni / Tanga (Greenstone gold belt)"}}, {"type": "Feature", "geometry": {"type": "Point", "coordinates": [37.839583, -5.469893]}, "properties": {"rank": 145, "score": 0.8441, "aoi": "Handeni / Tanga (Greenstone gold belt)"}}, {"type": "Feature", "geometry": {"type": "Point", "coordinates": [37.842716, -5.436433]}, "properties": {"rank": 146, "score": 0.8441, "aoi": "Handeni / Tanga (Greenstone gold belt)"}}, {"type": "Feature", "geometry": {"type": "Point", "coordinates": [38.080649, -5.303876]}, "properties": {"rank": 147, "score": 0.844, "aoi": "Handeni / Tanga (Greenstone gold belt)"}}, {"type": "Feature", "geometry": {"type": "Point", "coordinates": [37.847287, -5.405509]}, "properties": {"rank": 148, "score": 0.844, "aoi": "Handeni / Tanga (Greenstone gold belt)"}}, {"type": "Feature", "geometry": {"type": "Point", "coordinates": [37.986611, -5.309699]}, "properties": {"rank": 149, "score": 0.8438, "aoi": "Handeni / Tanga (Greenstone gold belt)"}}, {"type": "Feature", "geometry": {"type": "Point", "coordinates": [37.856307, -5.408059]}, "properties": {"rank": 150, "score": 0.843, "aoi": "Handeni / Tanga (Greenstone gold belt)"}}, {"type": "Feature", "geometry": {"type": "Point", "coordinates": [38.032205, -5.352285]}, "properties": {"rank": 151, "score": 0.8429, "aoi": "Handeni / Tanga (Greenstone gold belt)"}}, {"type": "Feature", "geometry": {"type": "Point", "coordinates": [37.927854, -5.571179]}, "properties": {"rank": 152, "score": 0.8425, "aoi": "Handeni / Tanga (Greenstone gold belt)"}}, {"type": "Feature", "geometry": {"type": "Point", "coordinates": [38.004692, -5.400723]}, "properties": {"rank": 153, "score": 0.8425, "aoi": "Handeni / Tanga (Greenstone gold belt)"}}, {"type": "Feature", "geometry": {"type": "Point", "coordinates": [37.986791, -5.309699]}, "properties": {"rank": 154, "score": 0.8423, "aoi": "Handeni / Tanga (Greenstone gold belt)"}}, {"type": "Feature", "geometry": {"type": "Point", "coordinates": [37.847106, -5.405509]}, "properties": {"rank": 155, "score": 0.8423, "aoi": "Handeni / Tanga (Greenstone gold belt)"}}, {"type": "Feature", "geometry": {"type": "Point", "coordinates": [38.092178, -5.318366]}, "properties": {"rank": 156, "score": 0.8419, "aoi": "Handeni / Tanga (Greenstone gold belt)"}}, {"type": "Feature", "geometry": {"type": "Point", "coordinates": [37.855794, -5.488194]}, "properties": {"rank": 157, "score": 0.8419, "aoi": "Handeni / Tanga (Greenstone gold belt)"}}, {"type": "Feature", "geometry": {"type": "Point", "coordinates": [37.884036, -5.541973]}, "properties": {"rank": 158, "score": 0.8416, "aoi": "Handeni / Tanga (Greenstone gold belt)"}}, {"type": "Feature", "geometry": {"type": "Point", "coordinates": [37.892363, -5.53005]}, "properties": {"rank": 159, "score": 0.8415, "aoi": "Handeni / Tanga (Greenstone gold belt)"}}, {"type": "Feature", "geometry": {"type": "Point", "coordinates": [38.01286, -5.592131]}, "properties": {"rank": 160, "score": 0.8412, "aoi": "Handeni / Tanga (Greenstone gold belt)"}}, {"type": "Feature", "geometry": {"type": "Point", "coordinates": [37.93864, -5.393918]}, "properties": {"rank": 161, "score": 0.8412, "aoi": "Handeni / Tanga (Greenstone gold belt)"}}, {"type": "Feature", "geometry": {"type": "Point", "coordinates": [37.900097, -5.545802]}, "properties": {"rank": 162, "score": 0.841, "aoi": "Handeni / Tanga (Greenstone gold belt)"}}, {"type": "Feature", "geometry": {"type": "Point", "coordinates": [37.870691, -5.438115]}, "properties": {"rank": 163, "score": 0.8407, "aoi": "Handeni / Tanga (Greenstone gold belt)"}}, {"type": "Feature", "geometry": {"type": "Point", "coordinates": [38.082674, -5.398494]}, "properties": {"rank": 164, "score": 0.8407, "aoi": "Handeni / Tanga (Greenstone gold belt)"}}, {"type": "Feature", "geometry": {"type": "Point", "coordinates": [38.08135, -5.317807]}, "properties": {"rank": 165, "score": 0.8405, "aoi": "Handeni / Tanga (Greenstone gold belt)"}}, {"type": "Feature", "geometry": {"type": "Point", "coordinates": [37.813084, -5.45139]}, "properties": {"rank": 166, "score": 0.8404, "aoi": "Handeni / Tanga (Greenstone gold belt)"}}, {"type": "Feature", "geometry": {"type": "Point", "coordinates": [37.807972, -5.388791]}, "properties": {"rank": 167, "score": 0.8402, "aoi": "Handeni / Tanga (Greenstone gold belt)"}}, {"type": "Feature", "geometry": {"type": "Point", "coordinates": [37.857573, -5.406614]}, "properties": {"rank": 168, "score": 0.84, "aoi": "Handeni / Tanga (Greenstone gold belt)"}}, {"type": "Feature", "geometry": {"type": "Point", "coordinates": [37.988064, -5.303731]}, "properties": {"rank": 169, "score": 0.8399, "aoi": "Handeni / Tanga (Greenstone gold belt)"}}, {"type": "Feature", "geometry": {"type": "Point", "coordinates": [38.087307, -5.317273]}, "properties": {"rank": 170, "score": 0.8397, "aoi": "Handeni / Tanga (Greenstone gold belt)"}}, {"type": "Feature", "geometry": {"type": "Point", "coordinates": [37.841814, -5.43607]}, "properties": {"rank": 171, "score": 0.8397, "aoi": "Handeni / Tanga (Greenstone gold belt)"}}, {"type": "Feature", "geometry": {"type": "Point", "coordinates": [38.004872, -5.400723]}, "properties": {"rank": 172, "score": 0.8394, "aoi": "Handeni / Tanga (Greenstone gold belt)"}}, {"type": "Feature", "geometry": {"type": "Point", "coordinates": [37.876848, -5.427634]}, "properties": {"rank": 173, "score": 0.8393, "aoi": "Handeni / Tanga (Greenstone gold belt)"}}, {"type": "Feature", "geometry": {"type": "Point", "coordinates": [37.886414, -5.525336]}, "properties": {"rank": 174, "score": 0.8393, "aoi": "Handeni / Tanga (Greenstone gold belt)"}}, {"type": "Feature", "geometry": {"type": "Point", "coordinates": [37.934065, -5.429547]}, "properties": {"rank": 175, "score": 0.8392, "aoi": "Handeni / Tanga (Greenstone gold belt)"}}, {"type": "Feature", "geometry": {"type": "Point", "coordinates": [37.817913, -5.474011]}, "properties": {"rank": 176, "score": 0.8392, "aoi": "Handeni / Tanga (Greenstone gold belt)"}}, {"type": "Feature", "geometry": {"type": "Point", "coordinates": [38.06343, -5.584616]}, "properties": {"rank": 177, "score": 0.839, "aoi": "Handeni / Tanga (Greenstone gold belt)"}}, {"type": "Feature", "geometry": {"type": "Point", "coordinates": [38.054094, -5.319756]}, "properties": {"rank": 178, "score": 0.8387, "aoi": "Handeni / Tanga (Greenstone gold belt)"}}, {"type": "Feature", "geometry": {"type": "Point", "coordinates": [37.821976, -5.426806]}, "properties": {"rank": 179, "score": 0.8387, "aoi": "Handeni / Tanga (Greenstone gold belt)"}}, {"type": "Feature", "geometry": {"type": "Point", "coordinates": [38.055811, -5.493247]}, "properties": {"rank": 180, "score": 0.8384, "aoi": "Handeni / Tanga (Greenstone gold belt)"}}, {"type": "Feature", "geometry": {"type": "Point", "coordinates": [37.877921, -5.432701]}, "properties": {"rank": 181, "score": 0.8384, "aoi": "Handeni / Tanga (Greenstone gold belt)"}}, {"type": "Feature", "geometry": {"type": "Point", "coordinates": [37.842535, -5.436614]}, "properties": {"rank": 182, "score": 0.8384, "aoi": "Handeni / Tanga (Greenstone gold belt)"}}, {"type": "Feature", "geometry": {"type": "Point", "coordinates": [38.029604, -5.511295]}, "properties": {"rank": 183, "score": 0.8381, "aoi": "Handeni / Tanga (Greenstone gold belt)"}}, {"type": "Feature", "geometry": {"type": "Point", "coordinates": [38.092539, -5.318366]}, "properties": {"rank": 184, "score": 0.838, "aoi": "Handeni / Tanga (Greenstone gold belt)"}}, {"type": "Feature", "geometry": {"type": "Point", "coordinates": [37.94681, -5.470091]}, "properties": {"rank": 185, "score": 0.8378, "aoi": "Handeni / Tanga (Greenstone gold belt)"}}, {"type": "Feature", "geometry": {"type": "Point", "coordinates": [37.893826, -5.519923]}, "properties": {"rank": 186, "score": 0.8378, "aoi": "Handeni / Tanga (Greenstone gold belt)"}}, {"type": "Feature", "geometry": {"type": "Point", "coordinates": [37.825839, -5.482709]}, "properties": {"rank": 187, "score": 0.8376, "aoi": "Handeni / Tanga (Greenstone gold belt)"}}, {"type": "Feature", "geometry": {"type": "Point", "coordinates": [37.877922, -5.43252]}, "properties": {"rank": 188, "score": 0.8376, "aoi": "Handeni / Tanga (Greenstone gold belt)"}}, {"type": "Feature", "geometry": {"type": "Point", "coordinates": [37.808152, -5.388973]}, "properties": {"rank": 189, "score": 0.8375, "aoi": "Handeni / Tanga (Greenstone gold belt)"}}, {"type": "Feature", "geometry": {"type": "Point", "coordinates": [37.971912, -5.56981]}, "properties": {"rank": 190, "score": 0.8374, "aoi": "Handeni / Tanga (Greenstone gold belt)"}}, {"type": "Feature", "geometry": {"type": "Point", "coordinates": [37.861124, -5.437916]}, "properties": {"rank": 191, "score": 0.8374, "aoi": "Handeni / Tanga (Greenstone gold belt)"}}, {"type": "Feature", "geometry": {"type": "Point", "coordinates": [37.889838, -5.528598]}, "properties": {"rank": 192, "score": 0.8373, "aoi": "Handeni / Tanga (Greenstone gold belt)"}}, {"type": "Feature", "geometry": {"type": "Point", "coordinates": [38.09272, -5.318547]}, "properties": {"rank": 193, "score": 0.8373, "aoi": "Handeni / Tanga (Greenstone gold belt)"}}, {"type": "Feature", "geometry": {"type": "Point", "coordinates": [38.054274, -5.320299]}, "properties": {"rank": 194, "score": 0.8372, "aoi": "Handeni / Tanga (Greenstone gold belt)"}}, {"type": "Feature", "geometry": {"type": "Point", "coordinates": [37.854153, -5.496693]}, "properties": {"rank": 195, "score": 0.8372, "aoi": "Handeni / Tanga (Greenstone gold belt)"}}, {"type": "Feature", "geometry": {"type": "Point", "coordinates": [38.002967, -5.461503]}, "properties": {"rank": 196, "score": 0.8372, "aoi": "Handeni / Tanga (Greenstone gold belt)"}}, {"type": "Feature", "geometry": {"type": "Point", "coordinates": [38.08117, -5.317807]}, "properties": {"rank": 197, "score": 0.8371, "aoi": "Handeni / Tanga (Greenstone gold belt)"}}, {"type": "Feature", "geometry": {"type": "Point", "coordinates": [37.964324, -5.572511]}, "properties": {"rank": 198, "score": 0.8366, "aoi": "Handeni / Tanga (Greenstone gold belt)"}}, {"type": "Feature", "geometry": {"type": "Point", "coordinates": [37.978472, -5.534727]}, "properties": {"rank": 199, "score": 0.8365, "aoi": "Handeni / Tanga (Greenstone gold belt)"}}, {"type": "Feature", "geometry": {"type": "Point", "coordinates": [37.86851, -5.446251]}, "properties": {"rank": 200, "score": 0.8364, "aoi": "Handeni / Tanga (Greenstone gold belt)"}}, {"type": "Feature", "geometry": {"type": "Point", "coordinates": [37.87069, -5.438476]}, "properties": {"rank": 201, "score": 0.8363, "aoi": "Handeni / Tanga (Greenstone gold belt)"}}, {"type": "Feature", "geometry": {"type": "Point", "coordinates": [37.946811, -5.46991]}, "properties": {"rank": 202, "score": 0.8363, "aoi": "Handeni / Tanga (Greenstone gold belt)"}}, {"type": "Feature", "geometry": {"type": "Point", "coordinates": [37.978291, -5.534727]}, "properties": {"rank": 203, "score": 0.8362, "aoi": "Handeni / Tanga (Greenstone gold belt)"}}, {"type": "Feature", "geometry": {"type": "Point", "coordinates": [38.081531, -5.317807]}, "properties": {"rank": 204, "score": 0.836, "aoi": "Handeni / Tanga (Greenstone gold belt)"}}, {"type": "Feature", "geometry": {"type": "Point", "coordinates": [38.053551, -5.321202]}, "properties": {"rank": 205, "score": 0.8359, "aoi": "Handeni / Tanga (Greenstone gold belt)"}}, {"type": "Feature", "geometry": {"type": "Point", "coordinates": [38.068374, -5.305305]}, "properties": {"rank": 206, "score": 0.8358, "aoi": "Handeni / Tanga (Greenstone gold belt)"}}, {"type": "Feature", "geometry": {"type": "Point", "coordinates": [37.916395, -5.418119]}, "properties": {"rank": 207, "score": 0.8358, "aoi": "Handeni / Tanga (Greenstone gold belt)"}}, {"type": "Feature", "geometry": {"type": "Point", "coordinates": [37.888323, -5.469261]}, "properties": {"rank": 208, "score": 0.8357, "aoi": "Handeni / Tanga (Greenstone gold belt)"}}, {"type": "Feature", "geometry": {"type": "Point", "coordinates": [38.098494, -5.319099]}, "properties": {"rank": 209, "score": 0.8357, "aoi": "Handeni / Tanga (Greenstone gold belt)"}}, {"type": "Feature", "geometry": {"type": "Point", "coordinates": [38.047877, -5.599968]}, "properties": {"rank": 210, "score": 0.8357, "aoi": "Handeni / Tanga (Greenstone gold belt)"}}, {"type": "Feature", "geometry": {"type": "Point", "coordinates": [38.096148, -5.318733]}, "properties": {"rank": 211, "score": 0.8356, "aoi": "Handeni / Tanga (Greenstone gold belt)"}}, {"type": "Feature", "geometry": {"type": "Point", "coordinates": [38.082538, -5.368644]}, "properties": {"rank": 212, "score": 0.8355, "aoi": "Handeni / Tanga (Greenstone gold belt)"}}, {"type": "Feature", "geometry": {"type": "Point", "coordinates": [37.877025, -5.429262]}, "properties": {"rank": 213, "score": 0.8355, "aoi": "Handeni / Tanga (Greenstone gold belt)"}}, {"type": "Feature", "geometry": {"type": "Point", "coordinates": [38.082538, -5.368463]}, "properties": {"rank": 214, "score": 0.8355, "aoi": "Handeni / Tanga (Greenstone gold belt)"}}, {"type": "Feature", "geometry": {"type": "Point", "coordinates": [37.891844, -5.517929]}, "properties": {"rank": 215, "score": 0.8355, "aoi": "Handeni / Tanga (Greenstone gold belt)"}}, {"type": "Feature", "geometry": {"type": "Point", "coordinates": [37.870871, -5.438296]}, "properties": {"rank": 216, "score": 0.8353, "aoi": "Handeni / Tanga (Greenstone gold belt)"}}, {"type": "Feature", "geometry": {"type": "Point", "coordinates": [38.086601, -5.306056]}, "properties": {"rank": 217, "score": 0.8353, "aoi": "Handeni / Tanga (Greenstone gold belt)"}}, {"type": "Feature", "geometry": {"type": "Point", "coordinates": [38.050144, -5.53756]}, "properties": {"rank": 218, "score": 0.8352, "aoi": "Handeni / Tanga (Greenstone gold belt)"}}, {"type": "Feature", "geometry": {"type": "Point", "coordinates": [38.055719, -5.319396]}, "properties": {"rank": 219, "score": 0.8351, "aoi": "Handeni / Tanga (Greenstone gold belt)"}}, {"type": "Feature", "geometry": {"type": "Point", "coordinates": [37.825307, -5.477462]}, "properties": {"rank": 220, "score": 0.835, "aoi": "Handeni / Tanga (Greenstone gold belt)"}}, {"type": "Feature", "geometry": {"type": "Point", "coordinates": [37.903161, -5.548702]}, "properties": {"rank": 221, "score": 0.835, "aoi": "Handeni / Tanga (Greenstone gold belt)"}}, {"type": "Feature", "geometry": {"type": "Point", "coordinates": [37.903792, -5.500042]}, "properties": {"rank": 222, "score": 0.835, "aoi": "Handeni / Tanga (Greenstone gold belt)"}}, {"type": "Feature", "geometry": {"type": "Point", "coordinates": [37.874126, -5.435046]}, "properties": {"rank": 223, "score": 0.8349, "aoi": "Handeni / Tanga (Greenstone gold belt)"}}, {"type": "Feature", "geometry": {"type": "Point", "coordinates": [38.059459, -5.352689]}, "properties": {"rank": 224, "score": 0.8349, "aoi": "Handeni / Tanga (Greenstone gold belt)"}}, {"type": "Feature", "geometry": {"type": "Point", "coordinates": [37.929185, -5.534278]}, "properties": {"rank": 225, "score": 0.8349, "aoi": "Handeni / Tanga (Greenstone gold belt)"}}, {"type": "Feature", "geometry": {"type": "Point", "coordinates": [38.061081, -5.585879]}, "properties": {"rank": 226, "score": 0.8349, "aoi": "Handeni / Tanga (Greenstone gold belt)"}}, {"type": "Feature", "geometry": {"type": "Point", "coordinates": [37.83839, -5.432988]}, "properties": {"rank": 227, "score": 0.8349, "aoi": "Handeni / Tanga (Greenstone gold belt)"}}, {"type": "Feature", "geometry": {"type": "Point", "coordinates": [37.819344, -5.480888]}, "properties": {"rank": 228, "score": 0.8347, "aoi": "Handeni / Tanga (Greenstone gold belt)"}}, {"type": "Feature", "geometry": {"type": "Point", "coordinates": [38.075121, -5.379668]}, "properties": {"rank": 229, "score": 0.8346, "aoi": "Handeni / Tanga (Greenstone gold belt)"}}, {"type": "Feature", "geometry": {"type": "Point", "coordinates": [38.024024, -5.501337]}, "properties": {"rank": 230, "score": 0.8346, "aoi": "Handeni / Tanga (Greenstone gold belt)"}}, {"type": "Feature", "geometry": {"type": "Point", "coordinates": [37.825658, -5.482709]}, "properties": {"rank": 231, "score": 0.8345, "aoi": "Handeni / Tanga (Greenstone gold belt)"}}, {"type": "Feature", "geometry": {"type": "Point", "coordinates": [37.870871, -5.438477]}, "properties": {"rank": 232, "score": 0.8343, "aoi": "Handeni / Tanga (Greenstone gold belt)"}}, {"type": "Feature", "geometry": {"type": "Point", "coordinates": [37.877388, -5.427997]}, "properties": {"rank": 233, "score": 0.834, "aoi": "Handeni / Tanga (Greenstone gold belt)"}}, {"type": "Feature", "geometry": {"type": "Point", "coordinates": [37.876845, -5.429262]}, "properties": {"rank": 234, "score": 0.8338, "aoi": "Handeni / Tanga (Greenstone gold belt)"}}, {"type": "Feature", "geometry": {"type": "Point", "coordinates": [37.840432, -5.403687]}, "properties": {"rank": 235, "score": 0.8338, "aoi": "Handeni / Tanga (Greenstone gold belt)"}}, {"type": "Feature", "geometry": {"type": "Point", "coordinates": [37.818274, -5.474012]}, "properties": {"rank": 236, "score": 0.8338, "aoi": "Handeni / Tanga (Greenstone gold belt)"}}, {"type": "Feature", "geometry": {"type": "Point", "coordinates": [38.00415, -5.400903]}, "properties": {"rank": 237, "score": 0.8337, "aoi": "Handeni / Tanga (Greenstone gold belt)"}}, {"type": "Feature", "geometry": {"type": "Point", "coordinates": [37.976358, -5.397781]}, "properties": {"rank": 238, "score": 0.8337, "aoi": "Handeni / Tanga (Greenstone gold belt)"}}, {"type": "Feature", "geometry": {"type": "Point", "coordinates": [38.083214, -5.399218]}, "properties": {"rank": 239, "score": 0.8336, "aoi": "Handeni / Tanga (Greenstone gold belt)"}}, {"type": "Feature", "geometry": {"type": "Point", "coordinates": [37.923959, -5.427901]}, "properties": {"rank": 240, "score": 0.8335, "aoi": "Handeni / Tanga (Greenstone gold belt)"}}, {"type": "Feature", "geometry": {"type": "Point", "coordinates": [38.092178, -5.318547]}, "properties": {"rank": 241, "score": 0.8332, "aoi": "Handeni / Tanga (Greenstone gold belt)"}}, {"type": "Feature", "geometry": {"type": "Point", "coordinates": [37.870331, -5.437571]}, "properties": {"rank": 242, "score": 0.8332, "aoi": "Handeni / Tanga (Greenstone gold belt)"}}, {"type": "Feature", "geometry": {"type": "Point", "coordinates": [38.081549, -5.305325]}, "properties": {"rank": 243, "score": 0.8332, "aoi": "Handeni / Tanga (Greenstone gold belt)"}}, {"type": "Feature", "geometry": {"type": "Point", "coordinates": [37.922944, -5.389729]}, "properties": {"rank": 244, "score": 0.8332, "aoi": "Handeni / Tanga (Greenstone gold belt)"}}, {"type": "Feature", "geometry": {"type": "Point", "coordinates": [37.842498, -5.45597]}, "properties": {"rank": 245, "score": 0.8331, "aoi": "Handeni / Tanga (Greenstone gold belt)"}}, {"type": "Feature", "geometry": {"type": "Point", "coordinates": [38.059079, -5.595645]}, "properties": {"rank": 246, "score": 0.833, "aoi": "Handeni / Tanga (Greenstone gold belt)"}}, {"type": "Feature", "geometry": {"type": "Point", "coordinates": [37.932982, -5.429364]}, "properties": {"rank": 247, "score": 0.8326, "aoi": "Handeni / Tanga (Greenstone gold belt)"}}, {"type": "Feature", "geometry": {"type": "Point", "coordinates": [38.084763, -5.328666]}, "properties": {"rank": 248, "score": 0.8326, "aoi": "Handeni / Tanga (Greenstone gold belt)"}}, {"type": "Feature", "geometry": {"type": "Point", "coordinates": [37.870151, -5.437028]}, "properties": {"rank": 249, "score": 0.8326, "aoi": "Handeni / Tanga (Greenstone gold belt)"}}, {"type": "Feature", "geometry": {"type": "Point", "coordinates": [37.833342, -5.335115]}, "properties": {"rank": 250, "score": 0.8324, "aoi": "Handeni / Tanga (Greenstone gold belt)"}}, {"type": "Feature", "geometry": {"type": "Point", "coordinates": [37.867787, -5.446792]}, "properties": {"rank": 251, "score": 0.8324, "aoi": "Handeni / Tanga (Greenstone gold belt)"}}, {"type": "Feature", "geometry": {"type": "Point", "coordinates": [37.819372, -5.466416]}, "properties": {"rank": 252, "score": 0.8324, "aoi": "Handeni / Tanga (Greenstone gold belt)"}}, {"type": "Feature", "geometry": {"type": "Point", "coordinates": [37.847106, -5.40569]}, "properties": {"rank": 253, "score": 0.8322, "aoi": "Handeni / Tanga (Greenstone gold belt)"}}, {"type": "Feature", "geometry": {"type": "Point", "coordinates": [38.059459, -5.352508]}, "properties": {"rank": 254, "score": 0.8322, "aoi": "Handeni / Tanga (Greenstone gold belt)"}}, {"type": "Feature", "geometry": {"type": "Point", "coordinates": [37.842716, -5.436253]}, "properties": {"rank": 255, "score": 0.8321, "aoi": "Handeni / Tanga (Greenstone gold belt)"}}, {"type": "Feature", "geometry": {"type": "Point", "coordinates": [37.889226, -5.469082]}, "properties": {"rank": 256, "score": 0.832, "aoi": "Handeni / Tanga (Greenstone gold belt)"}}, {"type": "Feature", "geometry": {"type": "Point", "coordinates": [37.888506, -5.467995]}, "properties": {"rank": 257, "score": 0.8319, "aoi": "Handeni / Tanga (Greenstone gold belt)"}}, {"type": "Feature", "geometry": {"type": "Point", "coordinates": [37.84231, -5.459949]}, "properties": {"rank": 258, "score": 0.8317, "aoi": "Handeni / Tanga (Greenstone gold belt)"}}, {"type": "Feature", "geometry": {"type": "Point", "coordinates": [37.872311, -5.440288]}, "properties": {"rank": 259, "score": 0.8317, "aoi": "Handeni / Tanga (Greenstone gold belt)"}}, {"type": "Feature", "geometry": {"type": "Point", "coordinates": [38.042763, -5.410191]}, "properties": {"rank": 260, "score": 0.8316, "aoi": "Handeni / Tanga (Greenstone gold belt)"}}, {"type": "Feature", "geometry": {"type": "Point", "coordinates": [38.077656, -5.374064]}, "properties": {"rank": 261, "score": 0.8316, "aoi": "Handeni / Tanga (Greenstone gold belt)"}}, {"type": "Feature", "geometry": {"type": "Point", "coordinates": [37.87793, -5.427817]}, "properties": {"rank": 262, "score": 0.8315, "aoi": "Handeni / Tanga (Greenstone gold belt)"}}, {"type": "Feature", "geometry": {"type": "Point", "coordinates": [38.099577, -5.319281]}, "properties": {"rank": 263, "score": 0.8314, "aoi": "Handeni / Tanga (Greenstone gold belt)"}}, {"type": "Feature", "geometry": {"type": "Point", "coordinates": [38.07494, -5.379668]}, "properties": {"rank": 264, "score": 0.8314, "aoi": "Handeni / Tanga (Greenstone gold belt)"}}, {"type": "Feature", "geometry": {"type": "Point", "coordinates": [37.890202, -5.527333]}, "properties": {"rank": 265, "score": 0.8313, "aoi": "Handeni / Tanga (Greenstone gold belt)"}}, {"type": "Feature", "geometry": {"type": "Point", "coordinates": [37.870825, -5.462897]}, "properties": {"rank": 266, "score": 0.8312, "aoi": "Handeni / Tanga (Greenstone gold belt)"}}, {"type": "Feature", "geometry": {"type": "Point", "coordinates": [38.061929, -5.389417]}, "properties": {"rank": 267, "score": 0.8311, "aoi": "Handeni / Tanga (Greenstone gold belt)"}}, {"type": "Feature", "geometry": {"type": "Point", "coordinates": [37.877749, -5.428178]}, "properties": {"rank": 268, "score": 0.831, "aoi": "Handeni / Tanga (Greenstone gold belt)"}}, {"type": "Feature", "geometry": {"type": "Point", "coordinates": [38.099937, -5.320005]}, "properties": {"rank": 269, "score": 0.831, "aoi": "Handeni / Tanga (Greenstone gold belt)"}}, {"type": "Feature", "geometry": {"type": "Point", "coordinates": [37.843403, -5.454524]}, "properties": {"rank": 270, "score": 0.831, "aoi": "Handeni / Tanga (Greenstone gold belt)"}}, {"type": "Feature", "geometry": {"type": "Point", "coordinates": [38.088788, -5.413518]}, "properties": {"rank": 271, "score": 0.8309, "aoi": "Handeni / Tanga (Greenstone gold belt)"}}, {"type": "Feature", "geometry": {"type": "Point", "coordinates": [38.092539, -5.318547]}, "properties": {"rank": 272, "score": 0.8309, "aoi": "Handeni / Tanga (Greenstone gold belt)"}}, {"type": "Feature", "geometry": {"type": "Point", "coordinates": [37.938769, -5.423043]}, "properties": {"rank": 273, "score": 0.8308, "aoi": "Handeni / Tanga (Greenstone gold belt)"}}, {"type": "Feature", "geometry": {"type": "Point", "coordinates": [38.05581, -5.493428]}, "properties": {"rank": 274, "score": 0.8308, "aoi": "Handeni / Tanga (Greenstone gold belt)"}}, {"type": "Feature", "geometry": {"type": "Point", "coordinates": [37.978292, -5.534184]}, "properties": {"rank": 275, "score": 0.8308, "aoi": "Handeni / Tanga (Greenstone gold belt)"}}, {"type": "Feature", "geometry": {"type": "Point", "coordinates": [38.034965, -5.545133]}, "properties": {"rank": 276, "score": 0.8308, "aoi": "Handeni / Tanga (Greenstone gold belt)"}}, {"type": "Feature", "geometry": {"type": "Point", "coordinates": [37.939132, -5.421958]}, "properties": {"rank": 277, "score": 0.8307, "aoi": "Handeni / Tanga (Greenstone gold belt)"}}, {"type": "Feature", "geometry": {"type": "Point", "coordinates": [37.981907, -5.425468]}, "properties": {"rank": 278, "score": 0.8306, "aoi": "Handeni / Tanga (Greenstone gold belt)"}}, {"type": "Feature", "geometry": {"type": "Point", "coordinates": [37.872492, -5.44047]}, "properties": {"rank": 279, "score": 0.8306, "aoi": "Handeni / Tanga (Greenstone gold belt)"}}, {"type": "Feature", "geometry": {"type": "Point", "coordinates": [37.900361, -5.59772]}, "properties": {"rank": 280, "score": 0.8305, "aoi": "Handeni / Tanga (Greenstone gold belt)"}}, {"type": "Feature", "geometry": {"type": "Point", "coordinates": [38.072683, -5.320327]}, "properties": {"rank": 281, "score": 0.8304, "aoi": "Handeni / Tanga (Greenstone gold belt)"}}, {"type": "Feature", "geometry": {"type": "Point", "coordinates": [37.932982, -5.429183]}, "properties": {"rank": 282, "score": 0.8304, "aoi": "Handeni / Tanga (Greenstone gold belt)"}}, {"type": "Feature", "geometry": {"type": "Point", "coordinates": [37.870326, -5.440104]}, "properties": {"rank": 283, "score": 0.8304, "aoi": "Handeni / Tanga (Greenstone gold belt)"}}, {"type": "Feature", "geometry": {"type": "Point", "coordinates": [37.933343, -5.429364]}, "properties": {"rank": 284, "score": 0.8303, "aoi": "Handeni / Tanga (Greenstone gold belt)"}}, {"type": "Feature", "geometry": {"type": "Point", "coordinates": [38.095884, -5.376081]}, "properties": {"rank": 285, "score": 0.8302, "aoi": "Handeni / Tanga (Greenstone gold belt)"}}, {"type": "Feature", "geometry": {"type": "Point", "coordinates": [38.043569, -5.356825]}, "properties": {"rank": 286, "score": 0.8302, "aoi": "Handeni / Tanga (Greenstone gold belt)"}}, {"type": "Feature", "geometry": {"type": "Point", "coordinates": [38.081892, -5.317808]}, "properties": {"rank": 287, "score": 0.8301, "aoi": "Handeni / Tanga (Greenstone gold belt)"}}, {"type": "Feature", "geometry": {"type": "Point", "coordinates": [37.889227, -5.46872]}, "properties": {"rank": 288, "score": 0.83, "aoi": "Handeni / Tanga (Greenstone gold belt)"}}, {"type": "Feature", "geometry": {"type": "Point", "coordinates": [37.969801, -5.537606]}, "properties": {"rank": 289, "score": 0.83, "aoi": "Handeni / Tanga (Greenstone gold belt)"}}, {"type": "Feature", "geometry": {"type": "Point", "coordinates": [38.087426, -5.358701]}, "properties": {"rank": 290, "score": 0.83, "aoi": "Handeni / Tanga (Greenstone gold belt)"}}, {"type": "Feature", "geometry": {"type": "Point", "coordinates": [38.031197, -5.304343]}, "properties": {"rank": 291, "score": 0.83, "aoi": "Handeni / Tanga (Greenstone gold belt)"}}, {"type": "Feature", "geometry": {"type": "Point", "coordinates": [38.099577, -5.3191]}, "properties": {"rank": 292, "score": 0.8299, "aoi": "Handeni / Tanga (Greenstone gold belt)"}}, {"type": "Feature", "geometry": {"type": "Point", "coordinates": [38.082493, -5.398493]}, "properties": {"rank": 293, "score": 0.8298, "aoi": "Handeni / Tanga (Greenstone gold belt)"}}, {"type": "Feature", "geometry": {"type": "Point", "coordinates": [37.857755, -5.405891]}, "properties": {"rank": 294, "score": 0.8298, "aoi": "Handeni / Tanga (Greenstone gold belt)"}}, {"type": "Feature", "geometry": {"type": "Point", "coordinates": [37.926351, -5.503701]}, "properties": {"rank": 295, "score": 0.8297, "aoi": "Handeni / Tanga (Greenstone gold belt)"}}, {"type": "Feature", "geometry": {"type": "Point", "coordinates": [37.870507, -5.439923]}, "properties": {"rank": 296, "score": 0.8297, "aoi": "Handeni / Tanga (Greenstone gold belt)"}}, {"type": "Feature", "geometry": {"type": "Point", "coordinates": [38.054389, -5.362993]}, "properties": {"rank": 297, "score": 0.8296, "aoi": "Handeni / Tanga (Greenstone gold belt)"}}, {"type": "Feature", "geometry": {"type": "Point", "coordinates": [37.877569, -5.428178]}, "properties": {"rank": 298, "score": 0.8296, "aoi": "Handeni / Tanga (Greenstone gold belt)"}}, {"type": "Feature", "geometry": {"type": "Point", "coordinates": [37.845872, -5.484919]}, "properties": {"rank": 299, "score": 0.8296, "aoi": "Handeni / Tanga (Greenstone gold belt)"}}, {"type": "Feature", "geometry": {"type": "Point", "coordinates": [37.832339, -5.481637]}, "properties": {"rank": 300, "score": 0.8296, "aoi": "Handeni / Tanga (Greenstone gold belt)"}}, {"type": "Feature", "geometry": {"type": "Point", "coordinates": [37.863952, -5.469939]}, "properties": {"rank": 301, "score": 0.8295, "aoi": "Handeni / Tanga (Greenstone gold belt)"}}, {"type": "Feature", "geometry": {"type": "Point", "coordinates": [37.869798, -5.433229]}, "properties": {"rank": 302, "score": 0.8295, "aoi": "Handeni / Tanga (Greenstone gold belt)"}}, {"type": "Feature", "geometry": {"type": "Point", "coordinates": [37.870146, -5.440103]}, "properties": {"rank": 303, "score": 0.8295, "aoi": "Handeni / Tanga (Greenstone gold belt)"}}, {"type": "Feature", "geometry": {"type": "Point", "coordinates": [38.054095, -5.319394]}, "properties": {"rank": 304, "score": 0.8294, "aoi": "Handeni / Tanga (Greenstone gold belt)"}}, {"type": "Feature", "geometry": {"type": "Point", "coordinates": [37.869972, -5.436304]}, "properties": {"rank": 305, "score": 0.8292, "aoi": "Handeni / Tanga (Greenstone gold belt)"}}, {"type": "Feature", "geometry": {"type": "Point", "coordinates": [37.872311, -5.440469]}, "properties": {"rank": 306, "score": 0.8291, "aoi": "Handeni / Tanga (Greenstone gold belt)"}}, {"type": "Feature", "geometry": {"type": "Point", "coordinates": [37.888504, -5.469262]}, "properties": {"rank": 307, "score": 0.8291, "aoi": "Handeni / Tanga (Greenstone gold belt)"}}, {"type": "Feature", "geometry": {"type": "Point", "coordinates": [38.01037, -5.569695]}, "properties": {"rank": 308, "score": 0.8291, "aoi": "Handeni / Tanga (Greenstone gold belt)"}}, {"type": "Feature", "geometry": {"type": "Point", "coordinates": [37.843101, -5.423591]}, "properties": {"rank": 309, "score": 0.8291, "aoi": "Handeni / Tanga (Greenstone gold belt)"}}, {"type": "Feature", "geometry": {"type": "Point", "coordinates": [37.881835, -5.56024]}, "properties": {"rank": 310, "score": 0.829, "aoi": "Handeni / Tanga (Greenstone gold belt)"}}, {"type": "Feature", "geometry": {"type": "Point", "coordinates": [37.843222, -5.454886]}, "properties": {"rank": 311, "score": 0.829, "aoi": "Handeni / Tanga (Greenstone gold belt)"}}, {"type": "Feature", "geometry": {"type": "Point", "coordinates": [37.843214, -5.459227]}, "properties": {"rank": 312, "score": 0.829, "aoi": "Handeni / Tanga (Greenstone gold belt)"}}, {"type": "Feature", "geometry": {"type": "Point", "coordinates": [37.928463, -5.534096]}, "properties": {"rank": 313, "score": 0.8289, "aoi": "Handeni / Tanga (Greenstone gold belt)"}}, {"type": "Feature", "geometry": {"type": "Point", "coordinates": [37.963848, -5.534521]}, "properties": {"rank": 314, "score": 0.8289, "aoi": "Handeni / Tanga (Greenstone gold belt)"}}, {"type": "Feature", "geometry": {"type": "Point", "coordinates": [37.879191, -5.429086]}, "properties": {"rank": 315, "score": 0.8289, "aoi": "Handeni / Tanga (Greenstone gold belt)"}}, {"type": "Feature", "geometry": {"type": "Point", "coordinates": [37.982773, -5.338818]}, "properties": {"rank": 316, "score": 0.8287, "aoi": "Handeni / Tanga (Greenstone gold belt)"}}, {"type": "Feature", "geometry": {"type": "Point", "coordinates": [37.891213, -5.468724]}, "properties": {"rank": 317, "score": 0.8287, "aoi": "Handeni / Tanga (Greenstone gold belt)"}}, {"type": "Feature", "geometry": {"type": "Point", "coordinates": [38.034188, -5.353735]}, "properties": {"rank": 318, "score": 0.8287, "aoi": "Handeni / Tanga (Greenstone gold belt)"}}, {"type": "Feature", "geometry": {"type": "Point", "coordinates": [38.068374, -5.305486]}, "properties": {"rank": 319, "score": 0.8287, "aoi": "Handeni / Tanga (Greenstone gold belt)"}}, {"type": "Feature", "geometry": {"type": "Point", "coordinates": [37.985909, -5.407023]}, "properties": {"rank": 320, "score": 0.8287, "aoi": "Handeni / Tanga (Greenstone gold belt)"}}, {"type": "Feature", "geometry": {"type": "Point", "coordinates": [37.928101, -5.534638]}, "properties": {"rank": 321, "score": 0.8286, "aoi": "Handeni / Tanga (Greenstone gold belt)"}}, {"type": "Feature", "geometry": {"type": "Point", "coordinates": [37.855974, -5.488556]}, "properties": {"rank": 322, "score": 0.8285, "aoi": "Handeni / Tanga (Greenstone gold belt)"}}, {"type": "Feature", "geometry": {"type": "Point", "coordinates": [38.054455, -5.319756]}, "properties": {"rank": 323, "score": 0.8285, "aoi": "Handeni / Tanga (Greenstone gold belt)"}}, {"type": "Feature", "geometry": {"type": "Point", "coordinates": [38.054455, -5.319937]}, "properties": {"rank": 324, "score": 0.8285, "aoi": "Handeni / Tanga (Greenstone gold belt)"}}, {"type": "Feature", "geometry": {"type": "Point", "coordinates": [37.943196, -5.472074]}, "properties": {"rank": 325, "score": 0.8284, "aoi": "Handeni / Tanga (Greenstone gold belt)"}}, {"type": "Feature", "geometry": {"type": "Point", "coordinates": [37.894547, -5.520286]}, "properties": {"rank": 326, "score": 0.8284, "aoi": "Handeni / Tanga (Greenstone gold belt)"}}, {"type": "Feature", "geometry": {"type": "Point", "coordinates": [37.977833, -5.37897]}, "properties": {"rank": 327, "score": 0.8282, "aoi": "Handeni / Tanga (Greenstone gold belt)"}}, {"type": "Feature", "geometry": {"type": "Point", "coordinates": [37.861314, -5.528182]}, "properties": {"rank": 328, "score": 0.8281, "aoi": "Handeni / Tanga (Greenstone gold belt)"}}, {"type": "Feature", "geometry": {"type": "Point", "coordinates": [38.096329, -5.318734]}, "properties": {"rank": 329, "score": 0.8281, "aoi": "Handeni / Tanga (Greenstone gold belt)"}}, {"type": "Feature", "geometry": {"type": "Point", "coordinates": [38.004872, -5.400904]}, "properties": {"rank": 330, "score": 0.828, "aoi": "Handeni / Tanga (Greenstone gold belt)"}}, {"type": "Feature", "geometry": {"type": "Point", "coordinates": [37.960024, -5.343664]}, "properties": {"rank": 331, "score": 0.828, "aoi": "Handeni / Tanga (Greenstone gold belt)"}}, {"type": "Feature", "geometry": {"type": "Point", "coordinates": [38.054274, -5.320118]}, "properties": {"rank": 332, "score": 0.828, "aoi": "Handeni / Tanga (Greenstone gold belt)"}}, {"type": "Feature", "geometry": {"type": "Point", "coordinates": [37.979584, -5.517905]}, "properties": {"rank": 333, "score": 0.8278, "aoi": "Handeni / Tanga (Greenstone gold belt)"}}, {"type": "Feature", "geometry": {"type": "Point", "coordinates": [38.077831, -5.377682]}, "properties": {"rank": 334, "score": 0.8277, "aoi": "Handeni / Tanga (Greenstone gold belt)"}}, {"type": "Feature", "geometry": {"type": "Point", "coordinates": [38.043992, -5.545871]}, "properties": {"rank": 335, "score": 0.8277, "aoi": "Handeni / Tanga (Greenstone gold belt)"}}, {"type": "Feature", "geometry": {"type": "Point", "coordinates": [37.843401, -5.455429]}, "properties": {"rank": 336, "score": 0.8276, "aoi": "Handeni / Tanga (Greenstone gold belt)"}}, {"type": "Feature", "geometry": {"type": "Point", "coordinates": [38.0378, -5.352474]}, "properties": {"rank": 337, "score": 0.8276, "aoi": "Handeni / Tanga (Greenstone gold belt)"}}, {"type": "Feature", "geometry": {"type": "Point", "coordinates": [37.870695, -5.435944]}, "properties": {"rank": 338, "score": 0.8275, "aoi": "Handeni / Tanga (Greenstone gold belt)"}}, {"type": "Feature", "geometry": {"type": "Point", "coordinates": [37.983523, -5.537087]}, "properties": {"rank": 339, "score": 0.8275, "aoi": "Handeni / Tanga (Greenstone gold belt)"}}, {"type": "Feature", "geometry": {"type": "Point", "coordinates": [37.94425, -5.385425]}, "properties": {"rank": 340, "score": 0.8274, "aoi": "Handeni / Tanga (Greenstone gold belt)"}}, {"type": "Feature", "geometry": {"type": "Point", "coordinates": [37.86047, -5.49779]}, "properties": {"rank": 341, "score": 0.8274, "aoi": "Handeni / Tanga (Greenstone gold belt)"}}, {"type": "Feature", "geometry": {"type": "Point", "coordinates": [37.96831, -5.459997]}, "properties": {"rank": 342, "score": 0.8274, "aoi": "Handeni / Tanga (Greenstone gold belt)"}}, {"type": "Feature", "geometry": {"type": "Point", "coordinates": [38.074328, -5.306761]}, "properties": {"rank": 343, "score": 0.8272, "aoi": "Handeni / Tanga (Greenstone gold belt)"}}, {"type": "Feature", "geometry": {"type": "Point", "coordinates": [37.978475, -5.532737]}, "properties": {"rank": 344, "score": 0.8272, "aoi": "Handeni / Tanga (Greenstone gold belt)"}}, {"type": "Feature", "geometry": {"type": "Point", "coordinates": [37.983964, -5.382779]}, "properties": {"rank": 345, "score": 0.8272, "aoi": "Handeni / Tanga (Greenstone gold belt)"}}, {"type": "Feature", "geometry": {"type": "Point", "coordinates": [38.07747, -5.377862]}, "properties": {"rank": 346, "score": 0.827, "aoi": "Handeni / Tanga (Greenstone gold belt)"}}, {"type": "Feature", "geometry": {"type": "Point", "coordinates": [38.083033, -5.399399]}, "properties": {"rank": 347, "score": 0.8269, "aoi": "Handeni / Tanga (Greenstone gold belt)"}}, {"type": "Feature", "geometry": {"type": "Point", "coordinates": [37.923959, -5.428082]}, "properties": {"rank": 348, "score": 0.8269, "aoi": "Handeni / Tanga (Greenstone gold belt)"}}, {"type": "Feature", "geometry": {"type": "Point", "coordinates": [37.926475, -5.535178]}, "properties": {"rank": 349, "score": 0.8268, "aoi": "Handeni / Tanga (Greenstone gold belt)"}}, {"type": "Feature", "geometry": {"type": "Point", "coordinates": [37.808746, -5.454276]}, "properties": {"rank": 350, "score": 0.8268, "aoi": "Handeni / Tanga (Greenstone gold belt)"}}, {"type": "Feature", "geometry": {"type": "Point", "coordinates": [37.834348, -5.469702]}, "properties": {"rank": 351, "score": 0.8268, "aoi": "Handeni / Tanga (Greenstone gold belt)"}}, {"type": "Feature", "geometry": {"type": "Point", "coordinates": [37.842088, -5.481113]}, "properties": {"rank": 352, "score": 0.8267, "aoi": "Handeni / Tanga (Greenstone gold belt)"}}, {"type": "Feature", "geometry": {"type": "Point", "coordinates": [37.831795, -5.483083]}, "properties": {"rank": 353, "score": 0.8267, "aoi": "Handeni / Tanga (Greenstone gold belt)"}}, {"type": "Feature", "geometry": {"type": "Point", "coordinates": [37.991653, -5.42657]}, "properties": {"rank": 354, "score": 0.8267, "aoi": "Handeni / Tanga (Greenstone gold belt)"}}, {"type": "Feature", "geometry": {"type": "Point", "coordinates": [37.868149, -5.44625]}, "properties": {"rank": 355, "score": 0.8267, "aoi": "Handeni / Tanga (Greenstone gold belt)"}}, {"type": "Feature", "geometry": {"type": "Point", "coordinates": [38.004692, -5.400542]}, "properties": {"rank": 356, "score": 0.8266, "aoi": "Handeni / Tanga (Greenstone gold belt)"}}, {"type": "Feature", "geometry": {"type": "Point", "coordinates": [37.851794, -5.596542]}, "properties": {"rank": 357, "score": 0.8266, "aoi": "Handeni / Tanga (Greenstone gold belt)"}}, {"type": "Feature", "geometry": {"type": "Point", "coordinates": [37.885904, -5.410466]}, "properties": {"rank": 358, "score": 0.8265, "aoi": "Handeni / Tanga (Greenstone gold belt)"}}, {"type": "Feature", "geometry": {"type": "Point", "coordinates": [37.920159, -5.43314]}, "properties": {"rank": 359, "score": 0.8265, "aoi": "Handeni / Tanga (Greenstone gold belt)"}}, {"type": "Feature", "geometry": {"type": "Point", "coordinates": [37.845312, -5.494505]}, "properties": {"rank": 360, "score": 0.8264, "aoi": "Handeni / Tanga (Greenstone gold belt)"}}, {"type": "Feature", "geometry": {"type": "Point", "coordinates": [37.932628, -5.527049]}, "properties": {"rank": 361, "score": 0.8264, "aoi": "Handeni / Tanga (Greenstone gold belt)"}}, {"type": "Feature", "geometry": {"type": "Point", "coordinates": [37.931275, -5.576793]}, "properties": {"rank": 362, "score": 0.8263, "aoi": "Handeni / Tanga (Greenstone gold belt)"}}, {"type": "Feature", "geometry": {"type": "Point", "coordinates": [37.842129, -5.459948]}, "properties": {"rank": 363, "score": 0.8263, "aoi": "Handeni / Tanga (Greenstone gold belt)"}}, {"type": "Feature", "geometry": {"type": "Point", "coordinates": [37.938952, -5.421777]}, "properties": {"rank": 364, "score": 0.8261, "aoi": "Handeni / Tanga (Greenstone gold belt)"}}, {"type": "Feature", "geometry": {"type": "Point", "coordinates": [37.831796, -5.482359]}, "properties": {"rank": 365, "score": 0.8261, "aoi": "Handeni / Tanga (Greenstone gold belt)"}}, {"type": "Feature", "geometry": {"type": "Point", "coordinates": [37.875118, -5.579764]}, "properties": {"rank": 366, "score": 0.8261, "aoi": "Handeni / Tanga (Greenstone gold belt)"}}, {"type": "Feature", "geometry": {"type": "Point", "coordinates": [37.933163, -5.429002]}, "properties": {"rank": 367, "score": 0.8261, "aoi": "Handeni / Tanga (Greenstone gold belt)"}}, {"type": "Feature", "geometry": {"type": "Point", "coordinates": [37.991091, -5.545784]}, "properties": {"rank": 368, "score": 0.826, "aoi": "Handeni / Tanga (Greenstone gold belt)"}}, {"type": "Feature", "geometry": {"type": "Point", "coordinates": [37.870871, -5.438115]}, "properties": {"rank": 369, "score": 0.8259, "aoi": "Handeni / Tanga (Greenstone gold belt)"}}, {"type": "Feature", "geometry": {"type": "Point", "coordinates": [37.883492, -5.543058]}, "properties": {"rank": 370, "score": 0.8259, "aoi": "Handeni / Tanga (Greenstone gold belt)"}}, {"type": "Feature", "geometry": {"type": "Point", "coordinates": [37.964504, -5.572511]}, "properties": {"rank": 371, "score": 0.8259, "aoi": "Handeni / Tanga (Greenstone gold belt)"}}, {"type": "Feature", "geometry": {"type": "Point", "coordinates": [38.031124, -5.350655]}, "properties": {"rank": 372, "score": 0.8257, "aoi": "Handeni / Tanga (Greenstone gold belt)"}}, {"type": "Feature", "geometry": {"type": "Point", "coordinates": [38.029604, -5.511115]}, "properties": {"rank": 373, "score": 0.8257, "aoi": "Handeni / Tanga (Greenstone gold belt)"}}, {"type": "Feature", "geometry": {"type": "Point", "coordinates": [37.916395, -5.4183]}, "properties": {"rank": 374, "score": 0.8257, "aoi": "Handeni / Tanga (Greenstone gold belt)"}}, {"type": "Feature", "geometry": {"type": "Point", "coordinates": [37.94146, -5.432816]}, "properties": {"rank": 375, "score": 0.8257, "aoi": "Handeni / Tanga (Greenstone gold belt)"}}, {"type": "Feature", "geometry": {"type": "Point", "coordinates": [37.860583, -5.438095]}, "properties": {"rank": 376, "score": 0.8257, "aoi": "Handeni / Tanga (Greenstone gold belt)"}}, {"type": "Feature", "geometry": {"type": "Point", "coordinates": [38.058399, -5.337129]}, "properties": {"rank": 377, "score": 0.8256, "aoi": "Handeni / Tanga (Greenstone gold belt)"}}, {"type": "Feature", "geometry": {"type": "Point", "coordinates": [37.812723, -5.451389]}, "properties": {"rank": 378, "score": 0.8255, "aoi": "Handeni / Tanga (Greenstone gold belt)"}}, {"type": "Feature", "geometry": {"type": "Point", "coordinates": [38.081369, -5.305324]}, "properties": {"rank": 379, "score": 0.8255, "aoi": "Handeni / Tanga (Greenstone gold belt)"}}, {"type": "Feature", "geometry": {"type": "Point", "coordinates": [37.929365, -5.534279]}, "properties": {"rank": 380, "score": 0.8254, "aoi": "Handeni / Tanga (Greenstone gold belt)"}}, {"type": "Feature", "geometry": {"type": "Point", "coordinates": [38.004151, -5.400179]}, "properties": {"rank": 381, "score": 0.8254, "aoi": "Handeni / Tanga (Greenstone gold belt)"}}, {"type": "Feature", "geometry": {"type": "Point", "coordinates": [38.099397, -5.3191]}, "properties": {"rank": 382, "score": 0.8254, "aoi": "Handeni / Tanga (Greenstone gold belt)"}}, {"type": "Feature", "geometry": {"type": "Point", "coordinates": [38.095704, -5.375538]}, "properties": {"rank": 383, "score": 0.8254, "aoi": "Handeni / Tanga (Greenstone gold belt)"}}, {"type": "Feature", "geometry": {"type": "Point", "coordinates": [37.855975, -5.488194]}, "properties": {"rank": 384, "score": 0.8254, "aoi": "Handeni / Tanga (Greenstone gold belt)"}}, {"type": "Feature", "geometry": {"type": "Point", "coordinates": [37.858043, -5.444965]}, "properties": {"rank": 385, "score": 0.8253, "aoi": "Handeni / Tanga (Greenstone gold belt)"}}, {"type": "Feature", "geometry": {"type": "Point", "coordinates": [37.914962, -5.411966]}, "properties": {"rank": 386, "score": 0.8253, "aoi": "Handeni / Tanga (Greenstone gold belt)"}}, {"type": "Feature", "geometry": {"type": "Point", "coordinates": [38.083394, -5.399399]}, "properties": {"rank": 387, "score": 0.8252, "aoi": "Handeni / Tanga (Greenstone gold belt)"}}, {"type": "Feature", "geometry": {"type": "Point", "coordinates": [37.87775, -5.427817]}, "properties": {"rank": 388, "score": 0.8252, "aoi": "Handeni / Tanga (Greenstone gold belt)"}}, {"type": "Feature", "geometry": {"type": "Point", "coordinates": [37.958532, -5.477347]}, "properties": {"rank": 389, "score": 0.8251, "aoi": "Handeni / Tanga (Greenstone gold belt)"}}, {"type": "Feature", "geometry": {"type": "Point", "coordinates": [37.863704, -5.410063]}, "properties": {"rank": 390, "score": 0.8251, "aoi": "Handeni / Tanga (Greenstone gold belt)"}}, {"type": "Feature", "geometry": {"type": "Point", "coordinates": [37.860402, -5.438095]}, "properties": {"rank": 391, "score": 0.8251, "aoi": "Handeni / Tanga (Greenstone gold belt)"}}, {"type": "Feature", "geometry": {"type": "Point", "coordinates": [37.863342, -5.410605]}, "properties": {"rank": 392, "score": 0.8251, "aoi": "Handeni / Tanga (Greenstone gold belt)"}}, {"type": "Feature", "geometry": {"type": "Point", "coordinates": [37.876848, -5.427453]}, "properties": {"rank": 393, "score": 0.825, "aoi": "Handeni / Tanga (Greenstone gold belt)"}}, {"type": "Feature", "geometry": {"type": "Point", "coordinates": [37.814552, -5.439092]}, "properties": {"rank": 394, "score": 0.825, "aoi": "Handeni / Tanga (Greenstone gold belt)"}}, {"type": "Feature", "geometry": {"type": "Point", "coordinates": [37.927582, -5.42049]}, "properties": {"rank": 395, "score": 0.825, "aoi": "Handeni / Tanga (Greenstone gold belt)"}}, {"type": "Feature", "geometry": {"type": "Point", "coordinates": [37.897394, -5.542722]}, "properties": {"rank": 396, "score": 0.8249, "aoi": "Handeni / Tanga (Greenstone gold belt)"}}, {"type": "Feature", "geometry": {"type": "Point", "coordinates": [37.884723, -5.560788]}, "properties": {"rank": 397, "score": 0.8249, "aoi": "Handeni / Tanga (Greenstone gold belt)"}}, {"type": "Feature", "geometry": {"type": "Point", "coordinates": [37.867242, -5.4486]}, "properties": {"rank": 398, "score": 0.8249, "aoi": "Handeni / Tanga (Greenstone gold belt)"}}, {"type": "Feature", "geometry": {"type": "Point", "coordinates": [38.021437, -5.313192]}, "properties": {"rank": 399, "score": 0.8249, "aoi": "Handeni / Tanga (Greenstone gold belt)"}}, {"type": "Feature", "geometry": {"type": "Point", "coordinates": [38.040101, -5.381242]}, "properties": {"rank": 400, "score": 0.8249, "aoi": "Handeni / Tanga (Greenstone gold belt)"}}, {"type": "Feature", "geometry": {"type": "Point", "coordinates": [37.875288, -5.392537]}, "properties": {"rank": 401, "score": 0.8248, "aoi": "Handeni / Tanga (Greenstone gold belt)"}}, {"type": "Feature", "geometry": {"type": "Point", "coordinates": [38.035355, -5.300008]}, "properties": {"rank": 402, "score": 0.8248, "aoi": "Handeni / Tanga (Greenstone gold belt)"}}, {"type": "Feature", "geometry": {"type": "Point", "coordinates": [37.846478, -5.451455]}, "properties": {"rank": 403, "score": 0.8248, "aoi": "Handeni / Tanga (Greenstone gold belt)"}}, {"type": "Feature", "geometry": {"type": "Point", "coordinates": [37.870151, -5.437209]}, "properties": {"rank": 404, "score": 0.8247, "aoi": "Handeni / Tanga (Greenstone gold belt)"}}, {"type": "Feature", "geometry": {"type": "Point", "coordinates": [38.037792, -5.35754]}, "properties": {"rank": 405, "score": 0.8247, "aoi": "Handeni / Tanga (Greenstone gold belt)"}}, {"type": "Feature", "geometry": {"type": "Point", "coordinates": [38.036361, -5.349035]}, "properties": {"rank": 406, "score": 0.8247, "aoi": "Handeni / Tanga (Greenstone gold belt)"}}, {"type": "Feature", "geometry": {"type": "Point", "coordinates": [38.013647, -5.331813]}, "properties": {"rank": 407, "score": 0.8247, "aoi": "Handeni / Tanga (Greenstone gold belt)"}}, {"type": "Feature", "geometry": {"type": "Point", "coordinates": [37.841204, -5.471524]}, "properties": {"rank": 408, "score": 0.8246, "aoi": "Handeni / Tanga (Greenstone gold belt)"}}, {"type": "Feature", "geometry": {"type": "Point", "coordinates": [38.08929, -5.319085]}, "properties": {"rank": 409, "score": 0.8245, "aoi": "Handeni / Tanga (Greenstone gold belt)"}}, {"type": "Feature", "geometry": {"type": "Point", "coordinates": [37.842129, -5.459768]}, "properties": {"rank": 410, "score": 0.8245, "aoi": "Handeni / Tanga (Greenstone gold belt)"}}, {"type": "Feature", "geometry": {"type": "Point", "coordinates": [37.989285, -5.546504]}, "properties": {"rank": 411, "score": 0.8243, "aoi": "Handeni / Tanga (Greenstone gold belt)"}}, {"type": "Feature", "geometry": {"type": "Point", "coordinates": [37.927286, -5.585831]}, "properties": {"rank": 412, "score": 0.8243, "aoi": "Handeni / Tanga (Greenstone gold belt)"}}, {"type": "Feature", "geometry": {"type": "Point", "coordinates": [37.967815, -5.537784]}, "properties": {"rank": 413, "score": 0.8242, "aoi": "Handeni / Tanga (Greenstone gold belt)"}}, {"type": "Feature", "geometry": {"type": "Point", "coordinates": [38.099758, -5.3191]}, "properties": {"rank": 414, "score": 0.8242, "aoi": "Handeni / Tanga (Greenstone gold belt)"}}, {"type": "Feature", "geometry": {"type": "Point", "coordinates": [38.036541, -5.349216]}, "properties": {"rank": 415, "score": 0.8242, "aoi": "Handeni / Tanga (Greenstone gold belt)"}}, {"type": "Feature", "geometry": {"type": "Point", "coordinates": [37.883028, -5.597868]}, "properties": {"rank": 416, "score": 0.8242, "aoi": "Handeni / Tanga (Greenstone gold belt)"}}, {"type": "Feature", "geometry": {"type": "Point", "coordinates": [37.874307, -5.434865]}, "properties": {"rank": 417, "score": 0.8242, "aoi": "Handeni / Tanga (Greenstone gold belt)"}}, {"type": "Feature", "geometry": {"type": "Point", "coordinates": [38.037976, -5.355369]}, "properties": {"rank": 418, "score": 0.8242, "aoi": "Handeni / Tanga (Greenstone gold belt)"}}, {"type": "Feature", "geometry": {"type": "Point", "coordinates": [38.08173, -5.305144]}, "properties": {"rank": 419, "score": 0.8241, "aoi": "Handeni / Tanga (Greenstone gold belt)"}}, {"type": "Feature", "geometry": {"type": "Point", "coordinates": [38.099938, -5.319282]}, "properties": {"rank": 420, "score": 0.8241, "aoi": "Handeni / Tanga (Greenstone gold belt)"}}, {"type": "Feature", "geometry": {"type": "Point", "coordinates": [38.099757, -5.319281]}, "properties": {"rank": 421, "score": 0.8241, "aoi": "Handeni / Tanga (Greenstone gold belt)"}}, {"type": "Feature", "geometry": {"type": "Point", "coordinates": [38.092359, -5.318547]}, "properties": {"rank": 422, "score": 0.824, "aoi": "Handeni / Tanga (Greenstone gold belt)"}}, {"type": "Feature", "geometry": {"type": "Point", "coordinates": [38.070103, -5.3556]}, "properties": {"rank": 423, "score": 0.824, "aoi": "Handeni / Tanga (Greenstone gold belt)"}}, {"type": "Feature", "geometry": {"type": "Point", "coordinates": [37.986429, -5.310241]}, "properties": {"rank": 424, "score": 0.8239, "aoi": "Handeni / Tanga (Greenstone gold belt)"}}, {"type": "Feature", "geometry": {"type": "Point", "coordinates": [38.098855, -5.318918]}, "properties": {"rank": 425, "score": 0.8239, "aoi": "Handeni / Tanga (Greenstone gold belt)"}}, {"type": "Feature", "geometry": {"type": "Point", "coordinates": [38.061749, -5.389416]}, "properties": {"rank": 426, "score": 0.8237, "aoi": "Handeni / Tanga (Greenstone gold belt)"}}, {"type": "Feature", "geometry": {"type": "Point", "coordinates": [37.808385, -5.454275]}, "properties": {"rank": 427, "score": 0.8236, "aoi": "Handeni / Tanga (Greenstone gold belt)"}}, {"type": "Feature", "geometry": {"type": "Point", "coordinates": [38.06094, -5.327907]}, "properties": {"rank": 428, "score": 0.8235, "aoi": "Handeni / Tanga (Greenstone gold belt)"}}, {"type": "Feature", "geometry": {"type": "Point", "coordinates": [38.053545, -5.324639]}, "properties": {"rank": 429, "score": 0.8234, "aoi": "Handeni / Tanga (Greenstone gold belt)"}}, {"type": "Feature", "geometry": {"type": "Point", "coordinates": [37.96962, -5.537606]}, "properties": {"rank": 430, "score": 0.8234, "aoi": "Handeni / Tanga (Greenstone gold belt)"}}, {"type": "Feature", "geometry": {"type": "Point", "coordinates": [37.991092, -5.545422]}, "properties": {"rank": 431, "score": 0.8234, "aoi": "Handeni / Tanga (Greenstone gold belt)"}}, {"type": "Feature", "geometry": {"type": "Point", "coordinates": [37.92617, -5.503882]}, "properties": {"rank": 432, "score": 0.8233, "aoi": "Handeni / Tanga (Greenstone gold belt)"}}, {"type": "Feature", "geometry": {"type": "Point", "coordinates": [38.034376, -5.349213]}, "properties": {"rank": 433, "score": 0.8233, "aoi": "Handeni / Tanga (Greenstone gold belt)"}}, {"type": "Feature", "geometry": {"type": "Point", "coordinates": [38.042685, -5.572643]}, "properties": {"rank": 434, "score": 0.8233, "aoi": "Handeni / Tanga (Greenstone gold belt)"}}, {"type": "Feature", "geometry": {"type": "Point", "coordinates": [37.87051, -5.438476]}, "properties": {"rank": 435, "score": 0.8233, "aoi": "Handeni / Tanga (Greenstone gold belt)"}}, {"type": "Feature", "geometry": {"type": "Point", "coordinates": [37.842182, -5.432453]}, "properties": {"rank": 436, "score": 0.8232, "aoi": "Handeni / Tanga (Greenstone gold belt)"}}, {"type": "Feature", "geometry": {"type": "Point", "coordinates": [37.912207, -5.438914]}, "properties": {"rank": 437, "score": 0.8232, "aoi": "Handeni / Tanga (Greenstone gold belt)"}}, {"type": "Feature", "geometry": {"type": "Point", "coordinates": [37.896835, -5.454624]}, "properties": {"rank": 438, "score": 0.8231, "aoi": "Handeni / Tanga (Greenstone gold belt)"}}, {"type": "Feature", "geometry": {"type": "Point", "coordinates": [37.853973, -5.496512]}, "properties": {"rank": 439, "score": 0.8231, "aoi": "Handeni / Tanga (Greenstone gold belt)"}}, {"type": "Feature", "geometry": {"type": "Point", "coordinates": [37.825127, -5.477462]}, "properties": {"rank": 440, "score": 0.823, "aoi": "Handeni / Tanga (Greenstone gold belt)"}}, {"type": "Feature", "geometry": {"type": "Point", "coordinates": [38.030058, -5.453588]}, "properties": {"rank": 441, "score": 0.823, "aoi": "Handeni / Tanga (Greenstone gold belt)"}}, {"type": "Feature", "geometry": {"type": "Point", "coordinates": [37.891394, -5.468544]}, "properties": {"rank": 442, "score": 0.823, "aoi": "Handeni / Tanga (Greenstone gold belt)"}}, {"type": "Feature", "geometry": {"type": "Point", "coordinates": [37.856336, -5.488376]}, "properties": {"rank": 443, "score": 0.8229, "aoi": "Handeni / Tanga (Greenstone gold belt)"}}, {"type": "Feature", "geometry": {"type": "Point", "coordinates": [37.894921, -5.513593]}, "properties": {"rank": 444, "score": 0.8228, "aoi": "Handeni / Tanga (Greenstone gold belt)"}}, {"type": "Feature", "geometry": {"type": "Point", "coordinates": [37.825478, -5.482709]}, "properties": {"rank": 445, "score": 0.8228, "aoi": "Handeni / Tanga (Greenstone gold belt)"}}, {"type": "Feature", "geometry": {"type": "Point", "coordinates": [38.056761, -5.346172]}, "properties": {"rank": 446, "score": 0.8228, "aoi": "Handeni / Tanga (Greenstone gold belt)"}}, {"type": "Feature", "geometry": {"type": "Point", "coordinates": [37.885884, -5.519365]}, "properties": {"rank": 447, "score": 0.8228, "aoi": "Handeni / Tanga (Greenstone gold belt)"}}, {"type": "Feature", "geometry": {"type": "Point", "coordinates": [37.824564, -5.488495]}, "properties": {"rank": 448, "score": 0.8227, "aoi": "Handeni / Tanga (Greenstone gold belt)"}}, {"type": "Feature", "geometry": {"type": "Point", "coordinates": [38.069999, -5.305126]}, "properties": {"rank": 449, "score": 0.8227, "aoi": "Handeni / Tanga (Greenstone gold belt)"}}, {"type": "Feature", "geometry": {"type": "Point", "coordinates": [37.869436, -5.433228]}, "properties": {"rank": 450, "score": 0.8227, "aoi": "Handeni / Tanga (Greenstone gold belt)"}}, {"type": "Feature", "geometry": {"type": "Point", "coordinates": [38.034427, -5.543142]}, "properties": {"rank": 451, "score": 0.8226, "aoi": "Handeni / Tanga (Greenstone gold belt)"}}, {"type": "Feature", "geometry": {"type": "Point", "coordinates": [37.91837, -5.524671]}, "properties": {"rank": 452, "score": 0.8226, "aoi": "Handeni / Tanga (Greenstone gold belt)"}}, {"type": "Feature", "geometry": {"type": "Point", "coordinates": [37.900614, -5.559009]}, "properties": {"rank": 453, "score": 0.8225, "aoi": "Handeni / Tanga (Greenstone gold belt)"}}, {"type": "Feature", "geometry": {"type": "Point", "coordinates": [38.052834, -5.434448]}, "properties": {"rank": 454, "score": 0.8225, "aoi": "Handeni / Tanga (Greenstone gold belt)"}}, {"type": "Feature", "geometry": {"type": "Point", "coordinates": [37.943016, -5.472074]}, "properties": {"rank": 455, "score": 0.8225, "aoi": "Handeni / Tanga (Greenstone gold belt)"}}, {"type": "Feature", "geometry": {"type": "Point", "coordinates": [37.874312, -5.432152]}, "properties": {"rank": 456, "score": 0.8224, "aoi": "Handeni / Tanga (Greenstone gold belt)"}}, {"type": "Feature", "geometry": {"type": "Point", "coordinates": [38.099396, -5.319281]}, "properties": {"rank": 457, "score": 0.8224, "aoi": "Handeni / Tanga (Greenstone gold belt)"}}, {"type": "Feature", "geometry": {"type": "Point", "coordinates": [38.013648, -5.33127]}, "properties": {"rank": 458, "score": 0.8223, "aoi": "Handeni / Tanga (Greenstone gold belt)"}}, {"type": "Feature", "geometry": {"type": "Point", "coordinates": [38.045446, -5.309973]}, "properties": {"rank": 459, "score": 0.8222, "aoi": "Handeni / Tanga (Greenstone gold belt)"}}, {"type": "Feature", "geometry": {"type": "Point", "coordinates": [38.018636, -5.48378]}, "properties": {"rank": 460, "score": 0.822, "aoi": "Handeni / Tanga (Greenstone gold belt)"}}, {"type": "Feature", "geometry": {"type": "Point", "coordinates": [37.876667, -5.427453]}, "properties": {"rank": 461, "score": 0.822, "aoi": "Handeni / Tanga (Greenstone gold belt)"}}, {"type": "Feature", "geometry": {"type": "Point", "coordinates": [37.847823, -5.408586]}, "properties": {"rank": 462, "score": 0.822, "aoi": "Handeni / Tanga (Greenstone gold belt)"}}, {"type": "Feature", "geometry": {"type": "Point", "coordinates": [38.099216, -5.319281]}, "properties": {"rank": 463, "score": 0.822, "aoi": "Handeni / Tanga (Greenstone gold belt)"}}, {"type": "Feature", "geometry": {"type": "Point", "coordinates": [37.965114, -5.533438]}, "properties": {"rank": 464, "score": 0.8219, "aoi": "Handeni / Tanga (Greenstone gold belt)"}}, {"type": "Feature", "geometry": {"type": "Point", "coordinates": [37.979404, -5.517724]}, "properties": {"rank": 465, "score": 0.8218, "aoi": "Handeni / Tanga (Greenstone gold belt)"}}, {"type": "Feature", "geometry": {"type": "Point", "coordinates": [37.974182, -5.403566]}, "properties": {"rank": 466, "score": 0.8218, "aoi": "Handeni / Tanga (Greenstone gold belt)"}}, {"type": "Feature", "geometry": {"type": "Point", "coordinates": [37.896654, -5.454805]}, "properties": {"rank": 467, "score": 0.8218, "aoi": "Handeni / Tanga (Greenstone gold belt)"}}, {"type": "Feature", "geometry": {"type": "Point", "coordinates": [37.991453, -5.545242]}, "properties": {"rank": 468, "score": 0.8217, "aoi": "Handeni / Tanga (Greenstone gold belt)"}}, {"type": "Feature", "geometry": {"type": "Point", "coordinates": [37.896134, -5.541092]}, "properties": {"rank": 469, "score": 0.8217, "aoi": "Handeni / Tanga (Greenstone gold belt)"}}, {"type": "Feature", "geometry": {"type": "Point", "coordinates": [37.876844, -5.429624]}, "properties": {"rank": 470, "score": 0.8217, "aoi": "Handeni / Tanga (Greenstone gold belt)"}}, {"type": "Feature", "geometry": {"type": "Point", "coordinates": [37.87793, -5.427998]}, "properties": {"rank": 471, "score": 0.8217, "aoi": "Handeni / Tanga (Greenstone gold belt)"}}, {"type": "Feature", "geometry": {"type": "Point", "coordinates": [37.84007, -5.404048]}, "properties": {"rank": 472, "score": 0.8216, "aoi": "Handeni / Tanga (Greenstone gold belt)"}}, {"type": "Feature", "geometry": {"type": "Point", "coordinates": [38.059097, -5.352869]}, "properties": {"rank": 473, "score": 0.8215, "aoi": "Handeni / Tanga (Greenstone gold belt)"}}, {"type": "Feature", "geometry": {"type": "Point", "coordinates": [38.098675, -5.319099]}, "properties": {"rank": 474, "score": 0.8215, "aoi": "Handeni / Tanga (Greenstone gold belt)"}}, {"type": "Feature", "geometry": {"type": "Point", "coordinates": [37.824653, -5.442911]}, "properties": {"rank": 475, "score": 0.8215, "aoi": "Handeni / Tanga (Greenstone gold belt)"}}, {"type": "Feature", "geometry": {"type": "Point", "coordinates": [37.986735, -5.34389]}, "properties": {"rank": 476, "score": 0.8214, "aoi": "Handeni / Tanga (Greenstone gold belt)"}}, {"type": "Feature", "geometry": {"type": "Point", "coordinates": [37.950413, -5.577008]}, "properties": {"rank": 477, "score": 0.8214, "aoi": "Handeni / Tanga (Greenstone gold belt)"}}, {"type": "Feature", "geometry": {"type": "Point", "coordinates": [37.871052, -5.438296]}, "properties": {"rank": 478, "score": 0.8214, "aoi": "Handeni / Tanga (Greenstone gold belt)"}}, {"type": "Feature", "geometry": {"type": "Point", "coordinates": [38.048321, -5.54823]}, "properties": {"rank": 479, "score": 0.8214, "aoi": "Handeni / Tanga (Greenstone gold belt)"}}, {"type": "Feature", "geometry": {"type": "Point", "coordinates": [38.060401, -5.326097]}, "properties": {"rank": 480, "score": 0.8214, "aoi": "Handeni / Tanga (Greenstone gold belt)"}}, {"type": "Feature", "geometry": {"type": "Point", "coordinates": [38.089851, -5.305337]}, "properties": {"rank": 481, "score": 0.8214, "aoi": "Handeni / Tanga (Greenstone gold belt)"}}, {"type": "Feature", "geometry": {"type": "Point", "coordinates": [37.932802, -5.429183]}, "properties": {"rank": 482, "score": 0.8213, "aoi": "Handeni / Tanga (Greenstone gold belt)"}}, {"type": "Feature", "geometry": {"type": "Point", "coordinates": [37.842858, -5.456151]}, "properties": {"rank": 483, "score": 0.8212, "aoi": "Handeni / Tanga (Greenstone gold belt)"}}, {"type": "Feature", "geometry": {"type": "Point", "coordinates": [38.045451, -5.306717]}, "properties": {"rank": 484, "score": 0.8212, "aoi": "Handeni / Tanga (Greenstone gold belt)"}}, {"type": "Feature", "geometry": {"type": "Point", "coordinates": [37.849783, -5.421795]}, "properties": {"rank": 485, "score": 0.8211, "aoi": "Handeni / Tanga (Greenstone gold belt)"}}, {"type": "Feature", "geometry": {"type": "Point", "coordinates": [37.950593, -5.577371]}, "properties": {"rank": 486, "score": 0.821, "aoi": "Handeni / Tanga (Greenstone gold belt)"}}, {"type": "Feature", "geometry": {"type": "Point", "coordinates": [38.030265, -5.548925]}, "properties": {"rank": 487, "score": 0.821, "aoi": "Handeni / Tanga (Greenstone gold belt)"}}, {"type": "Feature", "geometry": {"type": "Point", "coordinates": [37.920108, -5.461903]}, "properties": {"rank": 488, "score": 0.821, "aoi": "Handeni / Tanga (Greenstone gold belt)"}}, {"type": "Feature", "geometry": {"type": "Point", "coordinates": [38.0882, -5.323606]}, "properties": {"rank": 489, "score": 0.821, "aoi": "Handeni / Tanga (Greenstone gold belt)"}}, {"type": "Feature", "geometry": {"type": "Point", "coordinates": [38.081892, -5.317627]}, "properties": {"rank": 490, "score": 0.8207, "aoi": "Handeni / Tanga (Greenstone gold belt)"}}, {"type": "Feature", "geometry": {"type": "Point", "coordinates": [37.888144, -5.468537]}, "properties": {"rank": 491, "score": 0.8207, "aoi": "Handeni / Tanga (Greenstone gold belt)"}}, {"type": "Feature", "geometry": {"type": "Point", "coordinates": [37.842355, -5.436433]}, "properties": {"rank": 492, "score": 0.8205, "aoi": "Handeni / Tanga (Greenstone gold belt)"}}, {"type": "Feature", "geometry": {"type": "Point", "coordinates": [38.054455, -5.320118]}, "properties": {"rank": 493, "score": 0.8204, "aoi": "Handeni / Tanga (Greenstone gold belt)"}}, {"type": "Feature", "geometry": {"type": "Point", "coordinates": [38.050984, -5.576456]}, "properties": {"rank": 494, "score": 0.8204, "aoi": "Handeni / Tanga (Greenstone gold belt)"}}, {"type": "Feature", "geometry": {"type": "Point", "coordinates": [37.845024, -5.456517]}, "properties": {"rank": 495, "score": 0.8204, "aoi": "Handeni / Tanga (Greenstone gold belt)"}}, {"type": "Feature", "geometry": {"type": "Point", "coordinates": [37.981906, -5.426011]}, "properties": {"rank": 496, "score": 0.8203, "aoi": "Handeni / Tanga (Greenstone gold belt)"}}, {"type": "Feature", "geometry": {"type": "Point", "coordinates": [37.954633, -5.43501]}, "properties": {"rank": 497, "score": 0.8203, "aoi": "Handeni / Tanga (Greenstone gold belt)"}}, {"type": "Feature", "geometry": {"type": "Point", "coordinates": [37.979403, -5.517905]}, "properties": {"rank": 498, "score": 0.8203, "aoi": "Handeni / Tanga (Greenstone gold belt)"}}, {"type": "Feature", "geometry": {"type": "Point", "coordinates": [37.965512, -5.512273]}, "properties": {"rank": 499, "score": 0.8203, "aoi": "Handeni / Tanga (Greenstone gold belt)"}}, {"type": "Feature", "geometry": {"type": "Point", "coordinates": [38.021761, -5.337072]}, "properties": {"rank": 500, "score": 0.8203, "aoi": "Handeni / Tanga (Greenstone gold belt)"}}]}